{"type":"FeatureCollection","act":{"from":-500,"to":-400,"years_inclusive":[-500,-401]},"attribution":{"source":"Cliopatria v0.2.0 (Seshat Global History Databank)","release":"GitHub tag v0.2.0 — https://github.com/Seshat-Global-History-Databank/cliopatria/releases/tag/v0.2.0","release_archive_sha256":"04e9f0d8ecb1d18a0cbb7d37a0b963a2c0ca4ebc2935708d27cc5d5131e4d5b8","internal_label_note":"The payload self-identifies as \"cliopatria_polities_only_v012\"; cite the release tag, not that label.","licence":"CC BY 4.0 — https://creativecommons.org/licenses/by/4.0/","citation":"Bennett, J.S., Mutch, E., Tollefson, A. et al. (2025). Cliopatria — A geospatial database of world-wide political entities from 3400BCE to 2024CE. Scientific Data 12, 247. https://doi.org/10.1038/s41597-025-04516-9","changes_made":"Changes were made. Features filtered to those overlapping this act window; polygons simplified with Douglas-Peucker at 0.25 degrees (topology preserved), invalid geometries repaired, and coordinates snapped to a 0.01 degree grid (2 decimal places); properties reduced to Name (n), FromYear (f), ToYear (t) and Wikidata Q-ID (w)."},"features":[{"type":"Feature","properties":{"n":"Qin","f":-750,"t":-451,"w":"Q1471995"},"geometry":{"type":"Polygon","coordinates":[[[107.94,34.55],[108.45,35.26],[108.22,35.64],[112.17,37.25],[111.23,36.35],[110.59,34.81],[110.74,34.23],[107.94,34.55]]]}},{"type":"Feature","properties":{"n":"Song","f":-750,"t":-481,"w":"Q7462"},"geometry":{"type":"Polygon","coordinates":[[[117.23,34.1],[116.62,34.1],[114.34,34.74],[115.99,35.71],[116.65,34.55],[117.57,34.55],[117.23,34.1]]]}},{"type":"Feature","properties":{"n":"Teng","f":-750,"t":-481,"w":"Q1356151"},"geometry":{"type":"Polygon","coordinates":[[[116.96,35.45],[117.18,35.07],[116.7,34.68],[116.18,35.26],[116.96,35.45]]]}},{"type":"Feature","properties":{"n":"Chen","f":-750,"t":-481,"w":"Q1069690"},"geometry":{"type":"Polygon","coordinates":[[[113.75,34.81],[115.59,34.42],[114.16,34.29],[113.75,34.81]]]}},{"type":"Feature","properties":{"n":"Cao","f":-750,"t":-481,"w":"Q204077"},"geometry":{"type":"Polygon","coordinates":[[[115.23,35.39],[114.5,34.94],[114.41,35.45],[115.01,35.77],[115.23,35.39]]]}},{"type":"Feature","properties":{"n":"Lu","f":-750,"t":-481,"w":"Q555994"},"geometry":{"type":"Polygon","coordinates":[[[117.64,34.87],[118.25,35.58],[116.29,35.32],[115.99,35.71],[115.23,35.39],[114.96,35.64],[115.6,36.22],[116.05,35.84],[120.73,36.42],[119.23,34.81],[117.64,34.87]]]}},{"type":"Feature","properties":{"n":"Zheng","f":-750,"t":-451,"w":"Q197598"},"geometry":{"type":"Polygon","coordinates":[[[114.41,35.45],[114.47,34.87],[113.34,34.94],[113.68,35.39],[114.41,35.45]]]}},{"type":"Feature","properties":{"n":"Cai","f":-750,"t":-481,"w":"Q1025803"},"geometry":{"type":"Polygon","coordinates":[[[113.59,34.23],[113.03,34.74],[113.34,34.94],[113.93,34.49],[113.59,34.23]]]}},{"type":"Feature","properties":{"n":"Zhu","f":-750,"t":-451,"w":"Q227007"},"geometry":{"type":"Polygon","coordinates":[[[117.59,35.64],[118.3,35.52],[117.77,35.0],[116.98,35.32],[117.59,35.64]]]}},{"type":"Feature","properties":{"n":"Yan","f":-750,"t":-405,"w":"Q1472004"},"geometry":{"type":"Polygon","coordinates":[[[117.89,39.19],[117.62,38.67],[116.15,38.55],[116.4,38.74],[115.86,39.38],[116.14,39.9],[117.57,40.36],[121.23,40.94],[119.32,39.51],[117.89,39.19]]]}},{"type":"Feature","properties":{"n":"Later Zhou","f":-750,"t":-451,"w":"Q1154556"},"geometry":{"type":"Polygon","coordinates":[[[112.32,35.45],[113.53,35.39],[113.34,34.94],[112.39,34.49],[112.32,35.45]]]}},{"type":"Feature","properties":{"n":"Xu","f":-750,"t":-451,"w":"Q2650109"},"geometry":{"type":"Polygon","coordinates":[[[117.18,35.07],[117.97,34.74],[117.67,34.42],[116.73,34.55],[117.18,35.07]]]}},{"type":"Feature","properties":{"n":"Chu","f":-700,"t":-481,"w":"Q504759"},"geometry":{"type":"Polygon","coordinates":[[[117.23,34.1],[118.91,32.94],[117.11,31.66],[116.84,30.69],[116.12,30.37],[114.11,30.5],[112.9,29.34],[110.23,29.99],[110.41,30.31],[109.48,30.95],[109.78,33.33],[110.9,34.23],[113.03,34.74],[113.59,34.23],[117.23,34.1]]]}},{"type":"Feature","properties":{"n":"Hadhramaut","f":-700,"t":-351,"w":"Q1517159"},"geometry":{"type":"MultiPolygon","coordinates":[[[[50.75,15.01],[49.41,14.69],[46.15,15.52],[46.55,16.16],[46.7,16.1],[50.12,16.61],[51.89,16.61],[50.75,15.01]]],[[[46.63,16.16],[46.63,16.23],[46.71,16.23],[46.63,16.16]]]]}},{"type":"Feature","properties":{"n":"Olmec Civilization","f":-650,"t":-367,"w":"Q135364"},"geometry":{"type":"Polygon","coordinates":[[[-94.23,17.58],[-95.95,18.61],[-95.47,18.8],[-94.92,18.16],[-92.69,18.54],[-94.23,17.58]]]}},{"type":"Feature","properties":{"n":"Kingdom of Kush","f":-630,"t":337,"w":"Q241790"},"geometry":{"type":"Polygon","coordinates":[[[34.26,19.64],[36.05,16.81],[34.71,16.49],[34.68,15.78],[32.53,15.2],[31.73,15.59],[31.39,16.36],[30.54,23.36],[33.39,23.81],[33.82,23.49],[34.26,19.64]]]}},{"type":"Feature","properties":{"n":"Janapada of Avanti","f":-600,"t":-451,"w":"Q4827705"},"geometry":{"type":"Polygon","coordinates":[[[75.96,23.62],[76.2,23.11],[75.57,22.85],[75.41,23.36],[75.96,23.62]]]}},{"type":"Feature","properties":{"n":"Janapada of Malla","f":-600,"t":-481,"w":"Q1376303"},"geometry":{"type":"Polygon","coordinates":[[[84.07,27.09],[84.61,26.77],[84.2,26.19],[83.68,26.64],[84.07,27.09]]]}},{"type":"Feature","properties":{"n":"Janapada of Cedī","f":-600,"t":-481,"w":"Q124207979"},"geometry":{"type":"Polygon","coordinates":[[[81.69,25.94],[81.82,25.36],[81.26,25.16],[81.19,25.68],[81.69,25.94]]]}},{"type":"Feature","properties":{"n":"Janapada of Kuru","f":-600,"t":-451,"w":"Q1068408"},"geometry":{"type":"Polygon","coordinates":[[[77.3,29.09],[77.76,28.77],[77.06,28.25],[76.86,28.77],[77.3,29.09]]]}},{"type":"Feature","properties":{"n":"Janapada of Kosala","f":-600,"t":-481,"w":"Q756854"},"geometry":{"type":"Polygon","coordinates":[[[82.05,27.54],[82.3,27.29],[81.61,26.77],[81.47,27.29],[82.05,27.54]]]}},{"type":"Feature","properties":{"n":"Janapada of Matsya","f":-600,"t":-451,"w":"Q2665398"},"geometry":{"type":"Polygon","coordinates":[[[76.16,27.87],[76.63,27.54],[76.24,27.03],[75.72,27.48],[76.16,27.87]]]}},{"type":"Feature","properties":{"n":"Janapada of Surasena","f":-600,"t":-451,"w":"Q1330149"},"geometry":{"type":"Polygon","coordinates":[[[77.63,27.67],[78.19,27.42],[77.64,26.84],[77.27,27.35],[77.63,27.67]]]}},{"type":"Feature","properties":{"n":"Janapada of Pañcāla","f":-600,"t":-451,"w":"Q558603"},"geometry":{"type":"Polygon","coordinates":[[[79.3,28.51],[79.55,28.25],[78.85,27.74],[78.72,28.25],[79.3,28.51]]]}},{"type":"Feature","properties":{"n":"Janapada of Vatsa","f":-600,"t":-481,"w":"Q1331184"},"geometry":{"type":"Polygon","coordinates":[[[82.09,26.13],[82.31,25.62],[81.82,25.36],[81.7,26.0],[82.09,26.13]]]}},{"type":"Feature","properties":{"n":"Janapada of Kāśī","f":-600,"t":-481,"w":"Q12660335"},"geometry":{"type":"Polygon","coordinates":[[[83.02,25.87],[83.28,25.62],[82.6,25.1],[82.46,25.62],[83.02,25.87]]]}},{"type":"Feature","properties":{"n":"Sabaeans","f":-550,"t":-451,"w":"Q940785"},"geometry":{"type":"MultiPolygon","coordinates":[[[[45.84,15.33],[45.85,15.39],[45.92,15.39],[45.84,15.33]]],[[[46.47,15.97],[45.32,15.2],[42.75,15.14],[42.82,16.61],[42.49,17.19],[43.55,17.77],[43.95,16.94],[45.23,16.1],[46.47,15.97]]]]}},{"type":"Feature","properties":{"n":"Wu","f":-550,"t":-481,"w":"Q274488"},"geometry":{"type":"Polygon","coordinates":[[[116.27,29.92],[116.1,30.31],[116.84,30.69],[117.11,31.66],[118.91,32.94],[117.23,34.1],[118.28,34.94],[119.3,34.81],[120.34,34.36],[120.92,32.62],[121.99,31.85],[120.92,31.85],[122.0,31.08],[120.68,30.18],[121.48,30.31],[122.03,29.92],[121.42,29.47],[119.78,29.99],[117.96,29.54],[116.27,29.92]]]}},{"type":"Feature","properties":{"n":"Peloponnesian League","f":-550,"t":-481,"w":"Q208742"},"geometry":{"type":"Polygon","coordinates":[[[22.57,37.77],[23.06,36.67],[22.36,36.67],[22.22,37.06],[21.74,36.87],[21.7,37.51],[21.24,37.84],[23.29,38.09],[23.04,37.77],[23.41,37.38],[22.57,37.77]]]}},{"type":"Feature","properties":{"n":"Wey","f":-550,"t":-481,"w":"Q1147897"},"geometry":{"type":"Polygon","coordinates":[[[115.36,36.74],[115.64,36.48],[115.12,35.84],[114.25,35.45],[115.36,36.74]]]}},{"type":"Feature","properties":{"n":"Scythia","f":-550,"t":-451,"w":"Q131802"},"geometry":{"type":"Polygon","coordinates":[[[38.49,46.09],[37.77,46.64],[38.5,46.66],[39.2,47.27],[34.85,46.11],[29.74,48.61],[29.1,49.89],[30.08,51.07],[31.38,51.64],[35.71,52.26],[41.42,52.28],[45.21,51.19],[45.77,49.46],[45.08,48.26],[42.98,47.01],[37.74,45.72],[38.49,46.09]]]}},{"type":"Feature","properties":{"n":"Qi","f":-550,"t":-481,"w":"Q1143524"},"geometry":{"type":"Polygon","coordinates":[[[119.16,37.19],[120.75,37.9],[122.71,37.45],[122.39,36.8],[121.91,36.93],[120.96,36.42],[116.05,35.84],[116.85,36.93],[116.63,37.45],[117.23,38.67],[119.46,37.96],[119.16,37.19]]]}},{"type":"Feature","properties":{"n":"Janapada of Aśmaka","f":-550,"t":-367,"w":"Q1194906"},"geometry":{"type":"Polygon","coordinates":[[[78.8,19.96],[78.37,19.51],[77.93,19.51],[78.16,20.21],[78.8,19.96]]]}},{"type":"Feature","properties":{"n":"Jin","f":-550,"t":-451,"w":"Q6201794"},"geometry":{"type":"Polygon","coordinates":[[[112.32,35.45],[112.15,34.49],[110.9,34.23],[110.59,34.81],[111.23,36.35],[112.2,37.32],[116.1,39.84],[115.86,39.38],[116.4,38.74],[116.15,38.55],[117.2,38.61],[116.63,37.45],[116.85,36.93],[116.05,35.84],[115.36,36.74],[114.28,35.52],[112.32,35.45]]]}},{"type":"Feature","properties":{"n":"Etruscans","f":-530,"t":-481,"w":"Q17161"},"geometry":{"type":"MultiPolygon","coordinates":[[[[9.58,41.98],[9.1,41.33],[8.62,41.72],[8.53,42.5],[9.49,43.02],[9.58,41.98]]],[[[10.46,42.69],[10.13,42.89],[10.21,42.89],[10.46,42.69]]],[[[10.54,43.08],[10.13,44.12],[10.62,44.71],[9.64,45.17],[9.47,45.69],[12.16,45.37],[12.4,45.04],[11.91,43.73],[12.31,43.54],[12.45,42.11],[10.54,43.08]]],[[[9.89,43.99],[9.89,44.06],[10.05,44.12],[9.89,43.99]]]]}},{"type":"Feature","properties":{"n":"Greek City-States","f":-500,"t":-481,"w":"Q148837"},"geometry":{"type":"MultiPolygon","coordinates":[[[[25.68,35.13],[26.23,35.19],[24.82,35.0],[23.62,35.52],[25.68,35.13]]],[[[23.12,36.35],[23.11,36.16],[22.87,36.16],[23.12,36.35]]],[[[-6.17,36.67],[-6.68,37.13],[-6.05,37.13],[-6.17,36.67]]],[[[24.36,37.71],[24.43,37.58],[24.27,37.51],[24.36,37.71]]],[[[22.55,37.45],[22.57,37.77],[22.8,37.77],[22.55,37.45]]],[[[20.93,37.9],[20.92,37.64],[20.61,37.71],[20.93,37.9]]],[[[24.77,38.03],[25.07,37.77],[24.83,37.71],[24.77,38.03]]],[[[14.14,38.03],[14.53,37.96],[14.05,37.77],[14.14,38.03]]],[[[20.8,38.29],[20.79,38.09],[20.32,38.16],[20.8,38.29]]],[[[23.56,38.74],[23.48,38.74],[23.49,38.8],[23.56,38.74]]],[[[24.67,38.93],[24.66,38.74],[24.36,38.87],[24.67,38.93]]],[[[17.98,40.61],[18.35,39.9],[17.35,40.55],[16.62,40.29],[16.45,39.64],[17.14,39.06],[15.93,37.96],[15.39,38.16],[15.05,36.74],[12.49,37.71],[14.98,37.06],[14.83,37.77],[15.15,38.16],[15.86,38.29],[16.27,38.74],[15.75,40.03],[14.03,41.0],[15.06,40.87],[16.14,40.03],[16.88,40.74],[17.98,40.61]]],[[[23.56,38.74],[24.18,38.55],[23.98,37.84],[22.6,38.42],[22.28,38.22],[22.66,37.96],[21.33,38.03],[21.74,38.35],[20.75,38.93],[21.64,39.38],[22.17,39.06],[22.54,39.97],[23.14,39.45],[22.8,39.06],[23.34,39.0],[23.49,38.8],[22.94,38.74],[23.63,38.48],[23.56,38.74]]],[[[-0.13,38.55],[-0.54,38.93],[-0.51,39.9],[-0.2,39.97],[-0.31,39.13],[0.1,38.8],[-0.13,38.55]]],[[[19.91,39.58],[19.76,39.64],[19.76,39.77],[19.91,39.58]]],[[[24.81,40.81],[24.79,40.61],[24.55,40.55],[24.81,40.81]]],[[[23.39,40.87],[24.52,41.2],[25.14,41.0],[23.7,40.81],[23.66,40.23],[23.35,40.29],[23.39,40.87]]],[[[19.79,40.36],[19.47,40.29],[19.44,41.33],[19.9,41.07],[19.79,40.36]]],[[[3.85,43.6],[2.98,43.15],[3.04,41.85],[2.7,42.37],[2.74,43.21],[3.45,43.67],[4.73,43.86],[6.6,43.28],[3.85,43.6]]],[[[25.57,37.13],[25.56,37.0],[25.33,37.0],[25.57,37.13]]],[[[25.22,37.71],[25.29,37.51],[25.05,37.51],[25.22,37.71]]],[[[26.31,37.71],[26.3,37.58],[25.99,37.51],[26.31,37.71]]],[[[25.46,40.03],[25.45,39.84],[24.97,39.84],[25.46,40.03]]],[[[26.04,40.29],[26.02,40.16],[25.7,40.1],[26.04,40.29]]],[[[26.36,40.36],[26.68,40.42],[26.67,40.36],[26.26,40.1],[26.36,40.36]]],[[[26.84,40.48],[26.77,40.61],[27.01,40.55],[26.84,40.48]]],[[[37.87,40.68],[36.51,41.13],[36.77,41.33],[38.3,40.87],[39.21,41.13],[40.6,40.87],[37.87,40.68]]],[[[29.37,41.2],[29.26,40.87],[27.92,41.0],[28.14,41.65],[29.37,41.2]]],[[[31.36,41.26],[31.69,41.39],[31.59,41.2],[31.36,41.26]]],[[[35.02,41.85],[34.79,41.98],[35.12,42.04],[35.02,41.85]]],[[[27.19,42.63],[28.8,44.97],[28.48,43.47],[27.51,42.63],[27.92,41.91],[27.45,41.98],[27.19,42.63]],[[27.46,42.11],[27.46,42.04],[27.54,42.04],[27.46,42.11]]],[[[39.63,43.73],[41.41,42.89],[40.42,43.15],[39.63,43.73]]],[[[39.95,43.73],[39.96,43.8],[40.04,43.8],[39.95,43.73]]],[[[36.37,45.1],[35.41,45.17],[33.93,44.45],[33.45,44.52],[33.61,45.1],[33.23,45.3],[33.92,44.97],[36.42,45.43],[36.37,45.1]]],[[[30.88,46.68],[29.61,45.69],[31.08,47.01],[31.53,46.68],[30.88,46.68]]],[[[38.6,47.2],[38.52,47.2],[38.69,47.25],[38.6,47.2]]]]}},{"type":"Feature","properties":{"n":"Yue","f":-500,"t":-451,"w":"Q1936158"},"geometry":{"type":"Polygon","coordinates":[[[116.27,29.92],[116.1,30.31],[118.86,32.24],[120.77,32.04],[122.0,31.08],[120.68,30.18],[121.48,30.31],[122.03,29.92],[121.82,29.54],[119.78,29.99],[117.96,29.54],[116.27,29.92]]]}},{"type":"Feature","properties":{"n":"Roman Republic","f":-500,"t":-481,"w":"Q175881"},"geometry":{"type":"Polygon","coordinates":[[[12.37,42.17],[12.37,42.11],[11.97,42.11],[12.37,42.17]]]}},{"type":"Feature","properties":{"n":"Carthage","f":-500,"t":-481,"w":"Q2429397"},"geometry":{"type":"MultiPolygon","coordinates":[[[[-7.47,33.26],[-7.88,33.52],[-6.99,33.97],[-7.47,33.26]]],[[[11.08,35.0],[10.0,34.29],[10.24,33.71],[12.23,32.81],[13.3,32.94],[15.06,32.43],[15.65,31.4],[17.85,30.95],[18.81,30.12],[15.57,31.14],[14.9,32.24],[9.62,33.33],[8.93,34.04],[8.85,34.74],[8.07,34.94],[7.9,36.22],[7.27,37.0],[8.52,36.87],[9.76,37.32],[10.46,36.74],[11.01,37.0],[10.46,35.9],[11.08,35.0]]],[[[14.34,35.84],[14.34,36.03],[14.57,35.97],[14.34,35.84]]],[[[-5.23,36.48],[-5.58,36.03],[-6.25,36.61],[-5.45,36.35],[-5.31,36.55],[-4.56,36.87],[-3.85,36.8],[-5.23,36.48]]],[[[12.57,38.03],[12.81,38.09],[12.73,37.9],[12.57,38.03]]],[[[13.12,38.16],[13.67,37.96],[13.04,37.96],[13.12,38.16]]],[[[1.27,38.8],[1.18,39.06],[1.65,39.13],[1.27,38.8]]],[[[9.36,39.19],[8.34,39.0],[8.4,40.29],[8.73,39.32],[9.36,39.19]]]]}},{"type":"Feature","properties":{"n":"(Macedonian Empire)","f":-500,"t":-481,"w":"Q83958"},"geometry":{"type":"Polygon","coordinates":[[[24.04,41.13],[23.39,40.87],[23.19,40.36],[22.65,40.61],[22.69,39.97],[22.21,39.84],[21.92,40.29],[20.91,40.55],[20.77,41.0],[21.28,41.52],[24.04,41.13]]]}},{"type":"Feature","properties":{"n":"(Spring and Autumn States)","f":-500,"t":-481,"w":"Q185047"},"geometry":{"type":"Polygon","coordinates":[[[116.12,30.37],[114.11,30.5],[112.9,29.34],[110.23,29.99],[110.41,30.31],[109.48,30.95],[109.31,31.59],[109.78,33.33],[110.9,34.23],[107.94,34.55],[108.45,35.26],[108.22,35.64],[113.27,37.77],[115.9,39.9],[121.23,40.94],[118.99,39.19],[117.89,39.19],[117.6,38.48],[119.46,37.96],[119.16,37.19],[120.75,37.9],[122.71,37.45],[122.39,36.8],[120.98,36.61],[119.23,34.81],[120.34,34.36],[120.92,32.62],[121.99,31.85],[118.86,32.24],[117.63,31.21],[117.02,31.21],[116.84,30.69],[116.12,30.37]]]}},{"type":"Feature","properties":{"n":"Janapada of Vajji","f":-500,"t":-481,"w":"Q605199"},"geometry":{"type":"Polygon","coordinates":[[[86.1,27.09],[86.39,26.64],[85.65,26.32],[85.35,26.71],[86.1,27.09]]]}},{"type":"Feature","properties":{"n":"Zapotec Civilization","f":-500,"t":-292,"w":"Q844750"},"geometry":{"type":"Polygon","coordinates":[[[-96.91,17.71],[-96.26,16.94],[-96.9,16.74],[-97.41,17.64],[-96.91,17.71]]]}},{"type":"Feature","properties":{"n":"Roman Kingdom","f":-500,"t":-481,"w":"Q201038"},"geometry":{"type":"Polygon","coordinates":[[[12.45,42.11],[12.45,41.78],[11.97,42.11],[12.45,42.11]]]}},{"type":"Feature","properties":{"n":"Magadha - Haryanka dynasty","f":-500,"t":-481,"w":"Q12459974"},"geometry":{"type":"Polygon","coordinates":[[[87.39,24.2],[84.51,25.36],[84.9,25.87],[85.42,25.87],[87.77,24.71],[87.39,24.2]]]}},{"type":"Feature","properties":{"n":"Macedonian Empire","f":-500,"t":-481,"w":"Q83958"},"geometry":{"type":"Polygon","coordinates":[[[24.04,41.13],[23.39,40.87],[23.19,40.36],[22.65,40.61],[22.69,39.97],[22.21,39.84],[21.92,40.29],[20.91,40.55],[20.77,41.0],[21.28,41.52],[24.04,41.13]]]}},{"type":"Feature","properties":{"n":"(Mahajanapadas)","f":-500,"t":-481,"w":"Q846025"},"geometry":{"type":"MultiPolygon","coordinates":[[[[78.8,19.96],[77.93,19.51],[77.83,19.96],[78.16,20.21],[78.8,19.96]]],[[[76.23,23.36],[75.87,22.85],[75.3,23.11],[75.67,23.62],[76.23,23.36]]],[[[81.0,25.42],[82.09,26.13],[82.31,25.62],[81.0,25.42]]],[[[78.19,27.42],[77.64,26.84],[77.24,27.16],[77.63,27.67],[78.19,27.42]]],[[[76.59,27.29],[75.94,27.03],[75.73,27.54],[76.39,27.87],[76.59,27.29]]],[[[79.55,28.25],[79.15,27.74],[78.59,27.99],[79.55,28.25]]],[[[77.71,28.51],[77.06,28.25],[76.86,28.77],[77.51,29.02],[77.71,28.51]]],[[[87.09,24.2],[85.95,24.52],[84.83,25.04],[84.55,25.62],[85.42,25.87],[86.56,25.55],[87.53,25.1],[87.73,24.46],[87.09,24.2]]],[[[83.28,25.62],[82.9,25.1],[82.34,25.36],[82.72,25.87],[83.28,25.62]]],[[[84.61,26.77],[84.2,26.19],[83.66,26.52],[84.03,26.9],[84.61,26.77]]],[[[86.39,26.64],[85.65,26.32],[85.36,26.77],[86.1,27.09],[86.39,26.64]]],[[[82.3,27.29],[81.91,26.77],[81.35,27.03],[82.3,27.29]]]]}},{"type":"Feature","properties":{"n":"Achaemenid Empire","f":-500,"t":-481,"w":"Q389688"},"geometry":{"type":"MultiPolygon","coordinates":[[[[64.01,42.56],[65.89,40.55],[68.86,41.2],[69.65,40.16],[70.14,40.23],[70.64,39.51],[72.06,39.0],[72.9,34.61],[71.53,33.39],[71.55,32.81],[70.83,31.98],[70.7,29.41],[68.09,26.77],[68.68,25.68],[67.93,23.81],[67.29,24.07],[67.21,24.71],[66.63,24.84],[66.35,25.55],[61.72,25.04],[57.38,25.74],[56.71,27.16],[55.44,26.52],[55.54,26.77],[54.83,26.45],[53.66,26.71],[51.32,27.99],[50.06,30.18],[48.94,30.31],[48.09,29.54],[46.62,29.86],[46.59,30.31],[45.77,30.44],[43.15,32.81],[40.7,34.16],[39.12,34.49],[36.9,33.07],[35.81,29.22],[34.84,29.41],[34.35,27.74],[33.19,28.51],[32.44,29.79],[35.15,24.65],[35.79,24.07],[35.55,23.81],[31.67,23.75],[30.46,23.36],[29.67,24.2],[28.42,24.71],[27.24,27.03],[24.34,29.92],[20.96,30.89],[18.73,29.99],[20.2,30.89],[20.02,32.24],[21.88,32.94],[23.09,32.62],[23.3,32.17],[24.89,31.98],[25.25,31.46],[26.85,31.46],[28.87,30.82],[30.97,31.66],[32.83,31.01],[34.55,31.53],[35.64,34.36],[36.05,34.55],[35.84,36.29],[36.29,36.8],[34.58,36.87],[33.98,36.29],[32.56,36.03],[31.39,36.87],[30.62,36.93],[30.49,36.35],[29.94,36.22],[29.24,36.22],[29.12,36.74],[28.03,36.67],[28.07,37.13],[27.22,37.32],[27.28,38.03],[26.43,38.22],[26.38,38.67],[26.59,38.35],[27.08,38.55],[26.85,39.58],[26.13,39.51],[26.26,40.1],[29.05,40.36],[28.91,40.61],[29.48,40.74],[29.37,41.2],[31.18,41.07],[32.63,41.91],[34.94,41.91],[37.87,40.68],[40.41,40.68],[41.72,41.91],[43.66,42.04],[44.04,41.07],[46.16,39.64],[49.38,39.97],[48.8,39.0],[48.88,37.71],[50.82,36.74],[52.19,36.55],[54.03,36.87],[53.97,38.93],[56.4,40.29],[58.3,42.17],[58.68,42.95],[58.44,43.54],[60.93,43.54],[62.04,43.21],[64.01,42.56]]],[[[33.04,34.55],[32.23,34.94],[32.89,35.39],[34.53,35.58],[33.04,34.55]]],[[[27.74,35.9],[27.69,36.29],[28.25,36.48],[27.74,35.9]]],[[[27.04,36.93],[27.12,36.93],[27.19,36.8],[26.87,36.67],[27.04,36.93]]],[[[25.88,38.16],[25.91,38.67],[26.22,38.55],[25.88,38.16]]],[[[26.25,38.93],[25.79,39.19],[26.51,39.32],[26.64,39.0],[26.25,38.93]]],[[[40.38,41.0],[40.39,41.07],[40.47,41.07],[40.38,41.0]]],[[[58.51,42.63],[58.43,42.63],[58.44,42.69],[58.51,42.63]]],[[[62.14,43.28],[62.06,43.28],[62.08,43.34],[62.14,43.28]]]]}},{"type":"Feature","properties":{"n":"Janapada of Malla","f":-480,"t":-451,"w":"Q1376303"},"geometry":{"type":"Polygon","coordinates":[[[84.07,27.09],[84.61,26.77],[84.2,26.19],[83.68,26.64],[84.07,27.09]]]}},{"type":"Feature","properties":{"n":"(Macedonian Empire)","f":-480,"t":-451,"w":"Q83958"},"geometry":{"type":"Polygon","coordinates":[[[22.7,40.03],[21.35,39.97],[20.77,41.0],[21.28,41.52],[22.95,41.46],[22.7,40.03]]]}},{"type":"Feature","properties":{"n":"Etruscans","f":-480,"t":-451,"w":"Q17161"},"geometry":{"type":"MultiPolygon","coordinates":[[[[9.58,41.98],[9.1,41.33],[8.62,41.72],[8.53,42.5],[9.49,43.02],[9.58,41.98]]],[[[10.46,42.69],[10.13,42.89],[10.21,42.89],[10.46,42.69]]],[[[11.91,43.73],[12.31,43.54],[12.45,42.11],[11.89,42.11],[10.54,43.08],[10.13,44.12],[10.62,44.71],[9.39,45.63],[10.53,45.69],[12.4,45.04],[11.91,43.73]]],[[[9.89,43.99],[9.89,44.06],[10.05,44.12],[9.89,43.99]]],[[[9.72,45.24],[9.72,45.17],[9.64,45.17],[9.72,45.24]]]]}},{"type":"Feature","properties":{"n":"Janapada of Cedī","f":-480,"t":-451,"w":"Q124207979"},"geometry":{"type":"Polygon","coordinates":[[[81.69,25.94],[81.82,25.36],[81.26,25.16],[81.19,25.68],[81.69,25.94]]]}},{"type":"Feature","properties":{"n":"Song","f":-480,"t":-451,"w":"Q7462"},"geometry":{"type":"Polygon","coordinates":[[[116.62,34.1],[114.34,34.74],[115.2,35.32],[115.01,35.77],[115.6,36.22],[116.21,35.52],[116.1,35.07],[117.67,34.42],[116.62,34.1]]]}},{"type":"Feature","properties":{"n":"Qi","f":-480,"t":-405,"w":"Q1143524"},"geometry":{"type":"Polygon","coordinates":[[[119.16,37.19],[120.75,37.9],[122.71,37.45],[122.39,36.8],[121.91,36.93],[120.96,36.42],[116.05,35.84],[116.85,36.93],[116.63,37.45],[117.23,38.67],[119.46,37.96],[119.16,37.19]]]}},{"type":"Feature","properties":{"n":"Teng","f":-480,"t":-451,"w":"Q1356151"},"geometry":{"type":"Polygon","coordinates":[[[116.96,35.45],[117.18,35.07],[116.7,34.68],[116.18,35.26],[116.96,35.45]]]}},{"type":"Feature","properties":{"n":"Janapada of Kosala","f":-480,"t":-451,"w":"Q756854"},"geometry":{"type":"Polygon","coordinates":[[[82.05,27.54],[82.3,27.29],[81.61,26.77],[81.47,27.29],[82.05,27.54]]]}},{"type":"Feature","properties":{"n":"Magadha - Haryanka dynasty","f":-480,"t":-451,"w":"Q12459974"},"geometry":{"type":"MultiPolygon","coordinates":[[[[86.21,22.21],[86.21,22.27],[86.29,22.27],[86.21,22.21]]],[[[86.09,22.46],[86.17,22.46],[86.16,22.4],[86.09,22.46]]],[[[87.95,24.91],[88.18,21.95],[86.9,21.31],[86.69,21.95],[86.3,22.34],[86.14,22.27],[86.24,22.46],[85.95,23.04],[85.97,24.65],[84.51,25.36],[84.9,25.87],[85.42,25.87],[87.95,24.91]]]]}},{"type":"Feature","properties":{"n":"Chu","f":-480,"t":-451,"w":"Q504759"},"geometry":{"type":"Polygon","coordinates":[[[117.23,34.1],[118.91,32.94],[117.11,31.66],[116.84,30.69],[116.12,30.37],[114.11,30.5],[112.9,29.34],[110.23,29.99],[110.41,30.31],[109.48,30.95],[109.78,33.33],[110.9,34.23],[113.03,34.74],[113.59,34.23],[117.23,34.1]]]}},{"type":"Feature","properties":{"n":"Macedonian Empire","f":-480,"t":-451,"w":"Q83958"},"geometry":{"type":"Polygon","coordinates":[[[22.7,40.03],[21.35,39.97],[20.77,41.0],[21.28,41.52],[22.95,41.46],[22.7,40.03]]]}},{"type":"Feature","properties":{"n":"(Mahajanapadas)","f":-480,"t":-451,"w":"Q846025"},"geometry":{"type":"MultiPolygon","coordinates":[[[[78.8,19.96],[77.93,19.51],[77.83,19.96],[78.16,20.21],[78.8,19.96]]],[[[76.23,23.36],[75.87,22.85],[75.3,23.11],[75.67,23.62],[76.23,23.36]]],[[[81.0,25.42],[82.09,26.13],[82.31,25.62],[81.0,25.42]]],[[[82.3,27.29],[81.91,26.77],[81.35,27.03],[82.3,27.29]]],[[[78.14,27.16],[77.64,26.84],[77.28,27.42],[77.93,27.67],[78.14,27.16]]],[[[76.59,27.29],[75.94,27.03],[75.73,27.54],[76.39,27.87],[76.59,27.29]]],[[[79.55,28.25],[79.15,27.74],[78.59,27.99],[79.55,28.25]]],[[[77.76,28.77],[77.36,28.25],[76.81,28.51],[77.3,29.09],[77.76,28.77]]],[[[86.28,22.21],[86.21,22.21],[86.21,22.27],[86.28,22.21]]],[[[86.16,22.4],[86.08,22.4],[86.09,22.46],[86.16,22.4]]],[[[88.18,21.95],[86.9,21.31],[86.69,21.95],[86.3,22.34],[86.14,22.27],[86.24,22.46],[85.95,23.04],[85.97,24.65],[84.83,25.04],[84.55,25.62],[85.42,25.87],[87.95,24.91],[88.18,21.95]]],[[[83.28,25.62],[82.9,25.1],[82.34,25.36],[82.72,25.87],[83.28,25.62]]],[[[84.61,26.77],[84.2,26.19],[83.66,26.52],[84.03,26.9],[84.61,26.77]]],[[[86.39,26.64],[85.65,26.32],[85.36,26.77],[86.1,27.09],[86.39,26.64]]]]}},{"type":"Feature","properties":{"n":"(Warring States China)","f":-480,"t":-451,"w":"Q185063"},"geometry":{"type":"Polygon","coordinates":[[[114.11,30.5],[112.9,29.34],[110.23,29.99],[110.41,30.31],[109.48,30.95],[109.31,31.59],[109.78,33.33],[110.9,34.23],[107.94,34.55],[108.45,35.26],[108.22,35.64],[113.27,37.77],[115.9,39.9],[121.23,40.94],[118.99,39.19],[117.89,39.19],[117.6,38.48],[119.46,37.96],[119.16,37.19],[120.75,37.9],[122.71,37.45],[122.39,36.8],[120.98,36.61],[119.23,34.81],[120.34,34.36],[120.92,32.62],[121.99,31.85],[120.92,31.85],[122.0,31.08],[120.68,30.18],[121.48,30.31],[122.03,29.92],[121.42,29.47],[119.78,29.99],[117.88,29.54],[116.27,29.92],[116.04,30.37],[114.11,30.5]]]}},{"type":"Feature","properties":{"n":"Achaemenid Empire","f":-480,"t":-451,"w":"Q389688"},"geometry":{"type":"MultiPolygon","coordinates":[[[[25.99,37.51],[26.08,37.71],[26.3,37.58],[25.99,37.51]]],[[[25.82,38.48],[25.99,38.67],[26.22,38.55],[25.88,38.16],[25.82,38.48]]],[[[26.1,39.13],[25.79,39.19],[26.51,39.32],[26.64,39.0],[26.1,39.13]]],[[[25.07,40.03],[25.46,40.03],[25.45,39.84],[25.07,40.03]]],[[[25.72,40.29],[26.04,40.29],[26.02,40.16],[25.72,40.29]]],[[[24.49,40.81],[24.81,40.81],[24.79,40.61],[24.49,40.81]]],[[[27.06,42.89],[26.98,42.89],[26.98,42.95],[27.06,42.89]]],[[[28.96,41.13],[30.62,41.07],[31.59,41.2],[32.63,41.91],[34.94,41.91],[37.87,40.68],[40.41,40.68],[41.72,41.91],[43.66,42.04],[44.04,41.07],[46.16,39.64],[49.38,39.97],[48.8,39.0],[48.88,37.71],[50.82,36.74],[52.19,36.55],[54.03,36.87],[53.97,38.93],[56.4,40.29],[58.3,42.17],[58.68,42.95],[58.63,43.67],[60.93,43.54],[64.01,42.56],[65.89,40.55],[68.86,41.2],[69.65,40.16],[70.14,40.23],[70.64,39.51],[72.06,39.0],[72.95,34.81],[71.53,33.39],[71.55,32.81],[70.83,31.98],[70.7,29.41],[68.09,26.77],[68.68,25.68],[67.93,23.81],[67.29,24.07],[67.21,24.71],[66.63,24.84],[66.35,25.55],[61.72,25.04],[57.38,25.74],[56.71,27.16],[55.44,26.52],[55.54,26.77],[54.83,26.45],[53.66,26.71],[51.32,27.99],[50.06,30.18],[48.94,30.31],[48.09,29.54],[46.62,29.86],[46.59,30.31],[45.77,30.44],[43.15,32.81],[40.7,34.16],[39.12,34.49],[36.9,33.07],[35.81,29.22],[34.84,29.41],[34.35,27.74],[33.19,28.51],[32.44,29.79],[35.71,23.94],[31.67,23.75],[30.46,23.36],[29.67,24.2],[28.42,24.71],[27.24,27.03],[24.34,29.92],[20.96,30.89],[18.73,29.99],[20.2,30.89],[20.02,32.24],[21.88,32.94],[23.09,32.62],[23.3,32.17],[24.89,31.98],[25.25,31.46],[26.85,31.46],[28.87,30.82],[30.97,31.66],[32.83,31.01],[33.98,31.14],[34.63,31.66],[35.64,34.36],[36.05,34.55],[35.84,36.29],[36.14,36.93],[35.49,36.61],[34.58,36.87],[33.98,36.29],[32.56,36.03],[32.07,36.61],[30.62,36.93],[30.49,36.35],[29.24,36.22],[29.12,36.74],[28.03,36.67],[28.07,37.13],[27.22,37.32],[27.28,38.03],[26.43,38.22],[26.37,38.55],[27.06,38.35],[26.85,39.58],[26.13,39.51],[26.44,40.42],[29.05,40.36],[28.91,40.61],[29.49,40.87],[27.53,41.07],[26.84,40.48],[24.35,41.0],[23.7,40.81],[23.74,40.23],[22.89,40.55],[22.94,41.39],[25.86,42.04],[27.64,43.15],[28.55,44.12],[28.48,43.47],[27.51,42.63],[28.96,41.13]]],[[[34.09,35.0],[33.04,34.55],[32.23,34.94],[34.54,35.71],[34.09,35.0]]],[[[27.69,36.29],[28.25,36.48],[28.14,36.03],[27.74,35.9],[27.69,36.29]]],[[[27.19,36.8],[26.87,36.67],[27.04,36.93],[27.19,36.8]]],[[[40.39,41.07],[40.47,41.07],[40.46,41.0],[40.39,41.07]]],[[[58.51,42.63],[58.43,42.63],[58.44,42.69],[58.51,42.63]]],[[[62.14,43.28],[62.06,43.28],[62.08,43.34],[62.14,43.28]]]]}},{"type":"Feature","properties":{"n":"Mahajanapadas","f":-480,"t":-451,"w":"Q846025"},"geometry":{"type":"Polygon","coordinates":[[[86.1,27.09],[86.39,26.64],[85.65,26.32],[85.35,26.71],[86.1,27.09]]]}},{"type":"Feature","properties":{"n":"Wu","f":-480,"t":-451,"w":"Q274488"},"geometry":{"type":"Polygon","coordinates":[[[120.92,32.62],[121.78,32.11],[121.84,31.66],[118.86,32.24],[117.63,31.21],[117.02,31.21],[117.11,31.66],[118.91,32.94],[117.23,34.1],[118.28,34.94],[120.34,34.36],[120.92,32.62]]]}},{"type":"Feature","properties":{"n":"Janapada of Kāśī","f":-480,"t":-451,"w":"Q12660335"},"geometry":{"type":"Polygon","coordinates":[[[83.02,25.87],[83.28,25.62],[82.6,25.1],[82.46,25.62],[83.02,25.87]]]}},{"type":"Feature","properties":{"n":"Greek City-States","f":-480,"t":-451,"w":"Q148837"},"geometry":{"type":"MultiPolygon","coordinates":[[[[-6.05,37.13],[-5.96,36.87],[-6.33,36.67],[-6.68,37.13],[-6.05,37.13]]],[[[24.36,37.71],[24.43,37.58],[24.27,37.51],[24.36,37.71]]],[[[22.57,37.77],[22.8,37.77],[22.71,37.45],[22.57,37.77]]],[[[20.62,37.9],[20.93,37.9],[20.92,37.64],[20.62,37.9]]],[[[14.06,38.03],[14.53,37.96],[14.37,37.77],[14.06,38.03]]],[[[20.57,38.42],[20.79,38.09],[20.32,38.16],[20.57,38.42]]],[[[22.85,38.55],[23.32,38.55],[22.9,38.16],[22.85,38.55]]],[[[17.98,40.61],[18.35,39.9],[17.35,40.55],[16.62,40.29],[16.45,39.64],[17.14,39.06],[15.93,37.96],[15.39,38.16],[15.05,36.74],[12.49,37.71],[14.98,37.06],[14.83,37.77],[15.15,38.16],[15.86,38.29],[16.27,38.74],[15.75,40.03],[14.03,41.0],[15.06,40.87],[16.14,40.03],[16.88,40.74],[17.98,40.61]]],[[[22.65,37.9],[21.33,38.03],[21.74,38.35],[20.98,38.8],[20.93,39.38],[21.64,39.51],[21.51,39.97],[21.92,40.16],[22.21,39.84],[22.7,40.03],[23.14,39.45],[22.8,39.06],[23.42,38.93],[22.29,38.42],[22.65,37.9]]],[[[0.1,38.8],[-0.13,38.55],[-0.54,38.93],[-0.51,39.9],[-0.2,39.97],[0.1,38.8]]],[[[19.91,39.58],[19.76,39.64],[19.76,39.77],[19.91,39.58]]],[[[19.79,40.36],[19.47,40.29],[19.44,41.33],[19.79,40.36]]],[[[3.85,43.6],[2.98,43.15],[3.04,41.85],[2.7,42.37],[2.74,43.21],[3.45,43.67],[4.73,43.86],[6.59,43.41],[3.85,43.6]]],[[[25.68,35.13],[26.23,35.19],[24.82,35.0],[23.62,35.52],[25.68,35.13]]],[[[24.77,38.03],[25.07,37.77],[24.83,37.71],[24.77,38.03]]],[[[24.39,38.22],[24.62,38.16],[24.61,37.96],[24.22,38.03],[24.39,38.22]]],[[[24.67,38.93],[24.66,38.74],[24.36,38.87],[24.67,38.93]]],[[[40.41,40.68],[37.87,40.68],[36.51,41.13],[40.46,41.0],[40.41,40.68]]],[[[31.51,41.2],[31.36,41.26],[31.69,41.39],[31.51,41.2]]],[[[35.02,41.85],[34.79,41.98],[35.12,42.04],[35.02,41.85]]],[[[39.63,43.73],[41.41,42.89],[40.82,43.15],[39.63,43.73]]],[[[39.95,43.73],[39.96,43.8],[40.04,43.8],[39.95,43.73]]],[[[36.37,45.1],[35.41,45.17],[33.93,44.45],[33.45,44.52],[33.61,45.1],[33.23,45.3],[33.92,44.97],[36.42,45.43],[36.37,45.1]]],[[[31.53,46.68],[30.88,46.68],[29.61,45.69],[30.46,46.61],[31.57,46.94],[31.53,46.68]]],[[[38.63,47.2],[38.52,47.2],[38.69,47.25],[38.63,47.2]]]]}},{"type":"Feature","properties":{"n":"Cao","f":-480,"t":-451,"w":"Q204077"},"geometry":{"type":"Polygon","coordinates":[[[115.2,35.32],[114.5,34.94],[114.41,35.45],[114.86,35.77],[115.2,35.32]]]}},{"type":"Feature","properties":{"n":"Chen","f":-480,"t":-451,"w":"Q1069690"},"geometry":{"type":"Polygon","coordinates":[[[113.75,34.81],[115.59,34.42],[114.16,34.29],[113.75,34.81]]]}},{"type":"Feature","properties":{"n":"Wey","f":-480,"t":-451,"w":"Q1147897"},"geometry":{"type":"Polygon","coordinates":[[[115.36,36.74],[115.64,36.48],[115.01,35.77],[114.25,35.45],[115.36,36.74]]]}},{"type":"Feature","properties":{"n":"Cai","f":-480,"t":-451,"w":"Q1025803"},"geometry":{"type":"Polygon","coordinates":[[[113.59,34.23],[113.03,34.74],[113.34,34.94],[113.93,34.49],[113.59,34.23]]]}},{"type":"Feature","properties":{"n":"Roman Republic","f":-480,"t":-338,"w":"Q175881"},"geometry":{"type":"Polygon","coordinates":[[[11.97,42.11],[12.45,42.11],[12.45,41.78],[11.97,42.11]]]}},{"type":"Feature","properties":{"n":"Carthage","f":-480,"t":-451,"w":"Q2429397"},"geometry":{"type":"MultiPolygon","coordinates":[[[[-7.47,33.26],[-7.88,33.52],[-6.99,33.97],[-7.47,33.26]]],[[[11.08,35.0],[10.0,34.29],[10.24,33.71],[12.23,32.81],[13.3,32.94],[15.06,32.43],[15.65,31.4],[17.85,30.95],[18.81,30.12],[15.57,31.14],[14.9,32.24],[9.62,33.33],[8.93,34.04],[8.85,34.74],[7.99,35.07],[7.74,36.48],[6.73,36.48],[6.73,36.93],[8.52,36.87],[9.6,37.32],[10.23,37.25],[10.23,36.8],[11.01,37.0],[10.46,35.9],[11.08,35.0]]],[[[-5.94,35.52],[-5.57,35.84],[-5.24,35.52],[-5.94,35.52]]],[[[14.34,35.84],[14.34,36.03],[14.57,35.97],[14.34,35.84]]],[[[-5.23,36.48],[-5.58,36.03],[-6.25,36.61],[-5.45,36.35],[-5.31,36.55],[-4.56,36.87],[-3.85,36.8],[-5.23,36.48]]],[[[12.57,38.03],[12.81,38.09],[12.73,37.9],[12.57,38.03]]],[[[13.12,38.16],[13.67,37.96],[13.04,37.96],[13.12,38.16]]],[[[1.18,39.06],[1.65,39.13],[1.66,39.0],[1.18,39.06]]],[[[9.36,39.19],[8.97,38.87],[8.34,39.0],[8.4,40.29],[8.73,39.32],[9.36,39.19]]]]}},{"type":"Feature","properties":{"n":"Lu","f":-480,"t":-451,"w":"Q555994"},"geometry":{"type":"Polygon","coordinates":[[[117.64,34.87],[118.25,35.58],[116.29,35.32],[115.96,35.64],[117.35,36.16],[120.73,36.42],[119.26,34.87],[117.64,34.87]]]}},{"type":"Feature","properties":{"n":"Janapada of Vatsa","f":-480,"t":-451,"w":"Q1331184"},"geometry":{"type":"Polygon","coordinates":[[[82.09,26.13],[82.31,25.62],[81.82,25.36],[81.7,26.0],[82.09,26.13]]]}},{"type":"Feature","properties":{"n":"Xu","f":-450,"t":-405,"w":"Q2650109"},"geometry":{"type":"Polygon","coordinates":[[[117.41,35.07],[116.76,35.0],[116.52,35.32],[117.14,35.52],[117.41,35.07]]]}},{"type":"Feature","properties":{"n":"Later Zhou","f":-450,"t":-405,"w":"Q1154556"},"geometry":{"type":"Polygon","coordinates":[[[112.32,35.45],[113.53,35.39],[113.26,34.94],[112.13,35.0],[112.32,35.45]]]}},{"type":"Feature","properties":{"n":"Yue","f":-450,"t":-405,"w":"Q1936158"},"geometry":{"type":"Polygon","coordinates":[[[116.27,29.92],[116.1,30.31],[116.84,30.69],[117.11,31.66],[118.85,32.81],[118.11,34.36],[117.72,34.36],[117.97,34.74],[119.3,34.81],[120.34,34.36],[120.92,32.62],[121.99,31.85],[120.92,31.85],[122.0,31.08],[120.68,30.18],[121.48,30.31],[122.03,29.92],[121.42,29.47],[119.78,29.99],[117.96,29.54],[116.27,29.92]]]}},{"type":"Feature","properties":{"n":"Odrysian Kingdom","f":-450,"t":-405,"w":"Q870517"},"geometry":{"type":"MultiPolygon","coordinates":[[[[28.13,41.59],[28.14,41.65],[28.22,41.65],[28.13,41.59]]],[[[28.13,41.52],[26.82,41.13],[24.04,41.13],[23.15,42.11],[24.08,43.73],[27.75,44.19],[27.73,44.78],[28.64,44.97],[27.99,43.41],[27.19,42.63],[28.13,41.52]]]]}},{"type":"Feature","properties":{"n":"Greek City-States","f":-450,"t":-405,"w":"Q148837"},"geometry":{"type":"MultiPolygon","coordinates":[[[[24.3,35.32],[26.23,35.19],[23.68,35.26],[23.62,35.52],[24.3,35.32]]],[[[22.89,36.42],[23.12,36.35],[23.11,36.16],[22.89,36.42]]],[[[22.55,37.45],[22.57,37.77],[22.8,37.77],[22.55,37.45]]],[[[13.9,37.96],[14.53,37.96],[14.37,37.77],[13.9,37.96]]],[[[22.13,38.35],[22.66,37.96],[21.33,38.03],[22.13,38.35]]],[[[17.98,40.61],[18.35,39.9],[17.35,40.55],[16.62,40.29],[16.45,39.64],[17.14,39.06],[15.93,37.96],[15.39,38.16],[15.05,36.74],[12.49,37.71],[14.98,37.06],[14.83,37.77],[15.15,38.16],[15.86,38.29],[16.27,38.74],[15.75,40.03],[14.03,41.0],[15.06,40.87],[16.14,40.03],[16.88,40.74],[17.98,40.61]]],[[[0.1,38.8],[-0.13,38.55],[-0.54,38.93],[-0.51,39.9],[-0.2,39.97],[0.1,38.8]]],[[[20.68,39.26],[21.64,39.51],[21.51,39.97],[21.92,40.16],[22.21,39.84],[22.7,40.03],[23.14,39.45],[22.82,39.38],[23.02,38.87],[21.35,38.42],[20.68,39.26]]],[[[19.79,40.36],[19.47,40.29],[19.44,41.33],[19.79,40.36]]],[[[3.85,43.6],[2.98,43.15],[3.04,41.85],[2.7,42.37],[2.74,43.21],[3.45,43.67],[4.73,43.86],[6.59,43.41],[3.85,43.6]]],[[[40.58,40.74],[37.87,40.68],[36.51,41.13],[40.58,40.74]]],[[[31.51,41.2],[31.36,41.26],[31.69,41.39],[31.51,41.2]]],[[[35.02,41.85],[34.79,41.98],[35.12,42.04],[35.02,41.85]]],[[[39.63,43.73],[41.41,42.89],[40.82,43.15],[39.63,43.73]]],[[[27.61,41.98],[27.19,42.63],[28.8,44.97],[28.48,43.47],[27.51,42.63],[27.94,42.04],[27.61,41.98]]],[[[40.03,43.73],[39.95,43.73],[39.96,43.8],[40.03,43.73]]],[[[35.41,45.17],[33.93,44.45],[33.47,44.65],[33.54,45.16],[36.42,45.43],[36.37,45.1],[35.41,45.17]]],[[[31.53,46.68],[30.88,46.68],[29.61,45.69],[30.46,46.61],[31.57,46.94],[31.53,46.68]]],[[[39.08,47.6],[39.2,47.33],[38.35,47.2],[39.08,47.6]]]]}},{"type":"Feature","properties":{"n":"Sabaeans","f":-450,"t":-384,"w":"Q940785"},"geometry":{"type":"MultiPolygon","coordinates":[[[[45.84,15.33],[45.85,15.39],[45.92,15.39],[45.84,15.33]]],[[[46.47,15.97],[45.32,15.2],[42.75,15.14],[42.82,16.61],[42.49,17.19],[43.55,17.77],[43.95,16.94],[45.23,16.1],[46.47,15.97]]]]}},{"type":"Feature","properties":{"n":"Wey","f":-450,"t":-405,"w":"Q1147897"},"geometry":{"type":"Polygon","coordinates":[[[115.36,36.74],[115.64,36.48],[114.83,35.71],[114.58,36.03],[115.36,36.74]]]}},{"type":"Feature","properties":{"n":"Janapada of Matsya","f":-450,"t":-405,"w":"Q2665398"},"geometry":{"type":"Polygon","coordinates":[[[76.16,27.87],[76.63,27.54],[76.24,27.03],[75.72,27.48],[76.16,27.87]]]}},{"type":"Feature","properties":{"n":"Janapada of Pañcāla","f":-450,"t":-405,"w":"Q558603"},"geometry":{"type":"Polygon","coordinates":[[[79.3,28.51],[79.55,28.25],[78.85,27.74],[78.72,28.25],[79.3,28.51]]]}},{"type":"Feature","properties":{"n":"Peloponnesian League","f":-450,"t":-405,"w":"Q208742"},"geometry":{"type":"Polygon","coordinates":[[[23.17,37.32],[22.57,37.77],[23.06,36.67],[22.36,36.67],[22.22,37.06],[21.74,36.87],[21.25,37.96],[22.97,37.96],[22.45,38.48],[22.94,38.8],[23.7,38.48],[23.04,37.9],[23.17,37.32]]]}},{"type":"Feature","properties":{"n":"Lu","f":-450,"t":-405,"w":"Q555994"},"geometry":{"type":"Polygon","coordinates":[[[117.81,34.74],[118.3,35.52],[116.29,35.32],[115.96,35.64],[117.35,36.16],[120.73,36.42],[119.26,34.87],[117.81,34.74]]]}},{"type":"Feature","properties":{"n":"Carthage","f":-450,"t":-405,"w":"Q2429397"},"geometry":{"type":"MultiPolygon","coordinates":[[[[11.08,35.0],[10.0,34.29],[10.24,33.71],[12.23,32.81],[13.3,32.94],[15.06,32.43],[15.65,31.4],[17.85,30.95],[18.81,30.12],[15.57,31.14],[14.9,32.24],[9.62,33.33],[8.93,34.04],[8.85,34.74],[8.07,34.94],[7.59,36.61],[1.15,36.16],[-1.88,34.81],[-4.73,34.87],[-5.63,35.52],[-6.73,33.59],[-7.47,33.26],[-7.88,33.52],[-6.61,34.16],[-5.95,35.71],[-5.57,35.84],[-4.75,35.19],[-2.84,35.45],[-2.66,35.07],[-1.89,35.07],[0.68,36.42],[3.46,36.87],[5.56,36.67],[6.33,37.06],[8.52,36.87],[10.23,37.25],[10.23,36.8],[11.01,37.0],[10.46,35.9],[11.08,35.58],[11.08,35.0]]],[[[14.34,35.84],[14.34,36.03],[14.57,35.97],[14.34,35.84]]],[[[-5.23,36.48],[-5.58,36.03],[-6.25,36.61],[-5.45,36.35],[-5.31,36.55],[-4.56,36.87],[-3.85,36.8],[-5.23,36.48]]],[[[12.57,38.03],[12.81,38.09],[12.73,37.9],[12.57,38.03]]],[[[13.12,38.16],[13.67,37.96],[13.04,37.96],[13.12,38.16]]],[[[1.27,38.8],[1.18,39.06],[1.65,39.13],[1.27,38.8]]],[[[9.59,39.13],[8.34,39.0],[8.15,40.94],[9.1,41.26],[9.82,40.74],[9.59,39.13]]]]}},{"type":"Feature","properties":{"n":"Zhu","f":-450,"t":-405,"w":"Q227007"},"geometry":{"type":"Polygon","coordinates":[[[118.3,35.52],[117.61,34.81],[117.14,35.52],[118.3,35.52]]]}},{"type":"Feature","properties":{"n":"Janapada of Surasena","f":-450,"t":-405,"w":"Q1330149"},"geometry":{"type":"Polygon","coordinates":[[[77.63,27.67],[78.19,27.42],[77.64,26.84],[77.27,27.35],[77.63,27.67]]]}},{"type":"Feature","properties":{"n":"Zheng","f":-450,"t":-405,"w":"Q197598"},"geometry":{"type":"Polygon","coordinates":[[[113.53,35.39],[114.98,35.71],[115.23,35.39],[114.47,34.87],[113.13,34.81],[113.53,35.39]]]}},{"type":"Feature","properties":{"n":"Janapada of Kuru","f":-450,"t":-405,"w":"Q1068408"},"geometry":{"type":"Polygon","coordinates":[[[77.3,29.09],[77.76,28.77],[77.06,28.25],[76.86,28.77],[77.3,29.09]]]}},{"type":"Feature","properties":{"n":"Etruscans","f":-450,"t":-384,"w":"Q17161"},"geometry":{"type":"MultiPolygon","coordinates":[[[[9.58,41.98],[9.1,41.33],[8.62,41.72],[8.53,42.5],[9.49,43.02],[9.58,41.98]]],[[[10.13,42.76],[10.13,42.89],[10.46,42.95],[10.13,42.76]]],[[[11.91,43.73],[12.31,43.54],[12.45,42.11],[11.89,42.11],[10.54,43.08],[10.13,44.12],[10.62,44.71],[9.39,45.63],[10.53,45.69],[12.4,45.04],[11.91,43.73]]],[[[9.89,43.99],[9.89,44.06],[10.05,44.12],[9.89,43.99]]],[[[9.72,45.24],[9.72,45.17],[9.64,45.17],[9.72,45.24]]]]}},{"type":"Feature","properties":{"n":"(Macedonian Empire)","f":-450,"t":-405,"w":"Q83958"},"geometry":{"type":"Polygon","coordinates":[[[23.53,40.61],[22.65,40.61],[22.7,40.03],[22.21,39.84],[21.92,40.16],[21.35,39.97],[21.38,40.42],[20.77,40.94],[21.28,41.52],[23.58,41.46],[24.03,41.07],[23.53,40.61]]]}},{"type":"Feature","properties":{"n":"Scythia","f":-450,"t":-405,"w":"Q131802"},"geometry":{"type":"MultiPolygon","coordinates":[[[[31.56,46.26],[31.51,46.37],[32.01,46.2],[31.56,46.26]]],[[[34.85,46.19],[35.05,45.3],[32.61,45.33],[33.59,46.1],[32.48,46.08],[31.55,46.55],[32.36,46.47],[32.86,46.93],[31.83,47.35],[29.39,47.15],[27.61,48.01],[26.92,49.03],[26.92,50.25],[28.25,50.99],[33.53,52.16],[41.33,52.62],[44.09,51.97],[45.34,50.03],[45.44,48.61],[42.87,47.19],[39.03,46.2],[40.14,47.09],[39.96,47.95],[37.52,47.49],[37.54,47.07],[34.85,46.19]]]]}},{"type":"Feature","properties":{"n":"Song","f":-450,"t":-405,"w":"Q7462"},"geometry":{"type":"Polygon","coordinates":[[[117.23,34.1],[114.34,34.74],[115.23,35.39],[114.83,35.71],[115.65,36.16],[116.29,35.32],[117.97,34.74],[117.23,34.1]]]}},{"type":"Feature","properties":{"n":"Janapada of Avanti","f":-450,"t":-405,"w":"Q4827705"},"geometry":{"type":"Polygon","coordinates":[[[75.96,23.62],[76.2,23.11],[75.57,22.85],[75.41,23.36],[75.96,23.62]]]}},{"type":"Feature","properties":{"n":"Chu","f":-450,"t":-405,"w":"Q504759"},"geometry":{"type":"Polygon","coordinates":[[[114.11,30.5],[112.9,29.34],[110.23,29.99],[110.41,30.31],[109.48,30.95],[109.31,31.59],[109.78,33.33],[110.54,33.91],[109.59,34.61],[114.47,34.87],[116.62,34.1],[118.11,34.36],[118.85,32.81],[117.11,31.66],[116.84,30.69],[116.04,30.37],[114.11,30.5]]]}},{"type":"Feature","properties":{"n":"Jin","f":-450,"t":-405,"w":"Q6201794"},"geometry":{"type":"Polygon","coordinates":[[[116.05,35.84],[115.36,36.74],[114.3,35.39],[112.32,35.45],[112.13,35.0],[113.26,34.94],[113.29,34.61],[110.59,34.81],[111.23,36.35],[112.2,37.32],[115.9,39.9],[116.4,38.74],[116.15,38.55],[117.2,38.61],[116.63,37.45],[116.85,36.93],[116.05,35.84]]]}},{"type":"Feature","properties":{"n":"Magadha - Haryanka dynasty","f":-450,"t":-405,"w":"Q12459974"},"geometry":{"type":"MultiPolygon","coordinates":[[[[82.41,23.88],[82.42,23.94],[82.5,23.94],[82.41,23.88]]],[[[86.96,26.52],[88.61,24.39],[88.18,21.95],[86.98,21.31],[86.16,22.4],[82.89,23.56],[80.9,25.74],[81.08,26.77],[81.76,27.61],[82.7,27.8],[86.96,26.52]]],[[[80.99,25.36],[81.07,25.36],[81.06,25.29],[80.99,25.36]]]]}},{"type":"Feature","properties":{"n":"Achaemenid Empire","f":-450,"t":-405,"w":"Q389688"},"geometry":{"type":"MultiPolygon","coordinates":[[[[64.01,42.56],[65.89,40.55],[68.86,41.2],[69.65,40.16],[70.14,40.23],[70.64,39.51],[72.06,39.0],[72.82,35.84],[72.46,34.1],[71.53,33.39],[71.55,32.81],[70.83,31.98],[70.7,29.41],[68.09,26.77],[68.68,25.68],[67.93,23.81],[67.29,24.07],[67.21,24.71],[66.63,24.84],[66.35,25.55],[61.72,25.04],[57.38,25.74],[56.71,27.16],[55.44,26.52],[55.54,26.77],[54.83,26.45],[53.66,26.71],[51.32,27.99],[50.06,30.18],[48.94,30.31],[48.09,29.54],[46.62,29.86],[46.59,30.31],[45.77,30.44],[43.15,32.81],[40.7,34.16],[39.12,34.49],[36.9,33.07],[35.81,29.22],[34.84,29.41],[34.35,27.74],[33.19,28.51],[32.44,29.79],[35.15,24.65],[35.79,24.07],[35.55,23.81],[31.67,23.75],[30.46,23.36],[29.67,24.2],[28.42,24.71],[27.24,27.03],[24.34,29.92],[20.96,30.89],[18.73,29.99],[20.2,30.89],[20.02,32.24],[21.88,32.94],[23.09,32.62],[23.3,32.17],[24.89,31.98],[25.25,31.46],[26.85,31.46],[28.87,30.82],[30.97,31.66],[31.88,31.46],[32.0,31.08],[34.3,31.27],[35.64,34.36],[36.05,34.55],[35.84,36.29],[36.29,36.8],[34.58,36.87],[33.98,36.29],[32.56,36.03],[32.07,36.61],[30.62,36.93],[30.49,36.35],[29.24,36.22],[29.12,36.74],[28.59,36.8],[26.9,38.29],[27.44,39.19],[26.74,39.26],[27.17,39.64],[26.66,40.16],[29.11,40.23],[28.91,40.61],[29.48,40.74],[29.37,41.2],[31.18,41.07],[32.63,41.91],[34.94,41.91],[37.87,40.68],[40.41,40.68],[41.72,41.91],[43.66,42.04],[44.04,41.07],[46.16,39.64],[49.38,39.97],[48.8,39.0],[48.88,37.71],[50.82,36.74],[52.19,36.55],[54.03,36.87],[53.97,38.93],[56.4,40.29],[58.3,42.17],[58.68,42.95],[58.44,43.54],[62.04,43.21],[64.01,42.56]]],[[[34.09,35.0],[33.04,34.55],[32.23,34.94],[34.54,35.71],[34.09,35.0]]],[[[40.46,41.0],[40.38,41.0],[40.39,41.07],[40.46,41.0]]],[[[58.52,42.69],[58.51,42.63],[58.43,42.63],[58.52,42.69]]],[[[62.16,43.34],[62.14,43.28],[62.06,43.28],[62.16,43.34]]]]}},{"type":"Feature","properties":{"n":"Qin","f":-450,"t":-405,"w":"Q1471995"},"geometry":{"type":"Polygon","coordinates":[[[109.51,34.61],[108.25,34.94],[108.17,35.52],[109.65,36.48],[112.17,37.25],[111.23,36.35],[110.59,34.81],[109.51,34.61]]]}},{"type":"Feature","properties":{"n":"(Warring States China)","f":-450,"t":-405,"w":"Q185063"},"geometry":{"type":"Polygon","coordinates":[[[112.9,29.34],[110.23,29.99],[110.41,30.31],[109.48,30.95],[109.31,31.59],[109.78,33.33],[110.51,34.04],[109.23,34.87],[108.25,34.94],[108.22,35.64],[113.27,37.77],[115.9,39.9],[121.23,40.94],[118.99,39.19],[117.89,39.19],[117.6,38.48],[119.46,37.96],[119.16,37.19],[120.75,37.9],[122.71,37.45],[122.39,36.8],[120.98,36.61],[119.23,34.81],[120.34,34.36],[120.92,32.62],[121.99,31.85],[120.92,31.85],[122.0,31.08],[120.68,30.18],[121.48,30.31],[122.03,29.92],[121.82,29.54],[119.78,29.99],[117.88,29.54],[116.27,29.92],[116.12,30.37],[114.11,30.5],[112.9,29.34]],[[117.07,35.52],[116.91,35.45],[116.96,35.45],[117.07,35.52]],[[116.59,35.32],[116.67,35.32],[116.69,35.36],[116.59,35.32]],[[116.88,35.44],[116.75,35.39],[116.78,35.39],[116.88,35.44]]]}},{"type":"Feature","properties":{"n":"(Mahajanapadas)","f":-450,"t":-405,"w":"Q846025"},"geometry":{"type":"MultiPolygon","coordinates":[[[[78.8,19.96],[77.93,19.51],[77.83,19.96],[78.16,20.21],[78.8,19.96]]],[[[76.2,23.11],[75.57,22.85],[75.41,23.36],[75.96,23.62],[76.2,23.11]]],[[[82.5,23.94],[82.49,23.88],[82.41,23.88],[82.5,23.94]]],[[[87.54,26.0],[88.61,24.39],[88.18,21.95],[86.98,21.31],[86.16,22.4],[82.89,23.56],[80.9,25.74],[81.08,26.77],[81.76,27.61],[82.7,27.8],[85.53,27.29],[87.54,26.0]]],[[[81.07,25.36],[81.06,25.29],[80.98,25.29],[81.07,25.36]]],[[[78.19,27.42],[77.64,26.84],[77.24,27.16],[77.63,27.67],[78.19,27.42]]],[[[76.59,27.29],[75.94,27.03],[75.73,27.54],[76.16,27.87],[76.59,27.29]]],[[[79.55,28.25],[79.15,27.74],[78.59,27.99],[79.55,28.25]]],[[[77.76,28.77],[77.36,28.25],[76.81,28.51],[77.3,29.09],[77.76,28.77]]]]}},{"type":"Feature","properties":{"n":"Macedonian Empire","f":-450,"t":-405,"w":"Q83958"},"geometry":{"type":"Polygon","coordinates":[[[23.53,40.61],[22.65,40.61],[22.7,40.03],[22.21,39.84],[21.92,40.16],[21.35,39.97],[21.38,40.42],[20.77,40.94],[21.28,41.52],[23.58,41.46],[24.03,41.07],[23.53,40.61]]]}},{"type":"Feature","properties":{"n":"Scythia","f":-404,"t":-351,"w":"Q131802"},"geometry":{"type":"MultiPolygon","coordinates":[[[[31.56,46.26],[31.51,46.37],[32.01,46.2],[31.56,46.26]]],[[[34.85,46.19],[35.05,45.3],[32.61,45.33],[33.59,46.1],[32.48,46.08],[31.55,46.55],[32.36,46.47],[32.86,46.93],[31.83,47.35],[29.39,47.15],[27.61,48.01],[26.92,49.03],[26.92,50.25],[28.25,50.99],[33.53,52.16],[41.33,52.62],[44.09,51.97],[45.34,50.03],[45.44,48.61],[42.87,47.19],[39.03,46.2],[40.14,47.09],[39.96,47.95],[37.52,47.49],[37.54,47.07],[34.85,46.19]]]]}},{"type":"Feature","properties":{"n":"Yuezhi","f":-404,"t":-384,"w":"Q467985"},"geometry":{"type":"Polygon","coordinates":[[[80.38,44.84],[81.12,42.3],[85.79,42.76],[90.22,41.91],[93.47,40.61],[93.17,39.9],[92.14,39.51],[86.44,38.35],[85.11,37.45],[81.26,36.61],[78.42,37.51],[77.03,38.8],[72.2,39.97],[72.1,40.42],[76.28,42.17],[75.14,43.21],[75.2,43.6],[74.79,43.8],[75.0,44.12],[73.97,44.84],[74.32,45.96],[75.45,46.55],[77.39,46.48],[78.57,45.17],[80.38,44.84]]]}},{"type":"Feature","properties":{"n":"Zhao","f":-404,"t":-367,"w":"Q1574107"},"geometry":{"type":"MultiPolygon","coordinates":[[[[114.7,36.29],[114.75,35.71],[114.3,35.39],[114.24,35.97],[113.62,35.97],[113.45,35.39],[111.08,35.45],[111.23,36.35],[112.49,37.45],[114.7,36.29]]],[[[116.15,38.55],[116.4,38.74],[115.86,39.38],[116.14,39.9],[117.03,40.1],[116.7,38.87],[117.12,38.61],[116.15,38.55]]]]}},{"type":"Feature","properties":{"n":"Song","f":-404,"t":-384,"w":"Q7462"},"geometry":{"type":"Polygon","coordinates":[[[117.23,34.1],[114.34,34.74],[115.23,35.39],[114.83,35.71],[115.65,36.16],[116.76,35.0],[117.97,34.74],[117.23,34.1]]]}},{"type":"Feature","properties":{"n":"Qi","f":-404,"t":-351,"w":"Q1143524"},"geometry":{"type":"Polygon","coordinates":[[[119.16,37.19],[120.75,37.9],[122.71,37.45],[122.5,36.87],[120.98,36.61],[120.05,35.77],[119.01,35.71],[117.97,34.74],[117.16,35.19],[116.91,36.03],[116.23,36.42],[115.6,36.22],[116.61,37.25],[117.23,38.67],[119.46,37.96],[119.16,37.19]]]}},{"type":"Feature","properties":{"n":"(Macedonian Empire)","f":-404,"t":-367,"w":"Q83958"},"geometry":{"type":"Polygon","coordinates":[[[22.7,40.03],[21.35,39.97],[21.38,40.42],[20.77,40.94],[21.28,41.52],[23.58,41.46],[24.04,41.13],[23.53,40.61],[22.81,40.61],[22.7,40.03]]]}},{"type":"Feature","properties":{"n":"Magadha - Shaishunaga dynasty","f":-404,"t":-351,"w":"Q972165"},"geometry":{"type":"Polygon","coordinates":[[[80.79,27.0],[84.32,27.67],[86.72,26.52],[91.2,25.23],[91.22,23.49],[91.66,22.98],[90.22,21.76],[89.88,22.02],[88.72,21.63],[88.63,22.08],[88.34,21.57],[88.09,21.95],[87.06,21.44],[87.02,20.6],[86.28,20.02],[85.36,21.5],[74.99,22.85],[74.36,23.24],[75.65,24.73],[80.79,27.0]]]}},{"type":"Feature","properties":{"n":"Achaemenid Empire","f":-404,"t":-384,"w":"Q389688"},"geometry":{"type":"MultiPolygon","coordinates":[[[[66.63,41.46],[67.29,40.74],[68.86,41.2],[69.65,40.16],[70.14,40.23],[70.64,39.51],[72.06,39.0],[72.82,35.52],[72.46,34.1],[71.53,33.39],[71.55,32.81],[69.2,31.85],[66.07,29.73],[64.2,29.41],[61.73,29.6],[59.89,28.96],[58.93,27.42],[59.36,25.36],[57.38,25.74],[56.71,27.16],[55.29,26.52],[55.54,26.77],[54.68,26.45],[53.66,26.71],[51.45,27.87],[50.06,30.18],[48.94,30.31],[48.09,29.54],[46.62,29.86],[46.59,30.31],[45.77,30.44],[43.15,32.81],[40.7,34.16],[39.12,34.49],[36.9,33.07],[35.81,29.22],[34.84,29.41],[34.35,27.74],[33.19,28.51],[32.44,29.79],[35.15,24.65],[35.79,24.07],[35.55,23.81],[31.67,23.75],[30.46,23.36],[29.67,24.2],[28.42,24.71],[27.24,27.03],[24.34,29.92],[20.96,30.89],[18.73,29.99],[20.2,30.89],[20.02,32.24],[21.88,32.94],[23.09,32.62],[23.3,32.17],[24.89,31.98],[25.25,31.46],[26.85,31.46],[28.87,30.82],[30.97,31.66],[32.83,31.01],[34.55,31.53],[35.64,34.36],[36.05,34.55],[35.84,36.29],[36.29,36.8],[34.58,36.87],[33.98,36.29],[32.56,36.03],[32.07,36.61],[30.62,36.93],[30.49,36.35],[29.24,36.22],[29.12,36.74],[27.48,37.58],[26.91,38.35],[27.44,39.19],[26.74,39.26],[27.17,39.64],[26.65,40.03],[27.46,40.36],[29.11,40.23],[28.91,40.61],[29.48,40.74],[29.37,41.2],[31.18,41.07],[32.63,41.91],[34.94,41.91],[37.87,40.68],[40.41,40.68],[41.72,41.91],[43.66,42.04],[44.04,41.07],[46.16,39.64],[49.38,39.97],[48.8,39.0],[48.88,37.71],[50.82,36.74],[52.19,36.55],[54.03,36.87],[53.97,38.93],[56.4,40.29],[58.3,42.17],[58.68,42.95],[58.44,43.54],[62.04,43.21],[66.63,41.46]],[[29.96,40.81],[29.79,40.68],[29.95,40.68],[29.96,40.81]]],[[[34.09,35.0],[33.04,34.55],[32.23,34.94],[34.54,35.71],[34.09,35.0]]],[[[40.46,41.0],[40.38,41.0],[40.39,41.07],[40.46,41.0]]],[[[58.52,42.69],[58.51,42.63],[58.43,42.63],[58.52,42.69]]],[[[62.16,43.34],[62.14,43.28],[62.06,43.28],[62.16,43.34]]]]}},{"type":"Feature","properties":{"n":"Qin","f":-404,"t":-367,"w":"Q1471995"},"geometry":{"type":"Polygon","coordinates":[[[109.51,34.61],[108.25,34.94],[108.17,35.52],[109.65,36.48],[112.17,37.25],[111.23,36.35],[110.59,34.81],[109.51,34.61]]]}},{"type":"Feature","properties":{"n":"Cimmerian Bosporus","f":-404,"t":-384,"w":"Q321371"},"geometry":{"type":"MultiPolygon","coordinates":[[[[36.07,45.24],[36.42,45.43],[36.37,45.1],[36.07,45.24]]],[[[36.75,45.43],[37.22,45.3],[37.1,45.1],[36.75,45.43]]]]}},{"type":"Feature","properties":{"n":"Wei","f":-404,"t":-367,"w":"Q320930"},"geometry":{"type":"Polygon","coordinates":[[[116.61,37.25],[114.61,36.1],[112.57,37.45],[115.9,39.9],[116.4,38.74],[116.15,38.55],[117.2,38.61],[116.61,37.25]]]}},{"type":"Feature","properties":{"n":"(Warring States China)","f":-404,"t":-384,"w":"Q185063"},"geometry":{"type":"Polygon","coordinates":[[[112.0,29.34],[110.23,29.99],[110.41,30.31],[109.48,30.95],[109.31,31.59],[109.78,33.33],[110.51,34.04],[109.23,34.87],[108.25,34.94],[108.22,35.64],[113.27,37.77],[115.9,39.9],[121.23,40.94],[118.99,39.19],[117.89,39.19],[117.6,38.48],[119.46,37.96],[119.16,37.19],[120.75,37.9],[122.71,37.45],[122.5,36.87],[120.98,36.61],[119.23,34.81],[120.39,34.29],[120.92,32.62],[121.99,31.85],[120.92,31.85],[122.0,31.08],[120.68,30.18],[121.48,30.31],[122.03,29.92],[121.82,29.54],[119.78,29.99],[117.88,29.54],[116.27,29.92],[116.12,30.37],[114.11,30.5],[113.27,29.54],[112.0,29.34]],[[113.16,34.87],[113.13,34.81],[113.24,34.87],[113.16,34.87]],[[113.26,34.74],[113.29,34.74],[113.29,34.81],[113.26,34.74]]]}},{"type":"Feature","properties":{"n":"Macedonian Empire","f":-404,"t":-367,"w":"Q83958"},"geometry":{"type":"Polygon","coordinates":[[[22.7,40.03],[21.35,39.97],[21.38,40.42],[20.77,40.94],[21.28,41.52],[23.58,41.46],[24.04,41.13],[23.53,40.61],[22.81,40.61],[22.7,40.03]]]}},{"type":"Feature","properties":{"n":"(Mahajanapadas)","f":-404,"t":-367,"w":"Q846025"},"geometry":{"type":"MultiPolygon","coordinates":[[[[78.16,20.21],[78.8,19.96],[78.37,19.51],[77.93,19.51],[78.16,20.21]]],[[[80.79,27.0],[84.32,27.67],[86.72,26.52],[91.2,25.23],[91.22,23.49],[91.66,22.98],[90.22,21.76],[89.88,22.02],[88.72,21.63],[88.63,22.08],[88.34,21.57],[88.09,21.95],[87.06,21.44],[87.02,20.6],[86.28,20.02],[85.36,21.5],[74.99,22.85],[74.36,23.24],[74.88,24.22],[80.79,27.0]]]]}},{"type":"Feature","properties":{"n":"Chu","f":-404,"t":-384,"w":"Q504759"},"geometry":{"type":"Polygon","coordinates":[[[114.11,30.5],[112.9,29.34],[110.23,29.99],[110.41,30.31],[109.48,30.95],[109.31,31.59],[109.78,33.33],[110.54,33.91],[109.59,34.61],[114.47,34.87],[114.65,34.55],[117.23,34.1],[119.01,35.71],[120.05,35.77],[118.93,35.19],[118.35,33.65],[118.85,32.81],[117.11,31.66],[116.84,30.69],[116.04,30.37],[114.11,30.5]]]}},{"type":"Feature","properties":{"n":"Odrysian Kingdom","f":-404,"t":-367,"w":"Q870517"},"geometry":{"type":"MultiPolygon","coordinates":[[[[28.13,41.59],[28.14,41.65],[28.22,41.65],[28.13,41.59]]],[[[28.13,41.59],[26.5,41.07],[24.04,41.13],[23.15,42.11],[24.08,43.73],[27.75,44.19],[27.73,44.78],[28.64,44.97],[27.99,43.41],[27.19,42.63],[28.13,41.59]]]]}},{"type":"Feature","properties":{"n":"Yue","f":-404,"t":-338,"w":"Q1936158"},"geometry":{"type":"Polygon","coordinates":[[[116.27,29.92],[116.1,30.31],[116.84,30.69],[117.11,31.66],[118.85,32.81],[118.35,33.65],[118.93,35.19],[119.62,35.52],[119.23,34.81],[120.39,34.29],[120.92,32.62],[121.99,31.85],[120.92,31.85],[122.0,31.08],[120.68,30.18],[121.48,30.31],[122.03,29.92],[121.42,29.47],[119.78,29.99],[117.96,29.54],[116.27,29.92]]]}},{"type":"Feature","properties":{"n":"Greek City-States","f":-404,"t":-384,"w":"Q148837"},"geometry":{"type":"MultiPolygon","coordinates":[[[[23.12,36.35],[23.11,36.16],[22.87,36.16],[23.12,36.35]]],[[[24.36,37.71],[24.43,37.58],[24.27,37.51],[24.36,37.71]]],[[[22.55,37.45],[22.57,37.77],[22.8,37.77],[22.55,37.45]]],[[[20.93,37.9],[20.92,37.64],[20.61,37.71],[20.93,37.9]]],[[[20.8,38.29],[20.79,38.09],[20.32,38.16],[20.8,38.29]]],[[[23.8,38.74],[24.18,38.55],[24.16,38.22],[23.63,38.48],[23.8,38.74]]],[[[23.56,38.74],[23.48,38.74],[23.49,38.8],[23.56,38.74]]],[[[17.98,40.61],[18.35,39.9],[17.35,40.55],[16.62,40.29],[16.45,39.64],[17.14,39.06],[15.93,37.96],[15.39,38.16],[15.21,37.0],[14.74,36.74],[14.83,37.77],[16.27,38.93],[15.75,40.03],[15.04,40.23],[14.66,40.81],[16.14,39.97],[16.88,40.74],[17.98,40.61]]],[[[24.67,38.93],[24.66,38.74],[24.36,38.87],[24.67,38.93]]],[[[22.29,38.42],[22.66,37.96],[21.33,38.03],[21.74,38.35],[20.74,38.8],[20.68,39.26],[21.64,39.51],[21.51,39.97],[21.92,40.16],[22.21,39.84],[22.7,40.03],[23.14,39.45],[22.8,39.06],[23.34,39.0],[23.49,38.8],[22.29,38.42]]],[[[0.1,38.8],[-0.13,38.55],[-0.57,39.51],[-0.2,39.97],[-0.31,39.13],[0.1,38.8]]],[[[19.91,39.58],[19.76,39.64],[19.76,39.77],[19.91,39.58]]],[[[19.79,40.36],[19.47,40.29],[19.44,41.33],[19.79,40.36]]],[[[3.85,43.6],[2.98,43.15],[3.04,41.85],[2.7,42.37],[2.74,43.21],[3.45,43.67],[4.73,43.86],[6.6,43.28],[3.85,43.6]]],[[[25.68,35.13],[26.23,35.19],[24.82,35.0],[23.62,35.52],[25.68,35.13]]],[[[27.19,36.8],[26.87,36.67],[27.04,36.93],[27.19,36.8]]],[[[25.57,37.13],[25.56,37.0],[25.33,37.0],[25.57,37.13]]],[[[25.22,37.71],[25.29,37.51],[25.05,37.51],[25.22,37.71]]],[[[26.3,37.58],[25.99,37.51],[26.08,37.71],[26.3,37.58]]],[[[25.07,37.77],[24.68,37.84],[24.77,38.03],[25.07,37.77]]],[[[26.22,38.55],[26.11,38.16],[25.88,38.16],[26.22,38.55]]],[[[26.92,38.55],[26.83,39.32],[27.3,39.38],[26.92,38.55]]],[[[25.79,39.19],[26.04,39.38],[26.64,39.0],[25.79,39.19]]],[[[25.46,40.03],[25.45,39.84],[24.97,39.84],[25.46,40.03]]],[[[26.13,39.51],[26.27,40.29],[27.47,40.42],[26.74,40.16],[26.7,39.77],[27.17,39.64],[26.13,39.51]]],[[[26.04,40.29],[26.02,40.16],[25.7,40.1],[26.04,40.29]]],[[[24.81,40.81],[24.79,40.61],[24.55,40.55],[24.81,40.81]]],[[[26.84,40.48],[24.35,41.0],[23.7,40.81],[23.74,40.23],[22.89,40.55],[24.04,41.13],[26.5,41.07],[28.13,41.59],[29.37,41.2],[29.26,40.87],[27.53,41.07],[26.84,40.48]]],[[[28.14,36.03],[27.74,35.9],[27.69,36.29],[28.02,36.48],[28.14,36.03]]],[[[27.22,37.32],[27.28,38.03],[26.43,38.22],[26.38,38.67],[27.29,38.22],[27.48,37.58],[28.24,37.38],[28.51,36.87],[28.03,36.67],[28.14,37.06],[27.22,37.32]]],[[[29.05,40.36],[29.21,40.42],[29.11,40.23],[27.7,40.29],[29.05,40.36]]],[[[29.95,40.68],[29.79,40.68],[29.88,40.81],[29.95,40.68]]],[[[40.41,40.68],[37.87,40.68],[36.51,41.13],[40.46,41.0],[40.41,40.68]]],[[[31.69,41.39],[31.59,41.2],[31.36,41.26],[31.69,41.39]]],[[[34.79,41.98],[35.12,42.04],[35.02,41.85],[34.79,41.98]]],[[[39.63,43.73],[41.41,42.89],[40.82,43.15],[39.63,43.73]]],[[[27.19,42.63],[28.8,44.97],[28.48,43.47],[27.51,42.63],[27.94,42.04],[27.61,41.98],[27.19,42.63]]],[[[39.96,43.8],[40.04,43.8],[40.03,43.73],[39.96,43.8]]],[[[36.04,45.04],[35.41,45.17],[33.52,44.45],[33.54,45.16],[36.26,45.43],[36.04,45.04]]],[[[30.88,46.68],[29.61,45.69],[31.08,47.01],[31.53,46.68],[30.88,46.68]]],[[[39.2,47.33],[38.35,47.2],[38.67,47.6],[39.2,47.33]]]]}},{"type":"Feature","properties":{"n":"Xu","f":-404,"t":-292,"w":"Q2650109"},"geometry":{"type":"Polygon","coordinates":[[[117.41,35.07],[117.02,34.87],[116.52,35.32],[117.41,35.07]]]}},{"type":"Feature","properties":{"n":"Yan","f":-404,"t":-292,"w":"Q1472004"},"geometry":{"type":"Polygon","coordinates":[[[117.89,39.19],[117.62,38.67],[116.7,38.87],[117.07,40.16],[121.23,40.94],[119.32,39.51],[117.89,39.19]]]}},{"type":"Feature","properties":{"n":"Later Zhou","f":-404,"t":-367,"w":"Q1154556"},"geometry":{"type":"Polygon","coordinates":[[[113.53,35.39],[113.26,34.94],[112.11,34.94],[112.32,35.45],[113.53,35.39]]]}},{"type":"Feature","properties":{"n":"Lu","f":-404,"t":-285,"w":"Q555994"},"geometry":{"type":"Polygon","coordinates":[[[116.29,35.32],[115.65,36.16],[116.23,36.42],[116.97,35.64],[116.29,35.32]]]}},{"type":"Feature","properties":{"n":"Peloponnesian League","f":-404,"t":-384,"w":"Q208742"},"geometry":{"type":"Polygon","coordinates":[[[23.04,37.77],[23.4,37.32],[22.57,37.77],[23.06,36.67],[22.36,36.67],[22.22,37.06],[21.74,36.87],[21.7,37.51],[21.24,37.84],[22.97,37.96],[22.45,38.42],[22.94,38.8],[24.08,38.29],[23.98,37.84],[23.04,37.77]]]}},{"type":"Feature","properties":{"n":"Carthage","f":-404,"t":-384,"w":"Q2429397"},"geometry":{"type":"MultiPolygon","coordinates":[[[[11.08,35.0],[10.0,34.29],[10.24,33.71],[12.23,32.81],[13.3,32.94],[15.06,32.43],[15.65,31.4],[17.85,30.95],[18.81,30.12],[15.57,31.14],[14.9,32.24],[9.62,33.33],[8.93,34.04],[8.85,34.74],[8.07,34.94],[7.59,36.61],[1.15,36.16],[-1.88,34.81],[-4.73,34.87],[-5.63,35.52],[-6.73,33.59],[-7.47,33.26],[-7.88,33.52],[-6.61,34.16],[-5.95,35.71],[-5.57,35.84],[-4.75,35.19],[-2.84,35.45],[-2.66,35.07],[-1.89,35.07],[0.68,36.42],[3.46,36.87],[5.56,36.67],[6.33,37.06],[8.52,36.87],[10.23,37.25],[10.23,36.8],[11.01,37.0],[10.46,35.9],[11.08,35.58],[11.08,35.0]]],[[[14.34,35.84],[14.34,36.03],[14.57,35.97],[14.34,35.84]]],[[[-5.23,36.48],[-5.58,36.03],[-6.25,36.61],[-5.45,36.35],[-5.31,36.55],[-4.56,36.87],[-3.85,36.8],[-5.23,36.48]]],[[[14.74,36.74],[12.49,37.9],[12.81,38.09],[12.73,37.84],[14.82,37.06],[14.74,36.74]]],[[[13.12,38.16],[13.67,37.96],[13.04,37.96],[13.12,38.16]]],[[[1.27,38.8],[1.18,39.06],[1.65,39.13],[1.27,38.8]]],[[[9.59,39.13],[8.34,39.0],[8.15,40.94],[9.1,41.26],[9.82,40.74],[9.59,39.13]]]]}},{"type":"Feature","properties":{"n":"Han","f":-404,"t":-367,"w":"Q1968654"},"geometry":{"type":"MultiPolygon","coordinates":[[[[113.29,34.61],[110.59,34.81],[111.08,35.45],[112.32,35.45],[112.11,34.94],[113.29,34.61]]],[[[113.45,35.39],[113.62,35.97],[114.24,35.97],[114.07,35.39],[113.45,35.39]]]]}},{"type":"Feature","properties":{"n":"Zheng","f":-404,"t":-384,"w":"Q197598"},"geometry":{"type":"Polygon","coordinates":[[[113.53,35.39],[114.98,35.71],[115.23,35.39],[114.47,34.87],[113.13,34.81],[113.53,35.39]]]}},{"type":"Feature","properties":{"n":"Wey","f":-404,"t":-367,"w":"Q1147897"},"geometry":{"type":"Polygon","coordinates":[[[115.36,36.74],[115.66,36.35],[114.83,35.71],[114.61,36.1],[115.36,36.74]]]}}]}