{"type":"FeatureCollection","act":{"from":-2800,"to":-2700,"years_inclusive":[-2800,-2701]},"attribution":{"source":"Cliopatria v0.2.0 (Seshat Global History Databank)","release":"GitHub tag v0.2.0 — https://github.com/Seshat-Global-History-Databank/cliopatria/releases/tag/v0.2.0","release_archive_sha256":"04e9f0d8ecb1d18a0cbb7d37a0b963a2c0ca4ebc2935708d27cc5d5131e4d5b8","internal_label_note":"The payload self-identifies as \"cliopatria_polities_only_v012\"; cite the release tag, not that label.","licence":"CC BY 4.0 — https://creativecommons.org/licenses/by/4.0/","citation":"Bennett, J.S., Mutch, E., Tollefson, A. et al. (2025). Cliopatria — A geospatial database of world-wide political entities from 3400BCE to 2024CE. Scientific Data 12, 247. https://doi.org/10.1038/s41597-025-04516-9","changes_made":"Changes were made. Features filtered to those overlapping this act window; polygons simplified with Douglas-Peucker at 0.25 degrees (topology preserved), invalid geometries repaired, and coordinates snapped to a 0.01 degree grid (2 decimal places); properties reduced to Name (n), FromYear (f), ToYear (t) and Wikidata Q-ID (w)."},"features":[{"type":"Feature","properties":{"n":"Elam","f":-3200,"t":-2701,"w":"Q128904"},"geometry":{"type":"Polygon","coordinates":[[[48.63,32.56],[48.86,32.04],[48.22,31.79],[48.06,32.3],[48.63,32.56]]]}},{"type":"Feature","properties":{"n":"Sumerian City-States","f":-3000,"t":-2701,"w":"Q2345840"},"geometry":{"type":"Polygon","coordinates":[[[47.3,31.14],[47.24,30.63],[46.44,30.31],[45.81,30.76],[45.2,32.04],[44.32,32.36],[44.16,32.94],[44.6,33.33],[45.55,33.01],[46.15,33.46],[46.16,33.01],[46.61,32.94],[46.84,31.14],[47.3,31.14]]]}},{"type":"Feature","properties":{"n":"Early Dynastic Period of Egypt","f":-3000,"t":-2701,"w":"Q187979"},"geometry":{"type":"Polygon","coordinates":[[[31.92,31.53],[32.2,31.29],[31.78,31.28],[32.76,30.87],[32.54,29.41],[31.37,29.31],[30.93,28.03],[30.98,27.42],[32.9,26.19],[32.69,25.49],[33.11,25.04],[33.13,24.0],[32.75,24.0],[32.76,24.71],[32.24,25.31],[32.54,25.89],[31.85,25.94],[30.75,27.23],[30.45,28.71],[29.95,28.92],[30.38,29.72],[29.5,30.5],[29.5,30.95],[31.1,31.6],[31.92,31.53]]]}},{"type":"Feature","properties":{"n":"Indus Valley Civilization","f":-3000,"t":-2701,"w":"Q42534"},"geometry":{"type":"Polygon","coordinates":[[[68.61,27.29],[68.84,26.77],[68.2,26.52],[68.05,27.03],[68.61,27.29]]]}}]}