{"type":"FeatureCollection","act":{"from":-1700,"to":-1600,"years_inclusive":[-1700,-1601]},"attribution":{"source":"Cliopatria v0.2.0 (Seshat Global History Databank)","release":"GitHub tag v0.2.0 — https://github.com/Seshat-Global-History-Databank/cliopatria/releases/tag/v0.2.0","release_archive_sha256":"04e9f0d8ecb1d18a0cbb7d37a0b963a2c0ca4ebc2935708d27cc5d5131e4d5b8","internal_label_note":"The payload self-identifies as \"cliopatria_polities_only_v012\"; cite the release tag, not that label.","licence":"CC BY 4.0 — https://creativecommons.org/licenses/by/4.0/","citation":"Bennett, J.S., Mutch, E., Tollefson, A. et al. (2025). Cliopatria — A geospatial database of world-wide political entities from 3400BCE to 2024CE. Scientific Data 12, 247. https://doi.org/10.1038/s41597-025-04516-9","changes_made":"Changes were made. Features filtered to those overlapping this act window; polygons simplified with Douglas-Peucker at 0.25 degrees (topology preserved), invalid geometries repaired, and coordinates snapped to a 0.01 degree grid (2 decimal places); properties reduced to Name (n), FromYear (f), ToYear (t) and Wikidata Q-ID (w)."},"features":[{"type":"Feature","properties":{"n":"Elam","f":-1760,"t":-1601,"w":"Q128904"},"geometry":{"type":"MultiPolygon","coordinates":[[[[50.17,31.53],[50.48,31.59],[50.39,31.46],[50.71,31.01],[52.24,29.41],[51.86,28.77],[51.07,28.44],[50.06,30.18],[49.11,30.44],[49.29,30.63],[48.25,31.46],[47.64,33.14],[49.84,32.49],[50.17,31.53]]],[[[50.46,31.46],[50.47,31.53],[50.55,31.53],[50.46,31.46]]]]}},{"type":"Feature","properties":{"n":"Babylonia","f":-1700,"t":-1601,"w":"Q47690"},"geometry":{"type":"Polygon","coordinates":[[[48.25,31.46],[49.14,30.69],[48.26,30.89],[46.59,30.31],[45.77,30.44],[43.42,32.49],[44.22,32.75],[43.88,33.14],[44.37,33.39],[44.4,34.16],[46.38,34.04],[47.97,32.75],[48.25,31.46]]]}},{"type":"Feature","properties":{"n":"Assyria","f":-1700,"t":-1501,"w":"Q41137"},"geometry":{"type":"MultiPolygon","coordinates":[[[[45.9,35.0],[45.63,34.16],[44.4,34.16],[44.21,33.33],[42.44,34.49],[42.43,35.07],[42.9,35.07],[43.6,36.29],[44.28,36.67],[45.9,35.0]]],[[[27.52,40.94],[27.52,41.0],[27.6,41.0],[27.52,40.94]]],[[[27.76,41.0],[27.6,41.0],[27.61,41.07],[27.76,41.0]]]]}},{"type":"Feature","properties":{"n":"Middle Kingdom of Egypt","f":-1700,"t":-1601,"w":"Q191324"},"geometry":{"type":"Polygon","coordinates":[[[31.92,31.53],[32.2,31.29],[31.78,31.28],[32.69,31.04],[33.24,30.12],[34.84,29.5],[34.25,27.73],[33.24,28.55],[32.48,29.94],[32.62,28.98],[33.56,27.88],[34.19,26.27],[33.03,25.89],[32.82,25.35],[33.36,24.4],[33.22,22.35],[32.27,22.38],[31.19,21.42],[30.66,21.57],[31.38,22.78],[31.05,23.67],[28.68,24.53],[27.67,25.66],[28.7,27.9],[29.66,28.96],[28.5,31.05],[29.18,30.83],[31.1,31.6],[31.92,31.53]]]}},{"type":"Feature","properties":{"n":"Hyksos","f":-1700,"t":-1601,"w":"Q192319"},"geometry":{"type":"Polygon","coordinates":[[[36.92,33.97],[36.23,30.88],[35.68,30.63],[34.72,31.0],[34.49,30.69],[34.84,29.5],[33.24,30.12],[32.69,31.04],[34.48,31.58],[35.98,34.53],[35.93,35.32],[36.92,33.97]]]}},{"type":"Feature","properties":{"n":"First Sealand Dynasty","f":-1700,"t":-1601,"w":"Q7440601"},"geometry":{"type":"Polygon","coordinates":[[[46.62,29.86],[46.62,30.56],[48.06,30.56],[46.62,29.86]]]}}]}