{"type":"FeatureCollection","act":{"from":-1300,"to":-1200,"years_inclusive":[-1300,-1201]},"attribution":{"source":"Cliopatria v0.2.0 (Seshat Global History Databank)","release":"GitHub tag v0.2.0 — https://github.com/Seshat-Global-History-Databank/cliopatria/releases/tag/v0.2.0","release_archive_sha256":"04e9f0d8ecb1d18a0cbb7d37a0b963a2c0ca4ebc2935708d27cc5d5131e4d5b8","internal_label_note":"The payload self-identifies as \"cliopatria_polities_only_v012\"; cite the release tag, not that label.","licence":"CC BY 4.0 — https://creativecommons.org/licenses/by/4.0/","citation":"Bennett, J.S., Mutch, E., Tollefson, A. et al. (2025). Cliopatria — A geospatial database of world-wide political entities from 3400BCE to 2024CE. Scientific Data 12, 247. https://doi.org/10.1038/s41597-025-04516-9","changes_made":"Changes were made. Features filtered to those overlapping this act window; polygons simplified with Douglas-Peucker at 0.25 degrees (topology preserved), invalid geometries repaired, and coordinates snapped to a 0.01 degree grid (2 decimal places); properties reduced to Name (n), FromYear (f), ToYear (t) and Wikidata Q-ID (w)."},"features":[{"type":"Feature","properties":{"n":"Shang Dynasty","f":-1600,"t":-1241,"w":"Q128938"},"geometry":{"type":"Polygon","coordinates":[[[118.46,36.87],[116.0,34.29],[115.18,34.36],[114.38,35.19],[110.07,35.07],[113.3,36.29],[114.39,38.48],[115.08,38.93],[115.63,38.93],[116.39,37.77],[118.46,36.87]]]}},{"type":"Feature","properties":{"n":"Mycenaean Greece","f":-1300,"t":-1241,"w":"Q181264"},"geometry":{"type":"MultiPolygon","coordinates":[[[[25.68,35.13],[26.23,35.19],[24.82,35.0],[23.62,35.52],[25.68,35.13]]],[[[22.89,36.42],[23.12,36.35],[23.11,36.16],[22.89,36.42]]],[[[24.36,37.71],[24.43,37.58],[24.27,37.51],[24.36,37.71]]],[[[24.68,37.84],[24.69,38.03],[25.07,37.77],[24.68,37.84]]],[[[24.18,38.55],[23.98,37.84],[23.04,37.9],[23.4,37.32],[22.71,37.58],[23.06,36.67],[22.36,36.67],[22.22,37.06],[21.74,36.87],[21.7,37.51],[21.24,37.84],[21.73,38.16],[21.27,38.42],[21.37,38.74],[22.84,39.71],[23.14,39.45],[22.8,39.06],[23.34,39.0],[23.49,38.8],[22.94,38.87],[24.18,38.55]]],[[[23.57,38.8],[23.56,38.74],[23.48,38.74],[23.57,38.8]]],[[[24.36,38.87],[24.36,39.0],[24.67,38.93],[24.36,38.87]]],[[[27.69,36.29],[28.25,36.48],[28.14,36.03],[27.74,35.9],[27.69,36.29]]],[[[25.34,37.13],[25.57,37.13],[25.56,37.0],[25.34,37.13]]],[[[24.99,37.71],[25.22,37.71],[25.29,37.51],[24.99,37.71]]],[[[26.08,37.71],[26.31,37.71],[26.3,37.58],[26.08,37.71]]],[[[26.56,37.84],[27.03,37.84],[27.01,37.64],[26.56,37.84]]],[[[25.82,38.48],[25.99,38.67],[26.22,38.55],[25.88,38.16],[25.82,38.48]]]]}},{"type":"Feature","properties":{"n":"Mitanni","f":-1300,"t":-1241,"w":"Q178665"},"geometry":{"type":"Polygon","coordinates":[[[39.72,36.29],[38.95,35.0],[38.18,35.0],[38.22,35.39],[37.26,35.77],[37.52,36.67],[38.16,36.87],[38.08,37.51],[38.98,37.84],[40.24,37.32],[40.43,37.0],[39.46,36.67],[39.72,36.29]]]}},{"type":"Feature","properties":{"n":"Hittites","f":-1300,"t":-1241,"w":"Q5406"},"geometry":{"type":"MultiPolygon","coordinates":[[[[38.84,39.13],[38.9,37.84],[38.08,37.51],[38.16,36.87],[37.52,36.67],[37.26,35.77],[38.22,35.39],[38.17,34.94],[36.77,34.81],[36.58,34.42],[35.93,34.87],[36.14,36.93],[35.49,36.61],[34.58,36.87],[33.98,36.29],[32.56,36.03],[31.82,37.32],[30.81,37.32],[30.23,37.84],[27.18,37.77],[27.28,38.03],[26.43,38.22],[26.38,38.67],[26.59,38.35],[27.06,38.35],[26.94,38.8],[27.54,38.42],[28.56,38.48],[30.83,39.26],[31.44,39.84],[33.45,40.16],[34.36,39.84],[35.13,40.29],[36.27,39.97],[37.79,40.68],[38.69,40.29],[38.27,40.16],[38.84,39.13]]],[[[26.86,38.8],[26.87,38.87],[26.95,38.87],[26.86,38.8]]]]}},{"type":"Feature","properties":{"n":"Assyria","f":-1300,"t":-1241,"w":"Q41137"},"geometry":{"type":"Polygon","coordinates":[[[45.89,34.94],[45.55,34.16],[44.4,34.16],[44.37,33.39],[43.97,33.2],[44.21,32.69],[43.35,32.56],[38.94,34.94],[39.72,36.29],[39.46,36.67],[40.85,37.19],[44.3,36.8],[45.89,34.94]]]}},{"type":"Feature","properties":{"n":"(Alliance between Elam and Babylonia)","f":-1300,"t":-1241,"w":"Q128904"},"geometry":{"type":"MultiPolygon","coordinates":[[[[50.17,31.53],[50.48,31.59],[50.39,31.46],[50.71,31.01],[52.24,29.41],[51.86,28.77],[51.07,28.44],[50.06,30.18],[49.59,29.99],[49.12,30.5],[48.4,29.6],[46.62,29.86],[46.59,30.31],[45.77,30.44],[43.42,32.49],[44.21,32.69],[43.97,33.2],[44.37,33.39],[44.4,34.16],[45.55,34.16],[45.88,34.87],[46.75,33.39],[49.84,32.49],[50.17,31.53]]],[[[50.47,31.53],[50.55,31.53],[50.54,31.46],[50.47,31.53]]]]}},{"type":"Feature","properties":{"n":"Elam","f":-1300,"t":-1151,"w":"Q128904"},"geometry":{"type":"MultiPolygon","coordinates":[[[[50.17,31.53],[50.48,31.59],[50.39,31.46],[50.71,31.01],[52.24,29.41],[51.86,28.77],[51.07,28.44],[50.06,30.18],[49.02,30.31],[49.29,30.63],[48.25,31.46],[47.64,33.14],[49.84,32.49],[50.17,31.53]]],[[[50.46,31.46],[50.47,31.53],[50.55,31.53],[50.46,31.46]]]]}},{"type":"Feature","properties":{"n":"Babylonia","f":-1300,"t":-1241,"w":"Q47690"},"geometry":{"type":"Polygon","coordinates":[[[47.64,33.14],[48.25,31.46],[49.29,30.63],[48.4,29.6],[46.62,29.86],[46.59,30.31],[45.77,30.44],[43.42,32.49],[44.21,32.69],[43.97,33.2],[44.37,33.39],[44.4,34.16],[45.55,34.16],[45.88,34.87],[46.75,33.39],[47.64,33.14]]]}},{"type":"Feature","properties":{"n":"New Kingdom of Egypt","f":-1300,"t":-1241,"w":"Q180568"},"geometry":{"type":"Polygon","coordinates":[[[36.15,30.63],[35.46,30.56],[35.11,30.95],[34.56,30.69],[34.94,29.73],[34.35,27.74],[33.19,28.51],[32.44,29.79],[34.33,26.26],[32.37,24.39],[32.4,23.24],[33.24,22.01],[34.16,19.06],[33.13,19.25],[31.84,18.29],[30.87,18.09],[30.52,18.74],[30.49,22.08],[29.16,24.39],[27.71,25.68],[28.57,30.95],[29.4,30.82],[30.97,31.66],[31.88,31.46],[32.0,31.08],[34.3,31.27],[35.64,34.36],[36.37,34.68],[37.0,33.26],[36.15,30.63]]]}},{"type":"Feature","properties":{"n":"New Kingdom of Egypt","f":-1240,"t":-1151,"w":"Q180568"},"geometry":{"type":"Polygon","coordinates":[[[36.15,30.63],[35.46,30.56],[35.11,30.95],[34.56,30.69],[34.94,29.73],[34.35,27.74],[33.19,28.51],[32.44,29.79],[34.33,26.26],[32.37,24.39],[32.4,23.24],[33.24,22.01],[34.16,19.06],[33.13,19.25],[31.84,18.29],[30.87,18.09],[30.52,18.74],[30.49,22.08],[29.16,24.39],[27.71,25.68],[28.57,30.95],[29.4,30.82],[30.97,31.66],[31.88,31.46],[32.0,31.08],[34.3,31.27],[35.64,34.36],[36.37,34.68],[37.0,33.26],[36.15,30.63]]]}},{"type":"Feature","properties":{"n":"Babylonia","f":-1240,"t":-1221,"w":"Q47690"},"geometry":{"type":"Polygon","coordinates":[[[48.25,31.46],[49.29,30.63],[48.4,29.6],[46.62,29.86],[46.59,30.31],[45.77,30.44],[43.42,32.49],[44.21,32.69],[43.97,33.2],[45.47,32.94],[46.05,33.33],[45.92,34.04],[47.64,33.14],[48.25,31.46]]]}},{"type":"Feature","properties":{"n":"Shang Dynasty","f":-1240,"t":-1101,"w":"Q128938"},"geometry":{"type":"Polygon","coordinates":[[[118.46,36.87],[116.0,34.29],[115.18,34.36],[114.38,35.19],[110.07,35.07],[113.3,36.29],[114.39,38.48],[115.08,38.93],[115.63,38.93],[116.39,37.77],[118.46,36.87]]]}},{"type":"Feature","properties":{"n":"Hittites","f":-1240,"t":-1221,"w":"Q5406"},"geometry":{"type":"MultiPolygon","coordinates":[[[[38.81,37.71],[38.08,37.51],[38.16,36.87],[37.52,36.67],[37.26,35.77],[38.15,35.45],[38.17,34.94],[36.77,34.81],[36.58,34.42],[35.93,34.87],[36.14,36.93],[35.49,36.61],[34.58,36.87],[33.98,36.29],[32.56,36.03],[31.82,37.32],[30.81,37.32],[30.23,37.84],[27.18,37.77],[27.28,38.03],[26.43,38.22],[26.38,38.67],[26.59,38.35],[27.06,38.35],[26.94,38.8],[27.54,38.42],[28.56,38.48],[30.83,39.26],[31.44,39.84],[33.14,40.16],[34.36,39.84],[35.13,40.29],[36.6,40.03],[37.79,40.68],[38.62,40.36],[38.27,40.1],[38.81,37.71]]],[[[26.86,38.8],[26.87,38.87],[26.95,38.87],[26.86,38.8]]]]}},{"type":"Feature","properties":{"n":"Mycenaean Greece","f":-1240,"t":-1221,"w":"Q181264"},"geometry":{"type":"MultiPolygon","coordinates":[[[[22.89,36.42],[23.12,36.35],[23.11,36.16],[22.89,36.42]]],[[[24.36,37.71],[24.43,37.58],[24.27,37.51],[24.36,37.71]]],[[[20.62,37.9],[20.93,37.9],[20.92,37.64],[20.62,37.9]]],[[[24.77,38.03],[25.07,37.77],[24.83,37.71],[24.77,38.03]]],[[[24.03,38.67],[24.16,38.22],[23.98,37.84],[23.04,37.9],[23.4,37.32],[22.71,37.58],[23.06,36.67],[22.36,36.67],[22.22,37.06],[21.74,36.87],[21.7,37.51],[21.24,37.84],[21.74,38.35],[20.75,38.93],[22.84,39.71],[23.14,39.45],[22.8,39.06],[23.34,39.0],[23.49,38.8],[22.94,38.87],[23.17,38.67],[24.03,38.67]]],[[[20.49,38.42],[20.8,38.29],[20.79,38.09],[20.32,38.16],[20.49,38.42]]],[[[23.57,38.8],[23.56,38.74],[23.48,38.74],[23.57,38.8]]],[[[23.75,40.42],[23.74,40.23],[22.59,40.87],[23.75,40.42]]],[[[24.3,35.32],[26.23,35.19],[23.68,35.26],[23.62,35.52],[24.3,35.32]]],[[[27.69,36.29],[28.25,36.48],[28.14,36.03],[27.74,35.9],[27.69,36.29]]],[[[24.99,37.71],[25.22,37.71],[25.29,37.51],[24.99,37.71]]],[[[25.82,38.48],[25.99,38.67],[26.22,38.55],[25.88,38.16],[25.82,38.48]]],[[[26.1,39.13],[25.79,39.19],[26.51,39.32],[26.64,39.0],[26.1,39.13]]],[[[26.75,39.38],[26.91,39.38],[26.82,39.26],[26.75,39.38]]],[[[26.26,40.16],[26.42,40.16],[26.76,39.51],[26.13,39.51],[26.26,40.16]]],[[[25.07,40.03],[25.46,40.03],[25.45,39.84],[25.07,40.03]]]]}},{"type":"Feature","properties":{"n":"(Alliance between Elam and Babylonia)","f":-1240,"t":-1221,"w":"Q128904"},"geometry":{"type":"MultiPolygon","coordinates":[[[[50.17,31.53],[50.48,31.59],[50.39,31.46],[50.71,31.01],[52.24,29.41],[51.86,28.77],[51.07,28.44],[50.06,30.18],[49.59,29.99],[49.12,30.5],[48.4,29.6],[46.62,29.86],[46.59,30.31],[45.77,30.44],[43.42,32.49],[44.21,32.69],[43.97,33.2],[45.47,32.94],[46.05,33.33],[45.92,34.04],[46.38,34.04],[46.75,33.39],[49.84,32.49],[50.17,31.53]]],[[[50.47,31.53],[50.55,31.53],[50.54,31.46],[50.47,31.53]]]]}},{"type":"Feature","properties":{"n":"Assyria","f":-1240,"t":-1221,"w":"Q41137"},"geometry":{"type":"Polygon","coordinates":[[[44.52,39.71],[44.06,39.32],[44.53,38.35],[44.31,37.9],[45.35,36.03],[46.33,35.84],[45.86,34.74],[46.05,33.33],[45.47,32.94],[43.97,33.2],[44.21,32.69],[43.35,32.56],[39.55,34.81],[38.18,35.0],[38.15,35.45],[37.26,35.77],[37.52,36.67],[38.16,36.87],[38.08,37.51],[38.81,37.71],[38.76,39.13],[38.27,40.1],[39.77,40.1],[40.86,40.55],[42.35,40.42],[42.91,39.97],[44.52,39.71]]]}},{"type":"Feature","properties":{"n":"Assyria","f":-1220,"t":-1201,"w":"Q41137"},"geometry":{"type":"Polygon","coordinates":[[[44.52,39.71],[44.06,39.32],[44.53,38.35],[44.31,37.9],[45.35,36.03],[46.33,35.84],[45.86,34.74],[46.15,34.04],[47.64,33.14],[48.25,31.46],[49.29,30.63],[48.4,29.6],[46.62,29.86],[46.59,30.31],[45.77,30.44],[43.15,32.81],[40.06,34.55],[38.8,35.07],[36.63,34.94],[36.84,35.45],[37.22,35.45],[37.52,36.67],[36.4,37.13],[38.81,37.71],[38.76,39.13],[38.27,40.1],[39.77,40.1],[40.86,40.55],[42.35,40.42],[44.52,39.71]]]}},{"type":"Feature","properties":{"n":"Hittites","f":-1220,"t":-1201,"w":"Q5406"},"geometry":{"type":"MultiPolygon","coordinates":[[[[38.81,37.71],[36.4,37.13],[37.52,36.67],[36.58,34.42],[35.93,34.87],[36.14,36.93],[35.49,36.61],[34.58,36.87],[33.98,36.29],[32.56,36.03],[31.82,37.32],[30.81,37.32],[30.23,37.84],[27.18,37.77],[27.28,38.03],[26.43,38.22],[26.38,38.67],[26.59,38.35],[27.06,38.35],[26.94,38.8],[27.54,38.42],[28.56,38.48],[30.83,39.26],[31.44,39.84],[33.14,40.16],[34.36,39.84],[35.13,40.29],[36.6,40.03],[37.79,40.68],[38.62,40.36],[38.27,40.1],[38.81,37.71]]],[[[26.86,38.8],[26.87,38.87],[26.95,38.87],[26.86,38.8]]]]}},{"type":"Feature","properties":{"n":"Mycenaean Greece","f":-1220,"t":-1201,"w":"Q181264"},"geometry":{"type":"MultiPolygon","coordinates":[[[[22.89,36.42],[23.12,36.35],[23.11,36.16],[22.89,36.42]]],[[[24.36,37.71],[24.43,37.58],[24.27,37.51],[24.36,37.71]]],[[[20.62,37.9],[20.93,37.9],[20.92,37.64],[20.62,37.9]]],[[[24.77,38.03],[25.07,37.77],[24.83,37.71],[24.77,38.03]]],[[[24.03,38.67],[24.16,38.22],[23.98,37.84],[23.04,37.9],[23.4,37.32],[22.71,37.58],[23.06,36.67],[22.36,36.67],[22.22,37.06],[21.74,36.87],[21.7,37.51],[21.24,37.84],[21.74,38.35],[20.75,38.93],[22.84,39.71],[23.14,39.45],[22.8,39.06],[23.12,39.13],[23.49,38.8],[22.94,38.87],[23.17,38.67],[24.03,38.67]]],[[[20.49,38.42],[20.8,38.29],[20.79,38.09],[20.32,38.16],[20.49,38.42]]],[[[23.57,38.8],[23.56,38.74],[23.48,38.74],[23.57,38.8]]],[[[24.67,38.93],[24.66,38.74],[24.36,38.87],[24.67,38.93]]],[[[23.74,40.23],[22.59,40.87],[22.92,41.0],[23.74,40.23]]],[[[24.3,35.32],[26.23,35.19],[23.68,35.26],[23.62,35.52],[24.3,35.32]]],[[[27.69,36.29],[28.25,36.48],[28.14,36.03],[27.74,35.9],[27.69,36.29]]],[[[25.34,37.13],[25.57,37.13],[25.56,37.0],[25.34,37.13]]],[[[24.99,37.71],[25.22,37.71],[25.29,37.51],[24.99,37.71]]],[[[25.82,38.48],[25.99,38.67],[26.22,38.55],[25.88,38.16],[25.82,38.48]]],[[[26.1,39.13],[25.79,39.19],[26.51,39.32],[26.64,39.0],[26.1,39.13]]],[[[26.75,39.38],[26.91,39.38],[26.82,39.26],[26.75,39.38]]],[[[26.78,39.77],[26.76,39.51],[26.13,39.51],[26.26,40.16],[26.78,39.77]]],[[[25.46,40.03],[25.45,39.84],[24.97,39.84],[25.46,40.03]]]]}}]}