{"type":"FeatureCollection","act":{"from":-2300,"to":-2200,"years_inclusive":[-2300,-2201]},"attribution":{"source":"Cliopatria v0.2.0 (Seshat Global History Databank)","release":"GitHub tag v0.2.0 — https://github.com/Seshat-Global-History-Databank/cliopatria/releases/tag/v0.2.0","release_archive_sha256":"04e9f0d8ecb1d18a0cbb7d37a0b963a2c0ca4ebc2935708d27cc5d5131e4d5b8","internal_label_note":"The payload self-identifies as \"cliopatria_polities_only_v012\"; cite the release tag, not that label.","licence":"CC BY 4.0 — https://creativecommons.org/licenses/by/4.0/","citation":"Bennett, J.S., Mutch, E., Tollefson, A. et al. (2025). Cliopatria — A geospatial database of world-wide political entities from 3400BCE to 2024CE. Scientific Data 12, 247. https://doi.org/10.1038/s41597-025-04516-9","changes_made":"Changes were made. Features filtered to those overlapping this act window; polygons simplified with Douglas-Peucker at 0.25 degrees (topology preserved), invalid geometries repaired, and coordinates snapped to a 0.01 degree grid (2 decimal places); properties reduced to Name (n), FromYear (f), ToYear (t) and Wikidata Q-ID (w)."},"features":[{"type":"Feature","properties":{"n":"Old Kingdom of Egypt","f":-2300,"t":-2251,"w":"Q177819"},"geometry":{"type":"Polygon","coordinates":[[[31.92,31.53],[32.2,31.29],[31.78,31.28],[32.76,30.87],[32.54,29.41],[31.37,29.31],[30.93,28.03],[30.98,27.42],[32.9,26.19],[32.69,25.49],[33.11,25.04],[33.13,24.0],[32.75,24.0],[32.76,24.71],[32.24,25.31],[32.54,25.89],[31.85,25.94],[30.75,27.23],[30.45,28.71],[29.95,28.92],[30.38,29.72],[29.5,30.5],[29.5,30.95],[31.1,31.6],[31.92,31.53]]]}},{"type":"Feature","properties":{"n":"Sumerian City-States","f":-2300,"t":-2251,"w":"Q2345840"},"geometry":{"type":"Polygon","coordinates":[[[45.88,30.69],[45.98,30.95],[46.7,31.21],[47.8,30.89],[46.61,30.44],[45.88,30.69]]]}},{"type":"Feature","properties":{"n":"Akkadian Empire","f":-2300,"t":-2251,"w":"Q4461035"},"geometry":{"type":"Polygon","coordinates":[[[40.36,37.06],[42.27,37.32],[42.59,36.8],[43.79,37.06],[44.3,36.8],[44.83,35.64],[44.6,35.13],[45.54,34.61],[45.45,33.97],[46.15,33.46],[46.16,33.01],[48.36,32.3],[49.1,30.95],[48.91,30.69],[46.7,31.21],[45.36,30.82],[43.15,32.81],[38.8,35.07],[36.29,34.68],[35.71,33.46],[35.33,33.46],[36.05,34.55],[36.08,37.71],[37.12,37.32],[37.94,37.64],[40.36,37.06]]]}},{"type":"Feature","properties":{"n":"Indus Valley Civilization","f":-2300,"t":-2001,"w":"Q42534"},"geometry":{"type":"MultiPolygon","coordinates":[[[[76.17,32.94],[75.53,32.17],[75.51,31.4],[76.18,30.31],[76.37,30.12],[76.8,29.99],[76.82,28.96],[70.24,28.06],[69.42,27.16],[69.54,25.36],[72.88,23.36],[72.1,21.11],[71.09,20.66],[70.3,20.86],[68.95,22.21],[70.37,22.91],[68.81,22.98],[68.16,23.81],[67.29,24.07],[67.21,24.71],[66.63,24.84],[66.35,25.55],[62.03,25.1],[62.3,25.55],[66.02,25.94],[65.7,27.42],[66.55,29.92],[67.11,30.5],[68.93,30.89],[71.31,33.46],[73.31,34.1],[75.73,33.65],[76.17,32.94]]],[[[70.23,27.99],[70.31,27.99],[70.3,27.93],[70.23,27.99]]],[[[76.54,30.18],[76.61,30.18],[76.6,30.12],[76.54,30.18]]]]}},{"type":"Feature","properties":{"n":"Old Kingdom of Egypt","f":-2250,"t":-2201,"w":"Q177819"},"geometry":{"type":"Polygon","coordinates":[[[31.92,31.53],[32.2,31.29],[31.78,31.28],[32.76,30.87],[32.54,29.41],[31.37,29.31],[30.93,28.03],[30.98,27.42],[32.9,26.19],[32.69,25.49],[33.11,25.04],[33.13,24.0],[32.75,24.0],[32.76,24.71],[32.24,25.31],[32.54,25.89],[31.85,25.94],[30.75,27.23],[30.45,28.71],[29.95,28.92],[30.38,29.72],[29.5,30.5],[29.5,30.95],[31.1,31.6],[31.92,31.53]]]}},{"type":"Feature","properties":{"n":"Akkadian Empire","f":-2250,"t":-2201,"w":"Q4461035"},"geometry":{"type":"MultiPolygon","coordinates":[[[[55.46,24.52],[54.98,24.97],[56.48,26.39],[56.49,25.1],[56.3,24.71],[56.03,24.97],[55.46,24.52]]],[[[50.47,31.53],[50.55,31.53],[50.54,31.46],[50.47,31.53]]],[[[37.95,37.71],[40.36,37.06],[42.27,37.32],[42.59,36.8],[43.56,37.06],[44.3,36.8],[44.75,35.64],[46.06,35.58],[46.24,35.26],[45.54,34.61],[45.45,33.97],[46.15,33.46],[46.16,33.01],[47.24,32.49],[47.78,32.49],[48.09,33.07],[49.72,32.69],[50.71,31.01],[52.11,29.6],[52.21,29.15],[51.07,28.44],[50.06,30.18],[49.14,30.69],[47.8,30.89],[46.59,30.31],[45.78,30.5],[43.15,32.81],[38.8,35.07],[36.29,34.68],[35.71,33.46],[35.33,33.46],[36.05,34.55],[35.84,36.29],[36.14,36.93],[35.49,36.61],[34.58,36.87],[33.98,36.29],[32.49,36.1],[32.99,36.48],[32.79,36.87],[35.32,37.9],[37.37,37.45],[37.95,37.71]]]]}}]}