{"type":"FeatureCollection","act":{"from":-1400,"to":-1300,"years_inclusive":[-1400,-1301]},"attribution":{"source":"Cliopatria v0.2.0 (Seshat Global History Databank)","release":"GitHub tag v0.2.0 — https://github.com/Seshat-Global-History-Databank/cliopatria/releases/tag/v0.2.0","release_archive_sha256":"04e9f0d8ecb1d18a0cbb7d37a0b963a2c0ca4ebc2935708d27cc5d5131e4d5b8","internal_label_note":"The payload self-identifies as \"cliopatria_polities_only_v012\"; cite the release tag, not that label.","licence":"CC BY 4.0 — https://creativecommons.org/licenses/by/4.0/","citation":"Bennett, J.S., Mutch, E., Tollefson, A. et al. (2025). Cliopatria — A geospatial database of world-wide political entities from 3400BCE to 2024CE. Scientific Data 12, 247. https://doi.org/10.1038/s41597-025-04516-9","changes_made":"Changes were made. Features filtered to those overlapping this act window; polygons simplified with Douglas-Peucker at 0.25 degrees (topology preserved), invalid geometries repaired, and coordinates snapped to a 0.01 degree grid (2 decimal places); properties reduced to Name (n), FromYear (f), ToYear (t) and Wikidata Q-ID (w)."},"features":[{"type":"Feature","properties":{"n":"Shang Dynasty","f":-1600,"t":-1241,"w":"Q128938"},"geometry":{"type":"Polygon","coordinates":[[[118.46,36.87],[116.0,34.29],[115.18,34.36],[114.38,35.19],[110.07,35.07],[113.3,36.29],[114.39,38.48],[115.08,38.93],[115.63,38.93],[116.39,37.77],[118.46,36.87]]]}},{"type":"Feature","properties":{"n":"Mycenaean Greece","f":-1400,"t":-1301,"w":"Q181264"},"geometry":{"type":"MultiPolygon","coordinates":[[[[25.68,35.13],[26.23,35.19],[24.82,35.0],[23.62,35.52],[25.68,35.13]]],[[[22.89,36.42],[23.12,36.35],[23.11,36.16],[22.89,36.42]]],[[[24.36,37.71],[24.43,37.58],[24.27,37.51],[24.36,37.71]]],[[[24.68,37.84],[24.69,38.03],[25.07,37.77],[24.68,37.84]]],[[[24.18,38.55],[23.98,37.84],[23.04,37.9],[23.4,37.32],[22.71,37.58],[23.06,36.67],[22.36,36.67],[22.22,37.06],[21.74,36.87],[21.7,37.51],[21.24,37.84],[21.73,38.16],[21.27,38.42],[21.37,38.74],[22.84,39.71],[23.14,39.45],[22.8,39.06],[23.12,39.13],[23.49,38.8],[22.94,38.87],[24.18,38.55]]],[[[23.57,38.8],[23.56,38.74],[23.48,38.74],[23.57,38.8]]],[[[24.36,38.87],[24.36,39.0],[24.67,38.93],[24.36,38.87]]],[[[27.69,36.29],[28.25,36.48],[28.14,36.03],[27.74,35.9],[27.69,36.29]]],[[[25.34,37.13],[25.57,37.13],[25.56,37.0],[25.34,37.13]]],[[[24.99,37.71],[25.22,37.71],[25.29,37.51],[24.99,37.71]]],[[[26.08,37.71],[26.31,37.71],[26.3,37.58],[26.08,37.71]]],[[[26.56,37.84],[27.03,37.84],[27.01,37.64],[26.56,37.84]]],[[[25.82,38.48],[25.99,38.67],[26.22,38.55],[25.88,38.16],[25.82,38.48]]]]}},{"type":"Feature","properties":{"n":"Mitanni","f":-1400,"t":-1301,"w":"Q178665"},"geometry":{"type":"Polygon","coordinates":[[[42.41,37.19],[42.59,36.8],[43.79,37.06],[44.35,36.61],[43.59,36.22],[42.81,35.0],[41.28,35.13],[39.98,34.55],[38.42,35.07],[36.72,34.29],[36.29,34.68],[36.63,36.42],[36.08,37.06],[37.6,37.38],[37.85,38.16],[39.93,37.32],[42.41,37.19]]]}},{"type":"Feature","properties":{"n":"Hittites","f":-1400,"t":-1301,"w":"Q5406"},"geometry":{"type":"Polygon","coordinates":[[[37.77,37.51],[36.66,37.38],[35.49,36.61],[34.58,36.87],[33.98,36.29],[32.56,36.03],[31.97,37.19],[31.82,39.64],[35.52,40.29],[37.86,38.22],[37.77,37.51]]]}},{"type":"Feature","properties":{"n":"Assyria","f":-1400,"t":-1301,"w":"Q41137"},"geometry":{"type":"Polygon","coordinates":[[[45.55,34.16],[44.47,34.16],[44.4,34.74],[43.45,35.13],[43.59,36.22],[44.35,36.61],[45.89,34.94],[45.55,34.16]]]}},{"type":"Feature","properties":{"n":"Elam","f":-1400,"t":-1301,"w":"Q128904"},"geometry":{"type":"MultiPolygon","coordinates":[[[[50.17,31.53],[50.48,31.59],[50.39,31.46],[50.71,31.01],[52.24,29.41],[51.86,28.77],[51.07,28.44],[50.06,30.18],[49.02,30.31],[49.29,30.63],[48.25,31.46],[47.64,33.14],[49.84,32.49],[50.17,31.53]]],[[[50.46,31.46],[50.47,31.53],[50.55,31.53],[50.46,31.46]]]]}},{"type":"Feature","properties":{"n":"Babylonia","f":-1400,"t":-1301,"w":"Q47690"},"geometry":{"type":"Polygon","coordinates":[[[46.68,33.46],[47.97,32.75],[48.25,31.46],[49.29,30.63],[48.4,29.6],[46.62,29.86],[46.59,30.31],[45.77,30.44],[43.15,32.81],[40.05,34.49],[41.28,35.13],[42.81,35.0],[43.44,35.64],[43.45,35.13],[44.4,34.74],[44.47,34.16],[45.55,34.16],[45.87,34.81],[46.68,33.46]]]}},{"type":"Feature","properties":{"n":"New Kingdom of Egypt","f":-1400,"t":-1301,"w":"Q180568"},"geometry":{"type":"Polygon","coordinates":[[[36.4,30.95],[35.76,30.5],[35.11,30.95],[34.56,30.69],[34.94,29.73],[34.35,27.74],[33.19,28.51],[32.44,29.79],[34.33,26.26],[32.37,24.39],[32.4,23.24],[33.24,22.01],[34.16,19.06],[33.13,19.25],[31.84,18.29],[30.87,18.09],[30.52,18.74],[30.49,22.08],[29.16,24.39],[27.71,25.68],[28.57,30.95],[29.4,30.82],[30.97,31.66],[31.88,31.46],[32.0,31.08],[34.3,31.27],[35.64,34.36],[36.05,34.55],[35.84,36.29],[36.19,36.61],[36.63,36.42],[36.29,34.68],[36.9,33.84],[36.4,30.95]]]}}]}