{"type":"FeatureCollection","act":{"from":-900,"to":-800,"years_inclusive":[-900,-801]},"attribution":{"source":"Cliopatria v0.2.0 (Seshat Global History Databank)","release":"GitHub tag v0.2.0 — https://github.com/Seshat-Global-History-Databank/cliopatria/releases/tag/v0.2.0","release_archive_sha256":"04e9f0d8ecb1d18a0cbb7d37a0b963a2c0ca4ebc2935708d27cc5d5131e4d5b8","internal_label_note":"The payload self-identifies as \"cliopatria_polities_only_v012\"; cite the release tag, not that label.","licence":"CC BY 4.0 — https://creativecommons.org/licenses/by/4.0/","citation":"Bennett, J.S., Mutch, E., Tollefson, A. et al. (2025). Cliopatria — A geospatial database of world-wide political entities from 3400BCE to 2024CE. Scientific Data 12, 247. https://doi.org/10.1038/s41597-025-04516-9","changes_made":"Changes were made. Features filtered to those overlapping this act window; polygons simplified with Douglas-Peucker at 0.25 degrees (topology preserved), invalid geometries repaired, and coordinates snapped to a 0.01 degree grid (2 decimal places); properties reduced to Name (n), FromYear (f), ToYear (t) and Wikidata Q-ID (w)."},"features":[{"type":"Feature","properties":{"n":"Zhou Dynasty","f":-1000,"t":-801,"w":"Q35216"},"geometry":{"type":"Polygon","coordinates":[[[118.07,38.16],[119.46,37.96],[119.16,37.19],[120.75,37.9],[122.71,37.45],[122.39,36.8],[120.98,36.61],[119.23,34.81],[120.34,34.36],[120.92,32.62],[121.96,31.98],[121.84,31.66],[120.92,31.85],[121.48,31.34],[119.25,31.46],[117.66,31.08],[116.08,31.34],[115.52,32.11],[114.14,32.49],[114.03,33.01],[111.68,33.26],[110.67,34.61],[108.2,34.61],[106.98,35.26],[107.73,35.97],[110.6,35.77],[114.54,39.71],[117.53,40.29],[118.08,39.26],[117.64,38.87],[118.07,38.16]]]}},{"type":"Feature","properties":{"n":"Kingdom of Kush","f":-1000,"t":-801,"w":"Q241790"},"geometry":{"type":"Polygon","coordinates":[[[34.26,19.64],[36.05,16.81],[34.71,16.49],[34.68,15.78],[32.53,15.2],[31.73,15.59],[31.39,16.36],[30.54,23.36],[33.54,23.81],[34.26,19.64]]]}},{"type":"Feature","properties":{"n":"Greek Dark Ages","f":-900,"t":-801,"w":"Q210443"},"geometry":{"type":"MultiPolygon","coordinates":[[[[33.04,34.55],[32.23,34.94],[32.89,35.39],[34.53,35.58],[33.04,34.55]]],[[[25.68,35.13],[26.23,35.19],[24.82,35.0],[23.62,35.52],[25.68,35.13]]],[[[27.74,35.9],[27.69,36.29],[28.25,36.48],[27.74,35.9]]],[[[27.04,36.93],[27.12,36.93],[27.19,36.8],[26.87,36.67],[27.04,36.93]]],[[[25.33,37.0],[25.34,37.13],[25.57,37.13],[25.33,37.0]]],[[[27.19,36.93],[27.52,37.19],[27.67,37.0],[27.19,36.93]]],[[[24.03,38.67],[23.98,37.84],[23.04,37.9],[23.4,37.32],[22.71,37.58],[23.06,36.67],[22.36,36.67],[22.22,37.06],[21.74,36.87],[21.7,37.51],[21.24,37.84],[21.74,38.35],[21.28,38.55],[22.55,38.87],[22.34,39.38],[22.62,40.1],[23.14,39.45],[22.8,39.06],[23.12,39.13],[23.49,38.8],[22.94,38.74],[24.03,38.67]]],[[[25.82,38.48],[25.99,38.67],[26.22,38.55],[25.88,38.16],[25.82,38.48]]],[[[23.57,38.8],[23.56,38.74],[23.48,38.74],[23.57,38.8]]]]}},{"type":"Feature","properties":{"n":"New Kingdom of Egypt","f":-900,"t":-801,"w":"Q180568"},"geometry":{"type":"Polygon","coordinates":[[[32.44,29.79],[32.76,28.96],[32.53,27.54],[33.08,26.64],[33.46,23.81],[30.46,23.36],[28.29,25.16],[28.36,26.84],[28.96,28.44],[28.64,30.95],[29.4,30.82],[30.97,31.66],[32.84,31.08],[32.44,29.79]]]}},{"type":"Feature","properties":{"n":"Kingdom of Judah","f":-900,"t":-801,"w":"Q48685"},"geometry":{"type":"Polygon","coordinates":[[[35.22,31.34],[34.85,31.53],[35.04,31.91],[35.63,31.72],[35.22,31.34]]]}},{"type":"Feature","properties":{"n":"Phoenicia","f":-900,"t":-801,"w":"Q41642"},"geometry":{"type":"MultiPolygon","coordinates":[[[[14.37,32.56],[14.9,32.36],[14.82,32.36],[14.52,32.17],[14.37,32.56]]],[[[35.85,33.33],[35.22,33.14],[35.64,34.36],[36.05,34.55],[35.88,35.9],[36.41,35.77],[35.85,33.33]]],[[[14.57,35.77],[14.34,35.84],[14.34,36.03],[14.57,35.77]]],[[[9.76,37.32],[9.92,37.25],[9.84,37.19],[9.45,37.25],[9.76,37.32]]]]}},{"type":"Feature","properties":{"n":"(Phoenician Empire)","f":-900,"t":-801,"w":"Q41642"},"geometry":{"type":"MultiPolygon","coordinates":[[[[14.37,32.56],[14.9,32.36],[14.82,32.36],[14.52,32.17],[14.37,32.56]]],[[[35.85,33.33],[35.22,33.14],[35.64,34.36],[36.05,34.55],[35.88,35.9],[36.41,35.77],[35.85,33.33]]],[[[14.57,35.77],[14.34,35.84],[14.34,36.03],[14.57,35.77]]],[[[9.76,37.32],[9.92,37.25],[9.84,37.19],[9.45,37.25],[9.76,37.32]]]]}},{"type":"Feature","properties":{"n":"Tabal Kingdom","f":-900,"t":-751,"w":"Q727710"},"geometry":{"type":"Polygon","coordinates":[[[34.52,36.75],[35.08,37.75],[36.23,38.56],[37.27,38.8],[38.08,38.12],[36.84,37.16],[35.35,36.56],[34.52,36.75]]]}},{"type":"Feature","properties":{"n":"Elam","f":-900,"t":-801,"w":"Q128904"},"geometry":{"type":"Polygon","coordinates":[[[50.07,30.82],[50.48,30.44],[49.59,29.99],[48.25,31.46],[47.87,32.62],[48.09,33.07],[48.55,33.07],[49.72,32.69],[50.29,31.85],[50.07,30.82]]]}},{"type":"Feature","properties":{"n":"Kingdom of Israel","f":-900,"t":-801,"w":"Q3185305"},"geometry":{"type":"Polygon","coordinates":[[[35.04,31.91],[34.85,32.43],[35.7,33.33],[36.08,33.26],[35.95,32.75],[36.31,32.49],[35.88,31.98],[35.04,31.91]]]}},{"type":"Feature","properties":{"n":"Philistia","f":-900,"t":-751,"w":"Q7185566"},"geometry":{"type":"Polygon","coordinates":[[[34.76,32.24],[35.0,32.43],[34.86,31.59],[34.3,31.27],[34.76,32.24]]]}},{"type":"Feature","properties":{"n":"Neo-Hittite states","f":-900,"t":-801,"w":"Q770281"},"geometry":{"type":"Polygon","coordinates":[[[38.6,37.64],[36.39,35.9],[35.79,36.31],[38.08,38.13],[38.6,37.64]]]}},{"type":"Feature","properties":{"n":"Neo-Assyrian Empire","f":-900,"t":-801,"w":"Q10914393"},"geometry":{"type":"Polygon","coordinates":[[[43.79,37.06],[44.37,36.74],[45.9,35.0],[45.45,33.97],[46.13,33.33],[45.47,32.94],[44.42,33.14],[44.21,32.69],[43.35,32.56],[39.55,34.81],[38.1,35.0],[38.01,36.29],[38.63,36.87],[40.94,37.84],[42.18,37.77],[41.88,37.32],[42.59,36.8],[43.79,37.06]]]}},{"type":"Feature","properties":{"n":"Phrygia","f":-900,"t":-751,"w":"Q32579"},"geometry":{"type":"Polygon","coordinates":[[[33.79,38.93],[33.59,38.55],[33.0,38.93],[31.8,38.67],[31.67,39.77],[30.67,40.03],[33.01,40.42],[33.52,40.1],[33.13,39.38],[33.79,38.93]]]}},{"type":"Feature","properties":{"n":"Babylonia","f":-900,"t":-801,"w":"Q47690"},"geometry":{"type":"Polygon","coordinates":[[[47.79,32.56],[48.15,32.43],[48.25,31.46],[49.29,30.63],[48.4,29.6],[46.62,29.86],[46.59,30.31],[45.77,30.44],[43.42,32.49],[44.21,32.69],[44.42,33.14],[45.47,32.94],[46.21,33.33],[46.16,33.01],[47.67,32.24],[47.79,32.56]]]}}]}