{"type":"FeatureCollection","act":{"from":-1500,"to":-1400,"years_inclusive":[-1500,-1401]},"attribution":{"source":"Cliopatria v0.2.0 (Seshat Global History Databank)","release":"GitHub tag v0.2.0 — https://github.com/Seshat-Global-History-Databank/cliopatria/releases/tag/v0.2.0","release_archive_sha256":"04e9f0d8ecb1d18a0cbb7d37a0b963a2c0ca4ebc2935708d27cc5d5131e4d5b8","internal_label_note":"The payload self-identifies as \"cliopatria_polities_only_v012\"; cite the release tag, not that label.","licence":"CC BY 4.0 — https://creativecommons.org/licenses/by/4.0/","citation":"Bennett, J.S., Mutch, E., Tollefson, A. et al. (2025). Cliopatria — A geospatial database of world-wide political entities from 3400BCE to 2024CE. Scientific Data 12, 247. https://doi.org/10.1038/s41597-025-04516-9","changes_made":"Changes were made. Features filtered to those overlapping this act window; polygons simplified with Douglas-Peucker at 0.25 degrees (topology preserved), invalid geometries repaired, and coordinates snapped to a 0.01 degree grid (2 decimal places); properties reduced to Name (n), FromYear (f), ToYear (t) and Wikidata Q-ID (w)."},"features":[{"type":"Feature","properties":{"n":"Elam","f":-1600,"t":-1401,"w":"Q128904"},"geometry":{"type":"MultiPolygon","coordinates":[[[[50.17,31.53],[50.48,31.59],[50.39,31.46],[50.71,31.01],[52.24,29.41],[51.86,28.77],[51.07,28.44],[50.06,30.18],[49.11,30.44],[49.29,30.63],[48.25,31.46],[47.64,33.14],[49.84,32.49],[50.17,31.53]]],[[[50.46,31.46],[50.47,31.53],[50.55,31.53],[50.46,31.46]]]]}},{"type":"Feature","properties":{"n":"Shang Dynasty","f":-1600,"t":-1241,"w":"Q128938"},"geometry":{"type":"Polygon","coordinates":[[[118.46,36.87],[116.0,34.29],[115.18,34.36],[114.38,35.19],[110.07,35.07],[113.3,36.29],[114.39,38.48],[115.08,38.93],[115.63,38.93],[116.39,37.77],[118.46,36.87]]]}},{"type":"Feature","properties":{"n":"Hittites","f":-1500,"t":-1401,"w":"Q5406"},"geometry":{"type":"Polygon","coordinates":[[[37.77,37.51],[36.39,37.0],[35.31,37.84],[35.0,39.19],[34.11,39.71],[35.52,40.29],[37.86,38.22],[37.77,37.51]]]}},{"type":"Feature","properties":{"n":"First Sealand Dynasty","f":-1500,"t":-1401,"w":"Q7440601"},"geometry":{"type":"Polygon","coordinates":[[[46.62,29.86],[46.62,30.56],[48.1,30.82],[48.48,30.24],[47.51,29.73],[46.62,29.86]]]}},{"type":"Feature","properties":{"n":"Mitanni","f":-1500,"t":-1401,"w":"Q178665"},"geometry":{"type":"Polygon","coordinates":[[[42.41,37.19],[42.59,36.8],[43.79,37.06],[44.35,36.61],[43.59,36.22],[42.96,35.0],[41.28,35.13],[40.63,34.16],[38.8,35.07],[36.29,34.68],[36.27,35.19],[35.89,35.26],[35.85,36.35],[36.29,36.8],[35.93,37.06],[37.6,37.38],[37.85,38.16],[39.93,37.32],[42.41,37.19]]]}},{"type":"Feature","properties":{"n":"Mycenaean Greece","f":-1500,"t":-1401,"w":"Q181264"},"geometry":{"type":"MultiPolygon","coordinates":[[[[23.11,36.16],[22.87,36.16],[22.89,36.42],[23.11,36.16]]],[[[25.33,37.0],[25.34,37.13],[25.57,37.13],[25.33,37.0]]],[[[24.2,37.64],[24.36,37.71],[24.43,37.58],[24.2,37.64]]],[[[25.05,37.51],[24.99,37.71],[25.22,37.71],[25.05,37.51]]],[[[24.68,37.84],[24.69,38.03],[25.07,37.77],[24.68,37.84]]],[[[24.03,38.67],[23.98,37.84],[23.04,37.9],[23.4,37.32],[22.71,37.58],[23.06,36.67],[22.36,36.67],[22.22,37.06],[21.74,36.87],[21.7,37.51],[21.24,37.84],[21.73,38.16],[21.27,38.42],[21.37,38.74],[22.6,39.71],[23.14,39.45],[22.8,39.06],[23.12,39.13],[23.49,38.8],[22.94,38.74],[24.03,38.67]]],[[[23.49,38.8],[23.57,38.8],[23.56,38.74],[23.49,38.8]]]]}},{"type":"Feature","properties":{"n":"Hyksos","f":-1500,"t":-1401,"w":"Q192319"},"geometry":{"type":"Polygon","coordinates":[[[36.31,30.82],[35.76,30.5],[35.11,30.95],[34.56,30.69],[34.3,31.34],[35.64,34.36],[36.05,34.55],[35.89,35.26],[36.27,35.19],[36.89,33.71],[36.31,30.82]]]}},{"type":"Feature","properties":{"n":"Assyria","f":-1500,"t":-1401,"w":"Q41137"},"geometry":{"type":"Polygon","coordinates":[[[45.9,35.0],[45.62,34.1],[44.4,34.16],[44.25,34.81],[43.37,35.13],[43.59,36.22],[44.35,36.61],[45.9,35.0]]]}},{"type":"Feature","properties":{"n":"Minoan civilization","f":-1500,"t":-1401,"w":"Q134178"},"geometry":{"type":"Polygon","coordinates":[[[26.23,35.19],[24.82,35.0],[23.62,35.52],[26.23,35.19]]]}},{"type":"Feature","properties":{"n":"New Kingdom of Egypt","f":-1500,"t":-1401,"w":"Q180568"},"geometry":{"type":"Polygon","coordinates":[[[34.3,31.27],[34.94,29.73],[34.35,27.74],[33.19,28.51],[32.44,29.79],[34.33,26.26],[32.37,24.39],[32.4,23.24],[33.24,22.01],[34.16,19.06],[33.13,19.25],[31.84,18.29],[30.87,18.09],[30.52,18.74],[30.49,22.08],[29.16,24.39],[27.84,25.29],[27.79,27.61],[28.57,30.95],[29.4,30.82],[30.97,31.66],[32.31,31.21],[34.3,31.27]]]}},{"type":"Feature","properties":{"n":"Babylonia","f":-1500,"t":-1401,"w":"Q47690"},"geometry":{"type":"Polygon","coordinates":[[[48.25,31.46],[49.14,30.69],[47.8,30.89],[46.59,30.31],[45.77,30.44],[43.42,32.49],[44.14,32.75],[43.97,33.26],[45.88,33.78],[45.93,34.1],[48.15,32.43],[48.25,31.46]]]}}]}