{"type":"FeatureCollection","act":{"from":-2400,"to":-2300,"years_inclusive":[-2400,-2301]},"attribution":{"source":"Cliopatria v0.2.0 (Seshat Global History Databank)","release":"GitHub tag v0.2.0 — https://github.com/Seshat-Global-History-Databank/cliopatria/releases/tag/v0.2.0","release_archive_sha256":"04e9f0d8ecb1d18a0cbb7d37a0b963a2c0ca4ebc2935708d27cc5d5131e4d5b8","internal_label_note":"The payload self-identifies as \"cliopatria_polities_only_v012\"; cite the release tag, not that label.","licence":"CC BY 4.0 — https://creativecommons.org/licenses/by/4.0/","citation":"Bennett, J.S., Mutch, E., Tollefson, A. et al. (2025). Cliopatria — A geospatial database of world-wide political entities from 3400BCE to 2024CE. Scientific Data 12, 247. https://doi.org/10.1038/s41597-025-04516-9","changes_made":"Changes were made. Features filtered to those overlapping this act window; polygons simplified with Douglas-Peucker at 0.25 degrees (topology preserved), invalid geometries repaired, and coordinates snapped to a 0.01 degree grid (2 decimal places); properties reduced to Name (n), FromYear (f), ToYear (t) and Wikidata Q-ID (w)."},"features":[{"type":"Feature","properties":{"n":"Old Kingdom of Egypt","f":-2500,"t":-2301,"w":"Q177819"},"geometry":{"type":"Polygon","coordinates":[[[31.92,31.53],[32.2,31.29],[31.78,31.28],[32.76,30.87],[32.54,29.41],[31.37,29.31],[30.93,28.03],[30.98,27.42],[32.9,26.19],[32.69,25.49],[33.11,25.04],[33.13,24.0],[32.75,24.0],[32.76,24.71],[32.24,25.31],[32.54,25.89],[31.85,25.94],[30.75,27.23],[30.45,28.71],[29.95,28.92],[30.38,29.72],[29.5,30.5],[29.5,30.95],[31.1,31.6],[31.92,31.53]]]}},{"type":"Feature","properties":{"n":"Sumerian City-States","f":-2500,"t":-2301,"w":"Q2345840"},"geometry":{"type":"Polygon","coordinates":[[[44.5,33.78],[45.02,33.07],[46.15,33.46],[46.16,33.01],[48.58,32.17],[48.91,30.69],[47.8,30.89],[46.29,30.37],[45.2,32.04],[44.32,32.36],[44.1,33.07],[40.52,34.55],[40.86,34.81],[42.98,34.49],[44.5,33.78]]]}},{"type":"Feature","properties":{"n":"Indus Valley Civilization","f":-2500,"t":-2301,"w":"Q42534"},"geometry":{"type":"MultiPolygon","coordinates":[[[[72.49,22.59],[71.86,22.34],[71.7,22.85],[72.25,23.11],[72.49,22.59]]],[[[70.63,23.94],[70.27,23.43],[69.71,23.69],[70.0,24.26],[70.63,23.94]]],[[[67.55,27.22],[67.93,27.74],[68.96,27.09],[68.58,26.58],[67.55,27.22]]],[[[75.63,29.09],[75.62,29.02],[75.55,29.02],[75.63,29.09]]],[[[74.19,29.02],[73.53,28.77],[73.4,29.28],[73.98,29.54],[74.19,29.02]]],[[[76.54,29.09],[75.89,28.83],[75.76,29.34],[76.34,29.6],[76.54,29.09]]],[[[67.21,29.34],[66.56,29.09],[66.42,29.6],[67.0,29.86],[67.21,29.34]]],[[[71.77,30.63],[71.11,30.37],[70.99,30.89],[71.57,31.14],[71.77,30.63]]]]}}]}