{"type":"FeatureCollection","act":{"from":-700,"to":-600,"years_inclusive":[-700,-601]},"attribution":{"source":"Cliopatria v0.2.0 (Seshat Global History Databank)","release":"GitHub tag v0.2.0 — https://github.com/Seshat-Global-History-Databank/cliopatria/releases/tag/v0.2.0","release_archive_sha256":"04e9f0d8ecb1d18a0cbb7d37a0b963a2c0ca4ebc2935708d27cc5d5131e4d5b8","internal_label_note":"The payload self-identifies as \"cliopatria_polities_only_v012\"; cite the release tag, not that label.","licence":"CC BY 4.0 — https://creativecommons.org/licenses/by/4.0/","citation":"Bennett, J.S., Mutch, E., Tollefson, A. et al. (2025). Cliopatria — A geospatial database of world-wide political entities from 3400BCE to 2024CE. Scientific Data 12, 247. https://doi.org/10.1038/s41597-025-04516-9","changes_made":"Changes were made. Features filtered to those overlapping this act window; polygons simplified with Douglas-Peucker at 0.25 degrees (topology preserved), invalid geometries repaired, and coordinates snapped to a 0.01 degree grid (2 decimal places); properties reduced to Name (n), FromYear (f), ToYear (t) and Wikidata Q-ID (w)."},"features":[{"type":"Feature","properties":{"n":"Jin","f":-750,"t":-551,"w":"Q6201794"},"geometry":{"type":"Polygon","coordinates":[[[112.32,35.45],[112.15,34.49],[110.9,34.23],[110.59,34.81],[111.23,36.35],[112.2,37.32],[116.1,39.84],[115.86,39.38],[116.4,38.74],[116.15,38.55],[117.2,38.61],[114.28,35.52],[112.32,35.45]]]}},{"type":"Feature","properties":{"n":"Qin","f":-750,"t":-451,"w":"Q1471995"},"geometry":{"type":"Polygon","coordinates":[[[107.94,34.55],[108.45,35.26],[108.22,35.64],[112.17,37.25],[111.23,36.35],[110.59,34.81],[110.74,34.23],[107.94,34.55]]]}},{"type":"Feature","properties":{"n":"Etruscans","f":-750,"t":-651,"w":"Q17161"},"geometry":{"type":"MultiPolygon","coordinates":[[[[10.54,43.08],[10.29,43.8],[12.95,43.47],[13.5,42.69],[13.01,42.11],[13.81,41.91],[14.03,41.39],[13.0,41.33],[12.37,41.72],[12.45,42.11],[11.73,42.17],[10.54,43.08]]],[[[10.46,42.89],[10.46,42.69],[10.21,42.69],[10.46,42.89]]]]}},{"type":"Feature","properties":{"n":"(Spring and Autumn States)","f":-750,"t":-551,"w":"Q185047"},"geometry":{"type":"Polygon","coordinates":[[[114.11,30.5],[112.9,29.34],[110.23,29.99],[110.41,30.31],[109.48,30.95],[109.31,31.59],[109.78,33.33],[110.9,34.23],[107.94,34.55],[108.45,35.26],[108.22,35.64],[113.27,37.77],[115.9,39.9],[121.23,40.94],[118.99,39.19],[117.89,39.19],[117.6,38.48],[119.46,37.96],[119.16,37.19],[120.75,37.9],[122.71,37.45],[122.39,36.8],[120.98,36.61],[119.23,34.81],[120.34,34.36],[120.92,32.62],[121.99,31.85],[120.92,31.85],[122.0,31.08],[120.68,30.18],[121.48,30.31],[122.03,29.92],[121.42,29.47],[119.78,29.99],[117.88,29.54],[116.27,29.92],[116.04,30.37],[114.11,30.5]]]}},{"type":"Feature","properties":{"n":"Qi","f":-750,"t":-551,"w":"Q1143524"},"geometry":{"type":"Polygon","coordinates":[[[119.16,37.19],[120.75,37.9],[122.71,37.45],[122.39,36.8],[121.91,36.93],[120.96,36.42],[116.05,35.84],[115.52,36.22],[115.44,36.74],[117.23,38.67],[119.46,37.96],[119.16,37.19]]]}},{"type":"Feature","properties":{"n":"Song","f":-750,"t":-481,"w":"Q7462"},"geometry":{"type":"Polygon","coordinates":[[[117.23,34.1],[116.62,34.1],[114.34,34.74],[115.99,35.71],[116.65,34.55],[117.57,34.55],[117.23,34.1]]]}},{"type":"Feature","properties":{"n":"Teng","f":-750,"t":-481,"w":"Q1356151"},"geometry":{"type":"Polygon","coordinates":[[[116.96,35.45],[117.18,35.07],[116.7,34.68],[116.18,35.26],[116.96,35.45]]]}},{"type":"Feature","properties":{"n":"Chen","f":-750,"t":-481,"w":"Q1069690"},"geometry":{"type":"Polygon","coordinates":[[[113.75,34.81],[115.59,34.42],[114.16,34.29],[113.75,34.81]]]}},{"type":"Feature","properties":{"n":"Wey","f":-750,"t":-551,"w":"Q1147897"},"geometry":{"type":"Polygon","coordinates":[[[114.61,36.1],[115.44,36.74],[115.6,36.22],[114.25,35.45],[114.61,36.1]]]}},{"type":"Feature","properties":{"n":"Cao","f":-750,"t":-481,"w":"Q204077"},"geometry":{"type":"Polygon","coordinates":[[[115.23,35.39],[114.5,34.94],[114.41,35.45],[115.01,35.77],[115.23,35.39]]]}},{"type":"Feature","properties":{"n":"Lu","f":-750,"t":-481,"w":"Q555994"},"geometry":{"type":"Polygon","coordinates":[[[117.64,34.87],[118.25,35.58],[116.29,35.32],[115.99,35.71],[115.23,35.39],[114.96,35.64],[115.6,36.22],[116.05,35.84],[120.73,36.42],[119.23,34.81],[117.64,34.87]]]}},{"type":"Feature","properties":{"n":"Zheng","f":-750,"t":-451,"w":"Q197598"},"geometry":{"type":"Polygon","coordinates":[[[114.41,35.45],[114.47,34.87],[113.34,34.94],[113.68,35.39],[114.41,35.45]]]}},{"type":"Feature","properties":{"n":"Cai","f":-750,"t":-481,"w":"Q1025803"},"geometry":{"type":"Polygon","coordinates":[[[113.59,34.23],[113.03,34.74],[113.34,34.94],[113.93,34.49],[113.59,34.23]]]}},{"type":"Feature","properties":{"n":"Zhu","f":-750,"t":-451,"w":"Q227007"},"geometry":{"type":"Polygon","coordinates":[[[117.59,35.64],[118.3,35.52],[117.77,35.0],[116.98,35.32],[117.59,35.64]]]}},{"type":"Feature","properties":{"n":"Yan","f":-750,"t":-405,"w":"Q1472004"},"geometry":{"type":"Polygon","coordinates":[[[117.89,39.19],[117.62,38.67],[116.15,38.55],[116.4,38.74],[115.86,39.38],[116.14,39.9],[117.57,40.36],[121.23,40.94],[119.32,39.51],[117.89,39.19]]]}},{"type":"Feature","properties":{"n":"Later Zhou","f":-750,"t":-451,"w":"Q1154556"},"geometry":{"type":"Polygon","coordinates":[[[112.32,35.45],[113.53,35.39],[113.34,34.94],[112.39,34.49],[112.32,35.45]]]}},{"type":"Feature","properties":{"n":"Xu","f":-750,"t":-451,"w":"Q2650109"},"geometry":{"type":"Polygon","coordinates":[[[117.18,35.07],[117.97,34.74],[117.67,34.42],[116.73,34.55],[117.18,35.07]]]}},{"type":"Feature","properties":{"n":"Wu","f":-750,"t":-551,"w":"Q274488"},"geometry":{"type":"Polygon","coordinates":[[[116.27,29.92],[116.1,30.31],[116.84,30.69],[117.11,31.66],[118.91,32.94],[117.23,34.1],[118.28,34.94],[119.3,34.81],[120.34,34.36],[120.92,32.62],[121.99,31.85],[120.92,31.85],[122.0,31.08],[120.68,30.18],[121.48,30.31],[122.03,29.92],[121.42,29.47],[119.78,29.99],[117.96,29.54],[116.27,29.92]]]}},{"type":"Feature","properties":{"n":"Phoenicia","f":-750,"t":-676,"w":"Q41642"},"geometry":{"type":"MultiPolygon","coordinates":[[[[14.67,32.56],[14.9,32.36],[14.52,32.17],[14.37,32.56],[14.67,32.56]]],[[[35.22,33.14],[36.23,35.58],[36.23,34.1],[35.22,33.14]]],[[[33.52,34.74],[33.29,34.74],[33.81,35.32],[34.1,35.13],[33.52,34.74]]],[[[10.85,35.77],[11.08,35.39],[10.62,35.32],[10.85,35.77]]],[[[-5.23,36.48],[-5.58,36.03],[-6.25,36.61],[-5.45,36.35],[-5.31,36.55],[-4.56,36.87],[-3.85,36.8],[-5.23,36.48]]],[[[11.01,37.0],[10.54,36.22],[9.84,36.74],[11.01,37.0]]],[[[7.27,36.87],[7.35,37.06],[7.97,36.93],[7.67,36.55],[7.27,36.87]]],[[[10.31,36.87],[10.23,36.87],[10.23,36.93],[10.31,36.87]]],[[[9.6,37.32],[10.23,37.25],[9.3,36.74],[9.06,37.06],[9.6,37.32]]]]}},{"type":"Feature","properties":{"n":"Neo-Assyrian Empire","f":-700,"t":-676,"w":"Q10914393"},"geometry":{"type":"MultiPolygon","coordinates":[[[[46.89,34.94],[46.97,34.94],[46.96,34.87],[46.89,34.94]]],[[[34.09,35.0],[33.04,34.55],[32.23,34.94],[34.54,35.71],[34.09,35.0]]],[[[45.12,39.97],[45.96,39.84],[45.76,39.58],[46.14,39.06],[45.02,38.48],[45.35,36.55],[47.21,35.52],[46.89,34.94],[46.18,34.81],[46.15,34.04],[47.97,32.81],[48.25,31.46],[49.29,30.63],[48.99,30.05],[47.87,29.54],[46.62,29.86],[46.59,30.31],[45.77,30.44],[43.15,32.81],[39.55,34.81],[38.42,35.07],[36.73,33.65],[36.48,32.62],[36.75,32.3],[35.81,29.22],[34.91,29.34],[34.31,31.4],[35.64,34.36],[36.05,34.55],[35.84,36.29],[36.29,36.8],[34.34,36.74],[33.16,38.22],[33.71,38.93],[34.4,38.8],[34.7,39.32],[35.37,39.0],[38.28,40.23],[40.59,40.29],[41.91,41.13],[44.07,41.2],[44.07,40.74],[44.93,40.68],[45.12,39.97]]],[[[35.89,39.45],[35.97,39.45],[35.96,39.38],[35.89,39.45]]]]}},{"type":"Feature","properties":{"n":"Kingdom of Kush","f":-700,"t":-676,"w":"Q241790"},"geometry":{"type":"Polygon","coordinates":[[[32.79,30.44],[32.44,29.73],[30.97,29.34],[31.02,27.42],[32.63,26.71],[32.42,23.75],[33.82,23.49],[34.13,20.02],[36.06,16.87],[35.67,16.49],[34.71,16.49],[34.68,15.78],[32.75,15.2],[31.8,15.52],[31.39,16.36],[30.61,23.24],[29.67,24.2],[28.57,24.65],[28.23,25.62],[28.35,26.64],[30.28,27.8],[29.57,28.51],[29.68,29.28],[30.3,29.47],[29.09,30.82],[30.97,31.66],[32.84,31.08],[32.79,30.44]]]}},{"type":"Feature","properties":{"n":"(Phoenician Empire)","f":-700,"t":-676,"w":"Q41642"},"geometry":{"type":"MultiPolygon","coordinates":[[[[-5.23,36.48],[-5.58,36.03],[-6.25,36.61],[-5.45,36.35],[-5.31,36.55],[-4.56,36.87],[-3.85,36.8],[-5.23,36.48]]],[[[11.01,37.0],[10.54,36.22],[9.84,36.74],[11.01,37.0]]],[[[7.27,36.87],[7.35,37.06],[7.97,36.93],[7.67,36.55],[7.27,36.87]]],[[[10.31,36.87],[10.23,36.87],[10.23,36.93],[10.31,36.87]]],[[[9.6,37.32],[10.23,37.25],[9.3,36.74],[9.06,37.06],[9.6,37.32]]],[[[8.32,39.97],[8.4,40.29],[8.72,40.1],[8.56,39.77],[8.32,39.97]]],[[[14.9,32.36],[14.52,32.17],[14.37,32.56],[14.9,32.36]]],[[[11.08,35.39],[10.62,35.32],[10.54,35.52],[10.85,35.77],[11.08,35.39]]],[[[14.34,35.84],[14.34,36.03],[14.57,35.97],[14.34,35.84]]],[[[12.57,38.03],[12.81,38.09],[12.73,37.9],[12.57,38.03]]],[[[13.51,38.09],[13.67,37.96],[13.04,37.96],[13.51,38.09]]]]}},{"type":"Feature","properties":{"n":"Elam","f":-700,"t":-651,"w":"Q128904"},"geometry":{"type":"Polygon","coordinates":[[[50.07,30.82],[50.48,30.44],[49.66,29.99],[48.25,31.46],[47.98,32.88],[48.99,32.94],[50.04,32.24],[50.07,30.82]]]}},{"type":"Feature","properties":{"n":"Chu","f":-700,"t":-481,"w":"Q504759"},"geometry":{"type":"Polygon","coordinates":[[[117.23,34.1],[118.91,32.94],[117.11,31.66],[116.84,30.69],[116.12,30.37],[114.11,30.5],[112.9,29.34],[110.23,29.99],[110.41,30.31],[109.48,30.95],[109.78,33.33],[110.9,34.23],[113.03,34.74],[113.59,34.23],[117.23,34.1]]]}},{"type":"Feature","properties":{"n":"Phoenician Colonies","f":-700,"t":-676,"w":"Q1094394"},"geometry":{"type":"MultiPolygon","coordinates":[[[[14.57,35.77],[14.34,35.84],[14.34,36.03],[14.57,35.77]]],[[[-3.85,36.8],[-5.23,36.48],[-5.58,36.03],[-6.25,36.61],[-5.45,36.35],[-5.31,36.55],[-3.85,36.8]]],[[[12.73,37.9],[12.57,37.96],[12.57,38.03],[12.73,37.9]]],[[[13.12,38.16],[13.67,37.96],[13.04,37.96],[13.12,38.16]]],[[[8.32,39.97],[8.4,40.29],[8.72,40.1],[8.56,39.77],[8.32,39.97]]]]}},{"type":"Feature","properties":{"n":"Roman Kingdom","f":-700,"t":-501,"w":"Q201038"},"geometry":{"type":"Polygon","coordinates":[[[12.45,42.11],[12.45,41.78],[11.97,42.11],[12.45,42.11]]]}},{"type":"Feature","properties":{"n":"Phrygia","f":-700,"t":-676,"w":"Q32579"},"geometry":{"type":"Polygon","coordinates":[[[33.99,40.68],[34.07,40.03],[33.16,39.71],[33.67,38.61],[31.74,37.25],[28.8,37.58],[28.91,38.8],[27.62,39.38],[26.74,39.26],[27.17,39.64],[26.66,40.16],[27.95,40.48],[29.7,39.71],[29.84,40.42],[30.46,40.23],[30.87,41.13],[32.63,41.91],[35.12,42.04],[34.29,41.13],[34.31,40.68],[33.99,40.68]]]}},{"type":"Feature","properties":{"n":"Hadhramaut","f":-700,"t":-351,"w":"Q1517159"},"geometry":{"type":"MultiPolygon","coordinates":[[[[50.75,15.01],[49.41,14.69],[46.15,15.52],[46.55,16.16],[46.7,16.1],[50.12,16.61],[51.89,16.61],[50.75,15.01]]],[[[46.63,16.16],[46.63,16.23],[46.71,16.23],[46.63,16.16]]]]}},{"type":"Feature","properties":{"n":"Lydia","f":-700,"t":-676,"w":"Q620765"},"geometry":{"type":"Polygon","coordinates":[[[28.63,37.38],[27.7,37.45],[27.02,38.8],[27.62,39.38],[28.98,38.74],[28.63,37.38]]]}},{"type":"Feature","properties":{"n":"Greek City-States","f":-700,"t":-676,"w":"Q148837"},"geometry":{"type":"MultiPolygon","coordinates":[[[[25.68,35.13],[26.23,35.19],[24.82,35.0],[23.62,35.52],[25.68,35.13]]],[[[23.12,36.35],[23.11,36.16],[22.87,36.16],[23.12,36.35]]],[[[24.36,37.71],[24.43,37.58],[24.27,37.51],[24.36,37.71]]],[[[20.93,37.9],[20.92,37.64],[20.61,37.71],[20.93,37.9]]],[[[24.77,38.03],[25.07,37.77],[24.83,37.71],[24.77,38.03]]],[[[16.43,38.93],[17.14,39.19],[15.93,37.96],[15.39,38.16],[15.13,36.87],[14.83,37.71],[15.15,38.16],[16.02,38.29],[16.43,38.93]]],[[[20.57,38.42],[20.79,38.09],[20.32,38.16],[20.57,38.42]]],[[[24.03,38.67],[24.16,38.22],[23.98,37.84],[23.04,37.9],[23.4,37.32],[22.71,37.58],[23.06,36.67],[22.36,36.67],[22.22,37.06],[21.74,36.87],[21.7,37.51],[21.24,37.84],[21.74,38.35],[21.28,38.55],[22.55,38.87],[22.34,39.38],[22.62,40.1],[23.14,39.45],[22.8,39.06],[23.34,39.0],[23.49,38.8],[22.94,38.87],[23.31,38.48],[24.03,38.67]]],[[[20.74,38.87],[20.73,38.61],[20.5,38.61],[20.74,38.87]]],[[[23.56,38.74],[23.48,38.74],[23.49,38.8],[23.56,38.74]]],[[[24.67,38.93],[24.66,38.74],[24.36,38.87],[24.67,38.93]]],[[[19.91,39.58],[19.76,39.64],[19.76,39.77],[19.91,39.58]]],[[[23.65,40.03],[23.64,39.9],[23.33,39.97],[23.26,40.23],[23.65,40.03]]],[[[23.5,40.23],[23.42,40.23],[23.43,40.29],[23.5,40.23]]],[[[16.88,40.74],[17.51,40.68],[17.58,40.36],[16.87,40.48],[16.29,39.77],[16.88,40.74]]],[[[23.67,40.36],[23.75,40.36],[23.74,40.23],[23.67,40.36]]],[[[14.89,40.74],[14.03,41.0],[14.5,41.0],[14.89,40.74]]],[[[28.02,36.48],[28.25,36.48],[28.14,36.03],[27.74,35.9],[28.02,36.48]]],[[[33.98,36.29],[33.51,36.22],[33.76,36.42],[33.98,36.29]]],[[[30.28,36.61],[30.52,36.74],[30.49,36.35],[30.11,36.42],[30.28,36.61]]],[[[27.19,36.8],[26.87,36.67],[27.04,36.93],[27.19,36.8]]],[[[25.57,37.13],[25.56,37.0],[25.33,37.0],[25.57,37.13]]],[[[25.22,37.71],[25.29,37.51],[25.05,37.51],[25.22,37.71]]],[[[26.31,37.71],[26.3,37.58],[25.99,37.51],[26.31,37.71]]],[[[28.51,36.87],[28.03,36.67],[28.07,37.13],[27.22,37.32],[27.28,38.03],[27.48,37.58],[28.17,37.45],[28.51,36.87]]],[[[26.43,38.22],[26.38,38.67],[27.06,38.35],[26.85,38.61],[26.91,39.38],[27.38,39.32],[27.01,38.67],[27.28,38.03],[26.43,38.22]]],[[[26.22,38.55],[26.11,38.16],[25.88,38.16],[26.22,38.55]]],[[[25.79,39.19],[26.04,39.38],[26.64,39.0],[25.79,39.19]]],[[[25.46,40.03],[25.45,39.84],[24.97,39.84],[25.46,40.03]]],[[[26.13,39.51],[26.27,40.29],[27.47,40.42],[26.66,40.16],[27.17,39.64],[26.13,39.51]]],[[[26.04,40.29],[26.02,40.16],[25.7,40.1],[26.04,40.29]]],[[[26.84,40.48],[26.77,40.61],[27.01,40.55],[26.84,40.48]]],[[[40.57,40.68],[39.78,40.74],[39.81,40.94],[40.57,40.68]]],[[[37.15,41.2],[37.23,41.2],[37.22,41.13],[37.15,41.2]]],[[[37.07,41.13],[37.14,41.13],[36.89,41.0],[36.45,41.26],[37.07,41.13]]]]}},{"type":"Feature","properties":{"n":"Sabaeans","f":-700,"t":-676,"w":"Q940785"},"geometry":{"type":"MultiPolygon","coordinates":[[[[45.85,15.39],[45.92,15.39],[45.92,15.33],[45.85,15.39]]],[[[43.87,15.52],[43.94,15.52],[43.94,15.46],[43.87,15.52]]],[[[43.95,15.59],[44.02,15.59],[44.02,15.52],[43.95,15.59]]],[[[45.02,15.14],[43.93,15.2],[43.94,15.46],[44.02,15.52],[44.63,15.97],[46.47,15.97],[45.02,15.14]]]]}},{"type":"Feature","properties":{"n":"Sabaeans","f":-675,"t":-551,"w":"Q940785"},"geometry":{"type":"MultiPolygon","coordinates":[[[[45.84,15.33],[45.85,15.39],[45.92,15.39],[45.84,15.33]]],[[[44.33,15.84],[46.47,15.97],[45.32,15.2],[42.82,15.07],[42.49,17.19],[43.55,17.77],[44.33,15.84]]]]}},{"type":"Feature","properties":{"n":"Phoenicia","f":-675,"t":-651,"w":"Q41642"},"geometry":{"type":"MultiPolygon","coordinates":[[[[12.84,32.88],[14.9,32.43],[14.59,32.17],[12.84,32.88]]],[[[10.85,35.77],[11.08,35.39],[10.62,35.32],[10.85,35.77]]],[[[11.01,37.0],[10.54,36.22],[9.84,36.74],[11.01,37.0]]],[[[7.67,36.55],[7.27,36.87],[7.35,37.06],[7.97,36.93],[7.67,36.55]]],[[[10.31,36.93],[10.31,36.87],[10.23,36.87],[10.31,36.93]]],[[[9.6,37.32],[10.23,37.25],[9.3,36.74],[8.9,37.13],[9.6,37.32]]]]}},{"type":"Feature","properties":{"n":"Greek City-States","f":-675,"t":-651,"w":"Q148837"},"geometry":{"type":"MultiPolygon","coordinates":[[[[25.68,35.13],[26.23,35.19],[24.82,35.0],[23.62,35.52],[25.68,35.13]]],[[[23.12,36.35],[23.11,36.16],[22.87,36.16],[23.12,36.35]]],[[[24.36,37.71],[24.43,37.58],[24.27,37.51],[24.36,37.71]]],[[[20.93,37.9],[20.92,37.64],[20.61,37.71],[20.93,37.9]]],[[[24.77,38.03],[25.07,37.77],[24.83,37.71],[24.77,38.03]]],[[[16.43,38.93],[17.14,39.19],[15.93,37.96],[15.39,38.16],[15.13,36.87],[14.83,37.71],[15.15,38.16],[16.02,38.29],[16.43,38.93]]],[[[20.57,38.42],[20.79,38.09],[20.32,38.16],[20.57,38.42]]],[[[24.03,38.67],[24.16,38.22],[23.98,37.84],[23.04,37.9],[23.4,37.32],[22.71,37.58],[23.06,36.67],[22.36,36.67],[22.22,37.06],[21.74,36.87],[21.7,37.51],[21.24,37.84],[21.74,38.35],[21.28,38.55],[22.55,38.87],[22.54,40.03],[23.14,39.45],[22.8,39.06],[23.34,39.0],[23.49,38.8],[22.94,38.87],[23.31,38.48],[24.03,38.67]]],[[[20.74,38.87],[20.73,38.61],[20.5,38.61],[20.74,38.87]]],[[[23.56,38.74],[23.48,38.74],[23.49,38.8],[23.56,38.74]]],[[[24.67,38.93],[24.66,38.74],[24.36,38.87],[24.67,38.93]]],[[[19.91,39.58],[19.76,39.64],[19.76,39.77],[19.91,39.58]]],[[[23.65,40.03],[23.64,39.9],[23.33,39.97],[23.26,40.23],[23.65,40.03]]],[[[23.5,40.23],[23.42,40.23],[23.43,40.29],[23.5,40.23]]],[[[16.88,40.74],[17.51,40.68],[17.58,40.36],[16.87,40.48],[16.29,39.77],[16.88,40.74]]],[[[23.67,40.36],[23.75,40.36],[23.74,40.23],[23.67,40.36]]],[[[14.89,40.74],[14.03,41.0],[14.5,41.0],[14.89,40.74]]],[[[28.02,36.48],[28.25,36.48],[28.14,36.03],[27.74,35.9],[28.02,36.48]]],[[[33.98,36.29],[33.51,36.22],[33.76,36.42],[33.98,36.29]]],[[[30.28,36.61],[30.52,36.74],[30.49,36.35],[30.11,36.42],[30.28,36.61]]],[[[27.19,36.8],[26.87,36.67],[27.04,36.93],[27.19,36.8]]],[[[25.57,37.13],[25.56,37.0],[25.33,37.0],[25.57,37.13]]],[[[25.22,37.71],[25.29,37.51],[25.05,37.51],[25.22,37.71]]],[[[26.31,37.71],[26.3,37.58],[25.99,37.51],[26.31,37.71]]],[[[28.51,36.87],[28.03,36.67],[28.07,37.13],[27.22,37.32],[27.28,38.03],[27.48,37.58],[28.17,37.45],[28.51,36.87]]],[[[26.43,38.22],[26.38,38.67],[27.06,38.35],[26.75,39.32],[27.38,39.38],[27.01,38.67],[27.28,38.03],[26.43,38.22]]],[[[26.22,38.55],[26.11,38.16],[25.88,38.16],[26.22,38.55]]],[[[25.79,39.19],[26.04,39.38],[26.64,39.0],[25.79,39.19]]],[[[25.46,40.03],[25.45,39.84],[24.97,39.84],[25.46,40.03]]],[[[26.44,40.42],[27.54,40.36],[26.66,40.16],[27.24,39.58],[26.13,39.51],[26.44,40.42]]],[[[26.04,40.29],[26.02,40.16],[25.7,40.1],[26.04,40.29]]],[[[26.84,40.48],[26.77,40.61],[27.01,40.55],[26.84,40.48]]],[[[40.57,40.68],[39.78,40.74],[39.81,40.94],[40.57,40.68]]],[[[37.15,41.2],[37.23,41.2],[37.22,41.13],[37.15,41.2]]],[[[37.07,41.13],[37.14,41.13],[36.89,41.0],[36.45,41.26],[37.07,41.13]]]]}},{"type":"Feature","properties":{"n":"Lydia","f":-675,"t":-651,"w":"Q620765"},"geometry":{"type":"Polygon","coordinates":[[[28.63,37.38],[27.7,37.45],[27.02,38.8],[27.54,39.45],[28.91,38.87],[28.63,37.38]]]}},{"type":"Feature","properties":{"n":"(Macedonian Empire)","f":-675,"t":-551,"w":"Q83958"},"geometry":{"type":"Polygon","coordinates":[[[22.7,40.03],[22.08,40.23],[22.66,40.68],[22.7,40.03]]]}},{"type":"Feature","properties":{"n":"Phoenician Colonies","f":-675,"t":-651,"w":"Q1094394"},"geometry":{"type":"MultiPolygon","coordinates":[[[[14.57,35.77],[14.34,35.84],[14.34,36.03],[14.57,35.77]]],[[[-3.85,36.8],[-5.23,36.48],[-5.58,36.03],[-6.25,36.61],[-5.45,36.35],[-5.31,36.55],[-3.85,36.8]]],[[[12.73,37.9],[12.57,37.96],[12.57,38.03],[12.73,37.9]]],[[[13.12,38.16],[13.67,37.96],[13.04,37.96],[13.12,38.16]]],[[[9.36,39.19],[8.34,39.0],[8.4,40.29],[8.73,39.32],[9.36,39.19]]]]}},{"type":"Feature","properties":{"n":"(Phoenician Empire)","f":-675,"t":-651,"w":"Q41642"},"geometry":{"type":"MultiPolygon","coordinates":[[[[-5.23,36.48],[-5.58,36.03],[-6.25,36.61],[-5.45,36.35],[-5.31,36.55],[-4.56,36.87],[-3.85,36.8],[-5.23,36.48]]],[[[11.01,37.0],[10.54,36.22],[9.84,36.74],[11.01,37.0]]],[[[7.27,36.87],[7.35,37.06],[7.97,36.93],[7.67,36.55],[7.27,36.87]]],[[[10.31,36.87],[10.23,36.87],[10.23,36.93],[10.31,36.87]]],[[[9.6,37.32],[10.23,37.25],[9.3,36.74],[9.06,37.06],[9.6,37.32]]],[[[9.36,39.19],[8.34,39.0],[8.4,40.29],[8.73,39.32],[9.36,39.19]]],[[[13.76,32.88],[14.9,32.43],[14.59,32.17],[12.84,32.88],[13.76,32.88]]],[[[11.08,35.39],[10.62,35.32],[10.54,35.52],[10.85,35.77],[11.08,35.39]]],[[[14.34,35.84],[14.34,36.03],[14.57,35.97],[14.34,35.84]]],[[[12.57,38.03],[12.81,38.09],[12.73,37.9],[12.57,38.03]]],[[[13.51,38.09],[13.67,37.96],[13.04,37.96],[13.51,38.09]]]]}},{"type":"Feature","properties":{"n":"Macedonian Empire","f":-675,"t":-551,"w":"Q83958"},"geometry":{"type":"Polygon","coordinates":[[[22.7,40.03],[22.08,40.23],[22.66,40.68],[22.7,40.03]]]}},{"type":"Feature","properties":{"n":"Neo-Assyrian Empire","f":-675,"t":-616,"w":"Q10914393"},"geometry":{"type":"MultiPolygon","coordinates":[[[[45.12,39.97],[45.96,39.84],[45.76,39.58],[46.14,39.06],[45.02,38.48],[45.26,37.51],[44.86,36.93],[47.16,35.71],[46.98,35.0],[46.18,34.81],[46.15,34.04],[47.97,32.81],[48.25,31.46],[49.29,30.63],[48.99,30.05],[47.87,29.54],[46.62,29.86],[46.59,30.31],[45.77,30.44],[43.15,32.81],[39.55,34.81],[38.18,35.0],[36.73,33.65],[36.48,32.62],[36.75,32.3],[35.81,29.22],[34.84,29.41],[34.35,27.74],[33.19,28.51],[35.85,23.88],[31.67,23.75],[30.46,23.36],[29.67,24.2],[28.64,24.59],[28.27,26.52],[29.02,30.82],[30.97,31.66],[31.88,31.46],[32.0,31.08],[34.3,31.27],[35.64,34.36],[36.05,34.55],[35.84,36.29],[36.29,36.8],[34.34,36.74],[33.34,37.71],[33.28,38.61],[34.4,38.8],[34.7,39.32],[35.37,39.0],[37.17,39.58],[38.28,40.23],[40.59,40.29],[41.91,41.13],[44.07,41.2],[44.07,40.74],[44.93,40.68],[45.12,39.97]]],[[[46.89,34.94],[46.97,34.94],[46.96,34.87],[46.89,34.94]]],[[[34.09,35.0],[33.04,34.55],[32.23,34.94],[34.54,35.71],[34.09,35.0]]],[[[35.89,39.45],[35.97,39.45],[35.96,39.38],[35.89,39.45]]]]}},{"type":"Feature","properties":{"n":"Kingdom of Kush","f":-675,"t":-651,"w":"Q241790"},"geometry":{"type":"Polygon","coordinates":[[[34.26,19.64],[36.05,16.81],[34.71,16.49],[34.68,15.78],[32.53,15.2],[31.73,15.59],[31.39,16.36],[30.54,23.36],[33.39,23.81],[33.82,23.49],[34.26,19.64]]]}},{"type":"Feature","properties":{"n":"Kingdom of Kush","f":-650,"t":-631,"w":"Q241790"},"geometry":{"type":"Polygon","coordinates":[[[34.26,19.64],[36.05,16.81],[34.71,16.49],[34.68,15.78],[32.53,15.2],[31.73,15.59],[31.39,16.36],[30.54,23.36],[33.39,23.81],[33.82,23.49],[34.26,19.64]]]}},{"type":"Feature","properties":{"n":"Olmec Civilization","f":-650,"t":-367,"w":"Q135364"},"geometry":{"type":"Polygon","coordinates":[[[-94.23,17.58],[-95.95,18.61],[-95.47,18.8],[-94.92,18.16],[-92.69,18.54],[-94.23,17.58]]]}},{"type":"Feature","properties":{"n":"Elam","f":-650,"t":-631,"w":"Q128904"},"geometry":{"type":"Polygon","coordinates":[[[50.07,30.82],[50.48,30.44],[49.59,29.99],[48.25,31.46],[47.98,32.88],[48.99,32.94],[50.29,31.85],[50.07,30.82]]]}},{"type":"Feature","properties":{"n":"(Phoenician Empire)","f":-650,"t":-616,"w":"Q41642"},"geometry":{"type":"MultiPolygon","coordinates":[[[[-7.47,33.26],[-7.88,33.52],[-6.99,33.97],[-7.47,33.26]]],[[[-5.58,36.03],[-6.25,36.61],[-5.45,36.35],[-4.56,36.87],[-3.85,36.8],[-5.58,36.03]]],[[[7.35,37.06],[7.97,36.93],[7.67,36.55],[7.35,37.06]]],[[[9.6,37.32],[10.23,37.25],[9.3,36.74],[8.9,37.13],[9.6,37.32]]],[[[1.18,39.06],[1.65,39.13],[1.66,39.0],[1.18,39.06]]],[[[9.36,39.19],[8.97,38.87],[8.34,39.0],[8.4,40.29],[8.73,39.32],[9.36,39.19]]],[[[12.84,32.88],[13.76,32.88],[14.9,32.43],[14.59,32.17],[12.84,32.88]]],[[[33.24,35.0],[34.1,35.13],[34.09,35.0],[33.52,34.74],[33.24,35.0]]],[[[11.08,35.39],[10.62,35.32],[10.54,35.52],[10.85,35.77],[11.08,35.39]]],[[[14.34,35.84],[14.34,36.03],[14.57,35.97],[14.34,35.84]]],[[[12.57,38.03],[12.81,38.09],[12.73,37.9],[12.57,38.03]]],[[[13.51,38.09],[13.67,37.96],[13.04,37.96],[13.51,38.09]]]]}},{"type":"Feature","properties":{"n":"Scythia","f":-650,"t":-551,"w":"Q131802"},"geometry":{"type":"MultiPolygon","coordinates":[[[[29.05,44.93],[29.07,44.95],[29.14,44.77],[29.05,44.93]]],[[[50.11,45.08],[50.15,44.83],[50.0,44.94],[50.11,45.08]]],[[[50.35,45.08],[50.28,44.96],[50.26,45.02],[50.35,45.08]]],[[[52.66,45.52],[52.68,45.41],[52.6,45.43],[52.66,45.52]]],[[[47.99,45.55],[47.97,45.47],[47.92,45.56],[47.99,45.55]]],[[[32.01,46.2],[32.15,46.15],[31.56,46.26],[32.01,46.2]]],[[[38.34,44.37],[38.17,45.28],[37.69,45.68],[38.49,46.09],[37.77,46.64],[38.5,46.66],[39.2,47.27],[35.83,46.62],[34.85,46.03],[32.48,46.08],[31.55,46.55],[32.36,46.47],[32.87,46.91],[32.6,47.11],[30.92,47.18],[30.01,46.82],[28.69,44.36],[26.66,44.43],[25.68,45.07],[24.8,46.5],[24.46,48.68],[24.91,49.26],[26.53,49.96],[34.89,52.59],[40.57,53.11],[43.89,52.2],[46.73,50.12],[55.43,49.14],[56.97,48.56],[59.6,46.54],[60.29,45.49],[59.57,44.64],[58.27,44.26],[50.84,44.17],[50.26,44.53],[51.54,44.53],[51.01,44.92],[51.42,45.36],[53.2,45.33],[52.77,45.57],[53.03,46.89],[51.18,47.11],[49.35,46.52],[48.73,45.9],[47.46,45.68],[46.71,44.5],[47.46,43.56],[47.65,43.88],[47.69,42.83],[43.97,43.29],[40.96,42.99],[38.34,44.37]]]]}},{"type":"Feature","properties":{"n":"Phoenician Colonies","f":-650,"t":-631,"w":"Q1094394"},"geometry":{"type":"MultiPolygon","coordinates":[[[[33.52,34.74],[33.24,35.0],[33.81,35.32],[34.09,35.0],[33.52,34.74]]],[[[14.34,35.84],[14.34,36.03],[14.57,35.97],[14.34,35.84]]],[[[-5.23,36.48],[-5.58,36.03],[-6.25,36.61],[-5.45,36.35],[-5.31,36.55],[-4.56,36.87],[-3.85,36.8],[-5.23,36.48]]],[[[12.57,38.03],[12.81,38.09],[12.73,37.9],[12.57,38.03]]],[[[13.12,38.16],[13.67,37.96],[13.04,37.96],[13.12,38.16]]],[[[1.27,38.8],[1.18,39.06],[1.65,39.13],[1.27,38.8]]],[[[9.36,39.19],[8.34,39.0],[8.4,40.29],[8.73,39.32],[9.36,39.19]]]]}},{"type":"Feature","properties":{"n":"Babylonia","f":-650,"t":-631,"w":"Q47690"},"geometry":{"type":"Polygon","coordinates":[[[48.25,31.46],[49.29,30.63],[48.4,29.6],[46.62,29.86],[46.59,30.31],[45.77,30.44],[43.42,32.49],[44.21,32.69],[44.42,33.14],[45.47,32.94],[46.05,33.33],[45.92,34.04],[48.15,32.43],[48.25,31.46]]]}},{"type":"Feature","properties":{"n":"Etruscans","f":-650,"t":-601,"w":"Q17161"},"geometry":{"type":"MultiPolygon","coordinates":[[[[10.46,42.89],[10.46,42.69],[10.21,42.69],[10.46,42.89]]],[[[10.29,43.67],[11.18,44.52],[12.15,43.6],[13.03,43.41],[13.5,42.69],[13.01,42.11],[13.81,41.91],[14.03,41.39],[13.0,41.33],[12.37,41.72],[12.45,42.11],[11.73,42.17],[10.29,43.67]]]]}},{"type":"Feature","properties":{"n":"Carthage","f":-650,"t":-631,"w":"Q2429397"},"geometry":{"type":"MultiPolygon","coordinates":[[[[10.54,36.74],[11.01,37.0],[10.54,36.22],[9.92,36.74],[10.54,36.74]]],[[[10.23,36.87],[10.23,36.93],[10.31,36.93],[10.23,36.87]]]]}},{"type":"Feature","properties":{"n":"Lydia","f":-650,"t":-631,"w":"Q620765"},"geometry":{"type":"Polygon","coordinates":[[[30.08,39.64],[30.32,38.87],[29.21,36.87],[28.78,37.32],[27.48,37.58],[27.01,38.67],[27.44,39.19],[26.74,39.26],[27.17,39.64],[26.66,40.16],[29.05,40.36],[28.91,40.61],[29.48,40.74],[29.37,41.2],[31.11,41.13],[30.08,39.64]]]}},{"type":"Feature","properties":{"n":"Assyrian Egypt","f":-650,"t":-631,"w":"Q97357417"},"geometry":{"type":"Polygon","coordinates":[[[45.12,39.97],[45.96,39.84],[45.76,39.58],[46.14,39.06],[45.02,38.48],[45.26,37.51],[44.84,37.32],[44.92,36.8],[47.21,35.52],[46.89,34.94],[46.28,34.94],[46.05,33.33],[45.47,32.94],[44.42,33.14],[44.21,32.69],[43.35,32.56],[40.06,34.55],[38.42,35.07],[36.73,33.65],[36.48,32.62],[36.75,32.3],[35.81,29.22],[34.84,29.41],[34.35,27.74],[33.19,28.51],[32.53,29.92],[32.43,29.6],[35.85,23.88],[31.67,23.75],[30.46,23.36],[29.67,24.2],[28.64,24.59],[28.27,26.52],[29.02,30.82],[30.97,31.66],[31.88,31.46],[32.0,31.08],[34.3,31.27],[35.64,34.36],[36.05,34.55],[35.84,36.29],[36.29,36.8],[34.34,36.74],[33.34,37.71],[33.28,38.61],[34.4,38.8],[34.7,39.32],[35.37,39.0],[37.17,39.58],[38.28,40.23],[40.59,40.29],[41.91,41.13],[44.07,41.2],[44.07,40.74],[44.96,40.42],[45.12,39.97]]]}},{"type":"Feature","properties":{"n":"Phoenicia","f":-650,"t":-616,"w":"Q41642"},"geometry":{"type":"MultiPolygon","coordinates":[[[[12.84,32.88],[14.9,32.43],[14.59,32.17],[12.84,32.88]]],[[[-6.81,33.59],[-7.47,33.26],[-7.88,33.52],[-6.99,33.97],[-6.81,33.59]]],[[[10.85,35.77],[11.08,35.58],[11.08,35.39],[10.62,35.32],[10.85,35.77]]],[[[7.27,36.87],[7.35,37.06],[7.97,36.93],[7.67,36.55],[7.27,36.87]]],[[[9.6,37.32],[10.23,37.25],[9.3,36.74],[8.9,37.13],[9.6,37.32]]]]}},{"type":"Feature","properties":{"n":"Greek City-States","f":-650,"t":-631,"w":"Q148837"},"geometry":{"type":"MultiPolygon","coordinates":[[[[25.68,35.13],[26.23,35.19],[24.82,35.0],[23.62,35.52],[25.68,35.13]]],[[[23.12,36.35],[23.11,36.16],[22.87,36.16],[23.12,36.35]]],[[[24.36,37.71],[24.43,37.58],[24.27,37.51],[24.36,37.71]]],[[[25.22,37.71],[25.29,37.51],[25.05,37.51],[25.22,37.71]]],[[[20.93,37.9],[20.92,37.64],[20.61,37.71],[20.93,37.9]]],[[[24.77,38.03],[25.07,37.77],[24.83,37.71],[24.77,38.03]]],[[[16.43,38.93],[17.14,39.19],[15.93,37.96],[15.39,38.16],[15.13,36.87],[14.83,37.71],[15.15,38.16],[16.02,38.29],[16.43,38.93]]],[[[20.57,38.42],[20.79,38.09],[20.32,38.16],[20.57,38.42]]],[[[24.18,38.55],[23.98,37.84],[23.21,38.03],[23.4,37.32],[22.71,37.58],[23.06,36.67],[22.36,36.67],[22.22,37.06],[21.74,36.87],[21.7,37.51],[21.24,37.84],[21.74,38.35],[20.75,38.93],[21.64,39.38],[22.17,39.06],[22.59,39.51],[22.54,40.03],[22.7,40.03],[23.14,39.45],[22.8,39.06],[23.34,39.0],[23.49,38.8],[22.94,38.87],[23.31,38.48],[24.18,38.55]]],[[[23.56,38.74],[23.48,38.74],[23.49,38.8],[23.56,38.74]]],[[[24.67,38.93],[24.66,38.74],[24.36,38.87],[24.67,38.93]]],[[[19.91,39.58],[19.76,39.64],[19.76,39.77],[19.91,39.58]]],[[[16.88,40.74],[17.51,40.68],[17.58,40.36],[16.87,40.48],[16.29,39.77],[16.88,40.74]]],[[[24.81,40.81],[24.79,40.61],[24.55,40.55],[24.81,40.81]]],[[[23.7,40.81],[23.66,40.23],[23.19,40.36],[23.39,40.87],[25.15,41.07],[23.7,40.81]]],[[[14.5,41.0],[14.89,40.74],[14.42,40.68],[14.03,41.0],[14.5,41.0]]],[[[32.89,34.55],[32.23,34.94],[34.54,35.71],[32.89,34.55]]],[[[28.02,36.48],[28.25,36.48],[28.14,36.03],[27.74,35.9],[28.02,36.48]]],[[[33.98,36.29],[33.51,36.22],[33.76,36.42],[33.98,36.29]]],[[[30.28,36.61],[30.52,36.74],[30.49,36.35],[30.11,36.42],[30.28,36.61]]],[[[27.19,36.8],[26.87,36.67],[27.04,36.93],[27.19,36.8]]],[[[25.57,37.13],[25.56,37.0],[25.33,37.0],[25.57,37.13]]],[[[26.31,37.71],[26.3,37.58],[25.99,37.51],[26.31,37.71]]],[[[28.51,36.87],[28.03,36.67],[28.07,37.13],[27.22,37.32],[27.28,38.03],[27.48,37.58],[28.17,37.45],[28.51,36.87]]],[[[26.43,38.22],[26.38,38.67],[27.06,38.35],[26.85,38.61],[26.91,39.38],[27.44,39.19],[27.01,38.67],[27.28,38.03],[26.43,38.22]]],[[[26.22,38.55],[26.11,38.16],[25.88,38.16],[26.22,38.55]]],[[[25.79,39.19],[26.04,39.38],[26.64,39.0],[25.79,39.19]]],[[[25.46,40.03],[25.45,39.84],[24.97,39.84],[25.46,40.03]]],[[[26.13,39.51],[26.27,40.29],[27.47,40.42],[26.66,40.16],[27.17,39.64],[26.13,39.51]]],[[[26.04,40.29],[26.02,40.16],[25.7,40.1],[26.04,40.29]]],[[[26.84,40.48],[26.77,40.61],[27.01,40.55],[26.84,40.48]]],[[[40.57,40.68],[39.69,40.61],[37.87,40.68],[36.44,41.2],[38.3,40.87],[40.47,41.07],[40.57,40.68]]],[[[28.14,41.65],[29.37,41.2],[29.26,40.87],[27.92,41.0],[28.14,41.65]]]]}},{"type":"Feature","properties":{"n":"Phoenician Colonies","f":-630,"t":-616,"w":"Q1094394"},"geometry":{"type":"MultiPolygon","coordinates":[[[[33.52,34.74],[33.24,35.0],[33.81,35.32],[34.09,35.0],[33.52,34.74]]],[[[14.34,35.84],[14.34,36.03],[14.57,35.97],[14.34,35.84]]],[[[-5.23,36.48],[-5.58,36.03],[-6.25,36.61],[-5.45,36.35],[-5.31,36.55],[-4.56,36.87],[-3.85,36.8],[-5.23,36.48]]],[[[12.57,38.03],[12.81,38.09],[12.73,37.9],[12.57,38.03]]],[[[13.12,38.16],[13.67,37.96],[13.04,37.96],[13.12,38.16]]],[[[1.27,38.8],[1.18,39.06],[1.65,39.13],[1.27,38.8]]],[[[9.36,39.19],[8.34,39.0],[8.4,40.29],[8.73,39.32],[9.36,39.19]]]]}},{"type":"Feature","properties":{"n":"Kingdom of Kush","f":-630,"t":337,"w":"Q241790"},"geometry":{"type":"Polygon","coordinates":[[[34.26,19.64],[36.05,16.81],[34.71,16.49],[34.68,15.78],[32.53,15.2],[31.73,15.59],[31.39,16.36],[30.54,23.36],[33.39,23.81],[33.82,23.49],[34.26,19.64]]]}},{"type":"Feature","properties":{"n":"Greek City-States","f":-630,"t":-616,"w":"Q148837"},"geometry":{"type":"MultiPolygon","coordinates":[[[[22.11,32.94],[22.48,32.75],[21.86,32.49],[21.56,32.75],[22.11,32.94]]],[[[25.68,35.13],[26.23,35.19],[24.82,35.0],[23.62,35.52],[25.68,35.13]]],[[[23.12,36.35],[23.11,36.16],[22.87,36.16],[23.12,36.35]]],[[[24.36,37.71],[24.43,37.58],[24.27,37.51],[24.36,37.71]]],[[[20.93,37.9],[20.92,37.64],[20.61,37.71],[20.93,37.9]]],[[[24.77,38.03],[25.07,37.77],[24.83,37.71],[24.77,38.03]]],[[[14.06,38.03],[14.53,37.96],[14.37,37.77],[14.06,38.03]]],[[[15.39,38.16],[15.05,36.74],[12.49,37.71],[14.98,37.06],[14.75,37.64],[15.15,38.03],[15.39,38.16]]],[[[17.14,39.19],[15.93,37.96],[15.39,38.16],[17.14,39.19]]],[[[20.57,38.42],[20.79,38.09],[20.32,38.16],[20.57,38.42]]],[[[24.18,38.55],[23.98,37.84],[23.21,38.03],[23.4,37.32],[22.71,37.58],[23.06,36.67],[22.36,36.67],[22.22,37.06],[21.74,36.87],[21.7,37.51],[21.24,37.84],[21.74,38.35],[20.75,38.93],[21.64,39.38],[22.17,39.06],[22.59,39.51],[22.54,40.03],[22.7,40.03],[23.14,39.45],[22.8,39.06],[23.34,39.0],[23.49,38.8],[22.94,38.87],[23.31,38.48],[24.18,38.55]]],[[[23.56,38.74],[23.48,38.74],[23.49,38.8],[23.56,38.74]]],[[[24.67,38.93],[24.66,38.74],[24.36,38.87],[24.67,38.93]]],[[[19.91,39.58],[19.76,39.64],[19.76,39.77],[19.91,39.58]]],[[[17.98,40.61],[18.35,39.9],[17.03,40.55],[16.22,39.84],[16.88,40.74],[17.98,40.61]]],[[[24.81,40.81],[24.79,40.61],[24.55,40.55],[24.81,40.81]]],[[[23.7,40.81],[23.66,40.23],[23.19,40.36],[23.39,40.87],[25.15,41.07],[23.7,40.81]]],[[[14.89,40.74],[14.03,41.0],[14.5,41.0],[14.89,40.74]]],[[[32.89,34.55],[32.23,34.94],[34.54,35.71],[32.89,34.55]]],[[[28.02,36.48],[28.25,36.48],[28.14,36.03],[27.74,35.9],[28.02,36.48]]],[[[32.9,36.42],[33.99,36.35],[32.71,36.03],[32.59,36.35],[32.9,36.42]]],[[[30.28,36.61],[30.52,36.74],[30.49,36.35],[30.11,36.42],[30.28,36.61]]],[[[27.19,36.8],[26.87,36.67],[27.04,36.93],[27.19,36.8]]],[[[25.57,37.13],[25.56,37.0],[25.33,37.0],[25.57,37.13]]],[[[25.22,37.71],[25.29,37.51],[25.05,37.51],[25.22,37.71]]],[[[26.31,37.71],[26.3,37.58],[25.99,37.51],[26.31,37.71]]],[[[28.51,36.87],[28.03,36.67],[28.07,37.13],[27.22,37.32],[27.28,38.03],[27.48,37.58],[28.24,37.38],[28.51,36.87]]],[[[26.43,38.22],[26.38,38.67],[27.06,38.35],[26.85,38.61],[26.91,39.38],[27.44,39.19],[27.01,38.67],[27.28,38.03],[26.43,38.22]]],[[[26.22,38.55],[26.11,38.16],[25.88,38.16],[26.22,38.55]]],[[[25.79,39.19],[26.04,39.38],[26.64,39.0],[25.79,39.19]]],[[[25.46,40.03],[25.45,39.84],[24.97,39.84],[25.46,40.03]]],[[[26.13,39.51],[26.27,40.29],[27.47,40.42],[26.66,40.16],[27.17,39.64],[26.13,39.51]]],[[[26.04,40.29],[26.02,40.16],[25.7,40.1],[26.04,40.29]]],[[[26.84,40.48],[26.77,40.61],[27.01,40.55],[26.84,40.48]]],[[[40.57,40.68],[37.87,40.68],[36.44,41.2],[40.61,40.94],[40.57,40.68]]],[[[29.37,41.2],[29.26,40.87],[27.92,41.0],[28.14,41.65],[29.37,41.2]]]]}},{"type":"Feature","properties":{"n":"Assyrian Egypt","f":-630,"t":-616,"w":"Q97357417"},"geometry":{"type":"Polygon","coordinates":[[[35.85,23.88],[31.67,23.75],[30.46,23.36],[29.67,24.2],[28.64,24.59],[28.27,26.52],[29.02,30.82],[30.97,31.66],[31.88,31.46],[32.0,31.08],[34.3,31.27],[35.64,34.36],[36.05,34.55],[35.84,36.29],[36.29,36.8],[34.34,36.74],[33.29,37.96],[33.71,38.93],[34.4,38.8],[34.7,39.32],[35.37,39.0],[38.28,40.23],[40.59,40.29],[41.91,41.13],[44.07,41.2],[44.07,40.74],[44.96,40.42],[45.12,39.97],[45.96,39.84],[45.76,39.58],[46.14,39.06],[45.02,38.48],[45.26,37.51],[44.84,37.32],[44.92,36.8],[47.21,35.52],[46.89,34.94],[46.18,34.81],[46.15,34.04],[47.9,32.81],[48.55,33.07],[49.72,32.69],[50.29,31.85],[49.98,31.27],[50.48,30.44],[49.66,29.99],[48.94,30.31],[48.09,29.54],[46.62,29.86],[46.59,30.31],[45.77,30.44],[43.15,32.81],[39.55,34.81],[38.18,35.0],[36.73,33.65],[36.48,32.62],[36.75,32.3],[35.81,29.22],[34.84,29.41],[34.35,27.74],[33.19,28.51],[35.85,23.88]]]}},{"type":"Feature","properties":{"n":"Carthage","f":-630,"t":-501,"w":"Q2429397"},"geometry":{"type":"Polygon","coordinates":[[[10.31,35.45],[9.99,36.93],[9.22,36.74],[8.83,37.06],[9.76,37.32],[10.46,36.74],[11.01,37.0],[10.46,36.42],[11.08,35.39],[10.31,35.45]]]}},{"type":"Feature","properties":{"n":"Lydia","f":-630,"t":-616,"w":"Q620765"},"geometry":{"type":"Polygon","coordinates":[[[34.07,40.03],[33.16,39.71],[33.72,39.0],[33.27,38.48],[33.5,37.71],[30.52,36.74],[28.51,36.87],[28.24,37.38],[27.48,37.58],[27.01,38.67],[27.3,39.38],[26.74,39.26],[27.17,39.64],[26.66,40.16],[29.05,40.36],[28.91,40.61],[29.48,40.74],[29.37,41.2],[31.18,41.07],[32.63,41.91],[35.12,42.04],[33.99,40.68],[34.07,40.03]]]}},{"type":"Feature","properties":{"n":"Lydia","f":-615,"t":-601,"w":"Q620765"},"geometry":{"type":"Polygon","coordinates":[[[33.99,40.68],[34.07,40.03],[33.16,39.71],[33.79,38.93],[33.26,38.42],[33.51,37.77],[32.83,37.25],[31.74,37.32],[30.52,36.74],[28.51,36.87],[28.24,37.38],[27.48,37.58],[27.01,38.67],[27.3,39.38],[26.74,39.26],[27.17,39.64],[26.66,40.16],[29.05,40.36],[28.91,40.61],[29.48,40.74],[29.37,41.2],[31.18,41.07],[32.63,41.91],[35.12,42.04],[34.29,41.13],[34.31,40.68],[33.99,40.68]]]}},{"type":"Feature","properties":{"n":"Kingdom of Urartu","f":-615,"t":-601,"w":"Q185068"},"geometry":{"type":"Polygon","coordinates":[[[45.12,39.97],[45.96,39.84],[45.76,39.58],[46.14,39.06],[45.02,38.48],[45.24,37.38],[44.63,37.45],[44.45,38.35],[43.22,39.0],[39.48,38.61],[39.18,38.16],[38.42,38.35],[38.15,38.03],[37.28,38.61],[38.28,40.23],[40.59,40.29],[41.91,41.13],[44.07,41.2],[44.07,40.74],[44.96,40.42],[45.12,39.97]]]}},{"type":"Feature","properties":{"n":"Twenty-sixth Dynasty of Egypt","f":-615,"t":-551,"w":"Q662410"},"geometry":{"type":"Polygon","coordinates":[[[34.35,27.74],[33.19,28.51],[32.53,29.92],[32.43,29.6],[35.79,24.07],[35.55,23.81],[31.67,23.75],[30.46,23.36],[28.29,25.16],[28.45,28.83],[29.02,30.82],[30.97,31.66],[33.29,31.08],[34.35,27.74]]]}},{"type":"Feature","properties":{"n":"Phoenicia","f":-615,"t":-531,"w":"Q41642"},"geometry":{"type":"MultiPolygon","coordinates":[[[[-7.47,33.26],[-7.88,33.52],[-6.99,33.97],[-7.47,33.26]]],[[[-5.23,36.48],[-5.58,36.03],[-6.25,36.61],[-5.45,36.35],[-5.31,36.55],[-4.56,36.87],[-3.85,36.8],[-5.23,36.48]]],[[[7.27,36.87],[7.35,37.06],[7.97,36.93],[7.67,36.55],[7.27,36.87]]],[[[12.57,38.03],[12.81,38.09],[12.73,37.9],[12.57,38.03]]],[[[1.18,39.06],[1.65,39.13],[1.66,39.0],[1.18,39.06]]],[[[9.36,39.19],[8.34,39.0],[8.4,40.29],[8.73,39.32],[9.36,39.19]]],[[[13.76,32.88],[14.9,32.43],[14.59,32.17],[12.84,32.88],[13.76,32.88]]],[[[35.64,34.36],[36.05,34.55],[35.88,35.19],[36.23,35.58],[36.02,33.52],[35.22,33.14],[35.64,34.36]]],[[[33.52,34.74],[33.29,34.74],[33.81,35.32],[34.1,35.13],[33.52,34.74]]],[[[14.34,36.03],[14.57,35.97],[14.57,35.77],[14.34,36.03]]],[[[13.51,38.09],[13.67,37.96],[13.04,37.96],[13.51,38.09]]]]}},{"type":"Feature","properties":{"n":"Greek City-States","f":-615,"t":-601,"w":"Q148837"},"geometry":{"type":"MultiPolygon","coordinates":[[[[20.58,30.95],[20.13,30.95],[20.02,32.24],[20.64,32.69],[22.11,32.94],[23.23,32.36],[20.54,31.91],[20.58,30.95]]],[[[23.12,36.35],[23.11,36.16],[22.87,36.16],[23.12,36.35]]],[[[24.36,37.71],[24.43,37.58],[24.27,37.51],[24.36,37.71]]],[[[20.93,37.9],[20.92,37.64],[20.61,37.71],[20.93,37.9]]],[[[24.77,38.03],[25.07,37.77],[24.83,37.71],[24.77,38.03]]],[[[14.06,38.03],[14.53,37.96],[14.37,37.77],[14.06,38.03]]],[[[15.39,38.16],[15.05,36.74],[12.49,37.71],[14.98,37.06],[14.75,37.64],[15.15,38.03],[15.39,38.16]]],[[[17.14,39.19],[15.93,37.96],[15.39,38.16],[17.14,39.19]]],[[[20.8,38.29],[20.79,38.09],[20.32,38.16],[20.8,38.29]]],[[[23.56,38.74],[24.18,38.55],[23.98,37.84],[23.21,38.03],[23.4,37.32],[22.71,37.58],[23.06,36.67],[22.36,36.67],[22.22,37.06],[21.74,36.87],[21.7,37.51],[21.24,37.84],[21.74,38.35],[20.75,38.93],[21.64,39.38],[22.17,39.06],[22.59,39.51],[22.54,40.03],[22.7,40.03],[23.14,39.45],[22.8,39.06],[23.34,39.0],[23.49,38.8],[22.94,38.74],[23.63,38.48],[23.56,38.74]]],[[[23.56,38.74],[23.48,38.74],[23.49,38.8],[23.56,38.74]]],[[[24.67,38.93],[24.66,38.74],[24.36,38.87],[24.67,38.93]]],[[[19.91,39.58],[19.76,39.64],[19.76,39.77],[19.91,39.58]]],[[[17.98,40.61],[18.35,39.9],[17.03,40.55],[16.22,39.84],[16.88,40.74],[17.98,40.61]]],[[[14.89,40.68],[14.03,41.0],[15.06,40.87],[15.36,40.36],[15.9,39.97],[14.89,40.68]]],[[[15.36,40.48],[15.37,40.55],[15.44,40.55],[15.36,40.48]]],[[[15.29,40.55],[15.29,40.61],[15.37,40.61],[15.29,40.55]]],[[[24.81,40.81],[24.79,40.61],[24.55,40.55],[24.81,40.81]]],[[[23.7,40.81],[23.66,40.23],[23.19,40.36],[23.39,40.87],[25.15,41.07],[23.7,40.81]]],[[[19.42,40.94],[19.44,41.33],[19.69,41.46],[19.83,41.07],[19.42,40.94]]],[[[32.89,34.55],[32.23,34.94],[34.54,35.71],[32.89,34.55]]],[[[25.68,35.13],[26.23,35.19],[24.82,35.0],[23.62,35.52],[25.68,35.13]]],[[[28.02,36.48],[28.25,36.48],[28.14,36.03],[27.74,35.9],[28.02,36.48]]],[[[32.9,36.42],[33.99,36.35],[32.71,36.03],[32.59,36.35],[32.9,36.42]]],[[[30.28,36.61],[30.52,36.74],[30.49,36.35],[30.11,36.42],[30.28,36.61]]],[[[27.19,36.8],[26.87,36.67],[27.04,36.93],[27.19,36.8]]],[[[25.57,37.13],[25.56,37.0],[25.33,37.0],[25.57,37.13]]],[[[25.22,37.71],[25.29,37.51],[25.05,37.51],[25.22,37.71]]],[[[26.31,37.71],[26.3,37.58],[25.99,37.51],[26.31,37.71]]],[[[28.51,36.87],[28.03,36.67],[28.07,37.13],[27.22,37.32],[27.28,38.03],[27.48,37.58],[28.24,37.38],[28.51,36.87]]],[[[26.43,38.22],[26.38,38.67],[27.06,38.35],[26.85,38.61],[26.91,39.38],[27.44,39.19],[27.01,38.67],[27.28,38.03],[26.43,38.22]]],[[[26.22,38.55],[26.11,38.16],[25.88,38.16],[26.22,38.55]]],[[[25.79,39.19],[26.51,39.32],[26.64,39.0],[25.79,39.19]]],[[[25.46,40.03],[25.45,39.84],[24.97,39.84],[25.46,40.03]]],[[[26.13,39.51],[26.27,40.29],[27.47,40.42],[26.66,40.16],[27.17,39.64],[26.13,39.51]]],[[[26.04,40.29],[26.02,40.16],[25.7,40.1],[26.04,40.29]]],[[[26.84,40.48],[26.77,40.61],[27.01,40.55],[26.84,40.48]]],[[[40.57,40.68],[37.87,40.68],[36.44,41.2],[40.61,40.94],[40.57,40.68]]],[[[29.37,41.2],[29.26,40.87],[27.92,41.0],[28.14,41.65],[29.37,41.2]]]]}},{"type":"Feature","properties":{"n":"Median Kingdom","f":-615,"t":-601,"w":"Q1183338"},"geometry":{"type":"MultiPolygon","coordinates":[[[[71.26,36.1],[72.69,35.32],[72.71,34.49],[70.96,32.56],[69.2,31.85],[66.23,29.79],[64.2,29.41],[61.73,29.6],[59.89,28.96],[58.93,27.42],[59.36,25.36],[57.38,25.74],[56.71,27.16],[54.68,26.45],[51.6,27.8],[50.06,30.12],[50.42,30.56],[50.06,30.76],[50.28,31.79],[49.84,32.49],[48.61,33.01],[47.82,32.81],[46.15,34.04],[46.28,34.94],[46.89,34.94],[47.21,35.52],[45.94,36.35],[48.23,37.51],[48.72,38.55],[49.09,37.51],[51.64,36.55],[59.19,37.71],[63.52,38.8],[65.3,37.77],[71.26,36.1]]],[[[55.99,37.32],[56.0,37.38],[56.08,37.38],[55.99,37.32]]]]}},{"type":"Feature","properties":{"n":"(Phoenician Empire)","f":-615,"t":-531,"w":"Q41642"},"geometry":{"type":"MultiPolygon","coordinates":[[[[-7.47,33.26],[-7.88,33.52],[-6.99,33.97],[-7.47,33.26]]],[[[-5.23,36.48],[-5.58,36.03],[-6.25,36.61],[-5.45,36.35],[-5.31,36.55],[-4.56,36.87],[-3.85,36.8],[-5.23,36.48]]],[[[7.27,36.87],[7.35,37.06],[7.97,36.93],[7.67,36.55],[7.27,36.87]]],[[[12.57,38.03],[12.81,38.09],[12.73,37.9],[12.57,38.03]]],[[[1.18,39.06],[1.65,39.13],[1.66,39.0],[1.18,39.06]]],[[[9.36,39.19],[8.34,39.0],[8.4,40.29],[8.73,39.32],[9.36,39.19]]],[[[13.76,32.88],[14.9,32.43],[14.59,32.17],[12.84,32.88],[13.76,32.88]]],[[[35.64,34.36],[36.05,34.55],[35.88,35.19],[36.23,35.58],[36.02,33.52],[35.22,33.14],[35.64,34.36]]],[[[33.52,34.74],[33.29,34.74],[33.81,35.32],[34.1,35.13],[33.52,34.74]]],[[[14.34,36.03],[14.57,35.97],[14.57,35.77],[14.34,36.03]]],[[[13.51,38.09],[13.67,37.96],[13.04,37.96],[13.51,38.09]]]]}},{"type":"Feature","properties":{"n":"Elam","f":-615,"t":-601,"w":"Q128904"},"geometry":{"type":"Polygon","coordinates":[[[49.02,30.31],[49.29,30.63],[48.25,31.46],[48.08,33.01],[49.84,32.49],[50.28,31.79],[50.06,30.76],[50.42,30.56],[50.06,30.18],[49.02,30.31]]]}},{"type":"Feature","properties":{"n":"Neo-Assyrian Empire","f":-615,"t":-601,"w":"Q10914393"},"geometry":{"type":"Polygon","coordinates":[[[47.21,35.52],[46.89,34.94],[46.28,34.94],[46.13,34.49],[44.42,33.78],[43.97,33.2],[44.21,32.69],[43.35,32.56],[39.55,34.81],[38.18,35.0],[36.73,33.65],[36.48,32.62],[36.75,32.3],[35.81,29.22],[34.84,29.41],[34.52,28.06],[34.16,28.38],[33.29,31.08],[34.3,31.27],[35.06,33.01],[36.02,33.52],[36.37,35.45],[35.92,35.52],[35.85,36.35],[36.29,36.8],[34.95,36.67],[35.21,36.93],[34.99,37.77],[36.75,38.74],[37.3,38.8],[38.15,38.03],[38.42,38.35],[39.18,38.16],[39.48,38.61],[42.68,39.06],[44.45,38.35],[44.31,37.9],[44.92,36.8],[47.21,35.52]]]}},{"type":"Feature","properties":{"n":"Babylonia","f":-615,"t":-601,"w":"Q47690"},"geometry":{"type":"Polygon","coordinates":[[[48.4,29.6],[46.62,29.86],[46.59,30.31],[45.77,30.44],[43.43,32.56],[44.21,32.69],[43.97,33.2],[44.59,33.91],[46.13,34.49],[46.67,33.39],[47.97,32.81],[48.25,31.46],[49.29,30.63],[48.4,29.6]]]}}]}