{"type":"FeatureCollection","act":{"from":-800,"to":-700,"years_inclusive":[-800,-701]},"attribution":{"source":"Cliopatria v0.2.0 (Seshat Global History Databank)","release":"GitHub tag v0.2.0 — https://github.com/Seshat-Global-History-Databank/cliopatria/releases/tag/v0.2.0","release_archive_sha256":"04e9f0d8ecb1d18a0cbb7d37a0b963a2c0ca4ebc2935708d27cc5d5131e4d5b8","internal_label_note":"The payload self-identifies as \"cliopatria_polities_only_v012\"; cite the release tag, not that label.","licence":"CC BY 4.0 — https://creativecommons.org/licenses/by/4.0/","citation":"Bennett, J.S., Mutch, E., Tollefson, A. et al. (2025). Cliopatria — A geospatial database of world-wide political entities from 3400BCE to 2024CE. Scientific Data 12, 247. https://doi.org/10.1038/s41597-025-04516-9","changes_made":"Changes were made. Features filtered to those overlapping this act window; polygons simplified with Douglas-Peucker at 0.25 degrees (topology preserved), invalid geometries repaired, and coordinates snapped to a 0.01 degree grid (2 decimal places); properties reduced to Name (n), FromYear (f), ToYear (t) and Wikidata Q-ID (w)."},"features":[{"type":"Feature","properties":{"n":"Tabal Kingdom","f":-900,"t":-751,"w":"Q727710"},"geometry":{"type":"Polygon","coordinates":[[[34.52,36.75],[35.08,37.75],[36.23,38.56],[37.27,38.8],[38.08,38.12],[36.84,37.16],[35.35,36.56],[34.52,36.75]]]}},{"type":"Feature","properties":{"n":"Philistia","f":-900,"t":-751,"w":"Q7185566"},"geometry":{"type":"Polygon","coordinates":[[[34.76,32.24],[35.0,32.43],[34.86,31.59],[34.3,31.27],[34.76,32.24]]]}},{"type":"Feature","properties":{"n":"Phrygia","f":-900,"t":-751,"w":"Q32579"},"geometry":{"type":"Polygon","coordinates":[[[33.79,38.93],[33.59,38.55],[33.0,38.93],[31.8,38.67],[31.67,39.77],[30.67,40.03],[33.01,40.42],[33.52,40.1],[33.13,39.38],[33.79,38.93]]]}},{"type":"Feature","properties":{"n":"Zhou Dynasty","f":-800,"t":-751,"w":"Q35216"},"geometry":{"type":"Polygon","coordinates":[[[118.07,38.16],[119.46,37.96],[119.16,37.19],[120.75,37.9],[122.71,37.45],[122.39,36.8],[120.98,36.61],[119.23,34.81],[120.34,34.36],[120.92,32.62],[121.96,31.98],[121.84,31.66],[120.92,31.85],[121.48,31.34],[119.25,31.46],[117.66,31.08],[116.08,31.34],[115.52,32.11],[114.14,32.49],[114.03,33.01],[111.68,33.26],[110.67,34.61],[108.2,34.61],[106.98,35.26],[107.73,35.97],[110.6,35.77],[114.54,39.71],[117.53,40.29],[118.08,39.26],[117.64,38.87],[118.07,38.16]]]}},{"type":"Feature","properties":{"n":"Kingdom of Urartu","f":-800,"t":-751,"w":"Q185068"},"geometry":{"type":"Polygon","coordinates":[[[46.11,38.87],[44.99,38.29],[43.22,39.0],[41.77,38.74],[41.3,39.26],[43.59,40.29],[45.68,40.03],[46.11,38.87]]]}},{"type":"Feature","properties":{"n":"Kingdom of Judah","f":-800,"t":-751,"w":"Q48685"},"geometry":{"type":"Polygon","coordinates":[[[35.53,31.46],[34.61,31.34],[35.04,31.91],[35.57,31.91],[35.53,31.46]]]}},{"type":"Feature","properties":{"n":"Sabaeans","f":-800,"t":-701,"w":"Q940785"},"geometry":{"type":"MultiPolygon","coordinates":[[[[45.85,15.39],[45.92,15.39],[45.92,15.33],[45.85,15.39]]],[[[43.87,15.52],[43.94,15.52],[43.94,15.46],[43.87,15.52]]],[[[43.95,15.59],[44.02,15.59],[44.02,15.52],[43.95,15.59]]],[[[43.94,15.46],[44.02,15.52],[44.48,15.91],[45.94,15.78],[45.85,15.39],[44.0,15.14],[43.94,15.46]]]]}},{"type":"Feature","properties":{"n":"Phoenicia","f":-800,"t":-751,"w":"Q41642"},"geometry":{"type":"MultiPolygon","coordinates":[[[[14.67,32.56],[14.9,32.36],[14.52,32.17],[14.37,32.56],[14.67,32.56]]],[[[35.22,33.14],[36.23,35.58],[36.23,34.1],[35.22,33.14]]],[[[33.52,34.74],[33.29,34.74],[33.81,35.32],[34.1,35.13],[33.52,34.74]]],[[[11.08,35.39],[10.62,35.32],[10.54,35.52],[10.85,35.77],[11.08,35.39]]],[[[14.34,36.03],[14.57,35.97],[14.57,35.77],[14.34,36.03]]],[[[-6.25,36.61],[-6.0,36.48],[-5.99,36.22],[-6.25,36.61]]],[[[11.01,37.0],[10.54,36.22],[9.84,36.74],[11.01,37.0]]],[[[7.27,36.87],[7.35,37.06],[7.97,36.93],[7.67,36.55],[7.27,36.87]]],[[[10.31,36.87],[10.23,36.87],[10.23,36.93],[10.31,36.87]]],[[[9.6,37.32],[10.23,37.25],[9.3,36.74],[9.06,37.06],[9.6,37.32]]]]}},{"type":"Feature","properties":{"n":"Greek City-States","f":-800,"t":-751,"w":"Q148837"},"geometry":{"type":"MultiPolygon","coordinates":[[[[32.89,34.55],[32.23,34.94],[32.89,35.39],[34.53,35.58],[32.89,34.55]]],[[[25.68,35.13],[26.23,35.19],[24.82,35.0],[23.62,35.52],[25.68,35.13]]],[[[27.74,35.9],[27.69,36.29],[28.25,36.48],[27.74,35.9]]],[[[27.04,36.93],[27.12,36.93],[27.19,36.8],[26.87,36.67],[27.04,36.93]]],[[[25.33,37.0],[25.34,37.13],[25.57,37.13],[25.33,37.0]]],[[[27.19,36.93],[27.52,37.19],[27.67,37.0],[27.19,36.93]]],[[[24.03,38.67],[23.98,37.84],[23.04,37.9],[23.4,37.32],[22.71,37.58],[23.06,36.67],[22.36,36.67],[22.22,37.06],[21.74,36.87],[21.7,37.51],[21.24,37.84],[21.74,38.35],[21.28,38.55],[22.55,38.87],[22.34,39.38],[22.62,40.1],[23.14,39.45],[22.8,39.06],[23.34,39.0],[23.49,38.8],[22.94,38.74],[24.03,38.67]]],[[[25.82,38.48],[25.99,38.67],[26.22,38.55],[25.88,38.16],[25.82,38.48]]],[[[23.57,38.8],[23.56,38.74],[23.48,38.74],[23.57,38.8]]]]}},{"type":"Feature","properties":{"n":"Kingdom of Kush","f":-800,"t":-701,"w":"Q241790"},"geometry":{"type":"Polygon","coordinates":[[[34.26,19.64],[36.05,16.81],[34.71,16.49],[34.68,15.78],[32.53,15.2],[31.73,15.59],[31.39,16.36],[30.54,23.36],[33.39,23.81],[33.88,23.17],[34.26,19.64]]]}},{"type":"Feature","properties":{"n":"Neo-Assyrian Empire","f":-800,"t":-751,"w":"Q10914393"},"geometry":{"type":"MultiPolygon","coordinates":[[[[38.51,38.42],[39.1,38.16],[39.56,38.67],[42.68,39.06],[44.32,38.48],[45.35,36.03],[46.33,35.84],[45.86,34.74],[46.79,33.65],[46.38,32.3],[46.62,31.79],[45.92,31.72],[45.94,31.21],[45.02,31.14],[43.15,32.81],[38.8,35.07],[37.76,34.68],[36.73,33.65],[36.77,33.26],[35.77,33.26],[36.37,35.45],[35.92,35.52],[35.85,36.35],[38.51,38.42]]],[[[34.5,36.83],[34.5,36.87],[34.52,36.87],[34.5,36.83]]]]}},{"type":"Feature","properties":{"n":"Kingdom of Israel","f":-800,"t":-751,"w":"Q3185305"},"geometry":{"type":"Polygon","coordinates":[[[35.04,31.91],[34.85,32.43],[35.06,33.01],[35.78,33.33],[36.31,32.49],[35.88,31.98],[35.04,31.91]]]}},{"type":"Feature","properties":{"n":"Elam","f":-800,"t":-701,"w":"Q128904"},"geometry":{"type":"Polygon","coordinates":[[[49.59,29.99],[47.65,30.95],[47.91,31.79],[47.59,32.24],[48.09,33.07],[49.72,32.69],[50.38,30.31],[49.59,29.99]]]}},{"type":"Feature","properties":{"n":"(Phoenician Empire)","f":-800,"t":-751,"w":"Q41642"},"geometry":{"type":"MultiPolygon","coordinates":[[[[14.67,32.56],[14.9,32.36],[14.52,32.17],[14.37,32.56],[14.67,32.56]]],[[[35.22,33.14],[36.23,35.58],[36.23,34.1],[35.22,33.14]]],[[[33.52,34.74],[33.29,34.74],[33.81,35.32],[34.1,35.13],[33.52,34.74]]],[[[11.08,35.39],[10.62,35.32],[10.54,35.52],[10.85,35.77],[11.08,35.39]]],[[[14.34,36.03],[14.57,35.97],[14.57,35.77],[14.34,36.03]]],[[[-6.25,36.61],[-6.0,36.48],[-5.99,36.22],[-6.25,36.61]]],[[[11.01,37.0],[10.54,36.22],[9.84,36.74],[11.01,37.0]]],[[[7.27,36.87],[7.35,37.06],[7.97,36.93],[7.67,36.55],[7.27,36.87]]],[[[10.31,36.87],[10.23,36.87],[10.23,36.93],[10.31,36.87]]],[[[9.6,37.32],[10.23,37.25],[9.3,36.74],[9.06,37.06],[9.6,37.32]]]]}},{"type":"Feature","properties":{"n":"Twenty-third Dynasty of Egypt","f":-800,"t":-751,"w":"Q748170"},"geometry":{"type":"Polygon","coordinates":[[[32.6,29.92],[31.14,29.54],[30.94,28.77],[30.06,29.22],[30.3,29.47],[29.09,30.82],[30.97,31.66],[32.84,31.08],[32.6,29.92]]]}},{"type":"Feature","properties":{"n":"Twenty-second Dynasty of Egypt","f":-800,"t":-751,"w":"Q737629"},"geometry":{"type":"Polygon","coordinates":[[[32.63,26.71],[32.42,23.75],[30.46,23.36],[28.57,24.65],[28.23,25.62],[28.35,26.64],[30.28,27.8],[29.57,28.51],[29.68,29.28],[30.59,29.22],[31.02,27.42],[32.63,26.71]]]}},{"type":"Feature","properties":{"n":"Jin","f":-750,"t":-551,"w":"Q6201794"},"geometry":{"type":"Polygon","coordinates":[[[112.32,35.45],[112.15,34.49],[110.9,34.23],[110.59,34.81],[111.23,36.35],[112.2,37.32],[116.1,39.84],[115.86,39.38],[116.4,38.74],[116.15,38.55],[117.2,38.61],[114.28,35.52],[112.32,35.45]]]}},{"type":"Feature","properties":{"n":"Chu","f":-750,"t":-701,"w":"Q504759"},"geometry":{"type":"Polygon","coordinates":[[[117.23,34.1],[118.91,32.94],[117.11,31.66],[116.84,30.69],[116.12,30.37],[114.11,30.5],[112.9,29.34],[110.23,29.99],[110.41,30.31],[109.48,30.95],[109.78,33.33],[110.9,34.23],[113.03,34.74],[113.59,34.23],[117.23,34.1]]]}},{"type":"Feature","properties":{"n":"(Phoenician Empire)","f":-750,"t":-701,"w":"Q41642"},"geometry":{"type":"MultiPolygon","coordinates":[[[[14.67,32.56],[14.9,32.36],[14.52,32.17],[14.37,32.56],[14.67,32.56]]],[[[35.22,33.14],[36.23,35.58],[36.23,34.1],[35.22,33.14]]],[[[33.52,34.74],[33.29,34.74],[33.81,35.32],[34.1,35.13],[33.52,34.74]]],[[[10.85,35.77],[11.08,35.39],[10.62,35.32],[10.85,35.77]]],[[[-5.23,36.48],[-5.58,36.03],[-6.25,36.61],[-5.45,36.35],[-5.31,36.55],[-4.56,36.87],[-3.85,36.8],[-5.23,36.48]]],[[[11.01,37.0],[10.54,36.22],[9.84,36.74],[11.01,37.0]]],[[[7.27,36.87],[7.35,37.06],[7.97,36.93],[7.67,36.55],[7.27,36.87]]],[[[10.31,36.87],[10.23,36.87],[10.23,36.93],[10.31,36.87]]],[[[9.6,37.32],[10.23,37.25],[9.3,36.74],[9.06,37.06],[9.6,37.32]]]]}},{"type":"Feature","properties":{"n":"Tabal Kingdom","f":-750,"t":-701,"w":"Q727710"},"geometry":{"type":"Polygon","coordinates":[[[34.52,36.75],[35.08,37.75],[36.23,38.56],[37.27,38.8],[38.08,38.12],[36.84,37.16],[35.35,36.56],[34.52,36.75]]]}},{"type":"Feature","properties":{"n":"Kingdom of Israel","f":-750,"t":-701,"w":"Q3185305"},"geometry":{"type":"Polygon","coordinates":[[[35.04,31.91],[34.85,32.43],[35.06,33.01],[35.78,33.33],[36.31,32.49],[35.88,31.98],[35.04,31.91]]]}},{"type":"Feature","properties":{"n":"Qin","f":-750,"t":-451,"w":"Q1471995"},"geometry":{"type":"Polygon","coordinates":[[[107.94,34.55],[108.45,35.26],[108.22,35.64],[112.17,37.25],[111.23,36.35],[110.59,34.81],[110.74,34.23],[107.94,34.55]]]}},{"type":"Feature","properties":{"n":"Philistia","f":-750,"t":-701,"w":"Q7185566"},"geometry":{"type":"Polygon","coordinates":[[[35.04,31.91],[34.3,31.27],[35.0,32.43],[35.04,31.91]]]}},{"type":"Feature","properties":{"n":"Neo-Assyrian Empire","f":-750,"t":-701,"w":"Q10914393"},"geometry":{"type":"MultiPolygon","coordinates":[[[[39.18,38.16],[39.48,38.61],[42.76,39.06],[44.32,38.48],[45.35,36.03],[46.33,35.84],[45.86,34.74],[46.79,33.65],[46.38,32.3],[46.62,31.79],[45.92,31.72],[45.94,31.21],[45.02,31.14],[43.15,32.81],[38.8,35.07],[37.76,34.68],[36.73,33.65],[36.77,33.26],[35.77,33.26],[36.37,35.45],[35.92,35.52],[35.85,36.35],[38.31,38.09],[39.18,38.16]]],[[[34.5,36.83],[34.5,36.87],[34.52,36.87],[34.5,36.83]]]]}},{"type":"Feature","properties":{"n":"Twenty-second Dynasty of Egypt","f":-750,"t":-701,"w":"Q737629"},"geometry":{"type":"Polygon","coordinates":[[[32.63,26.71],[32.42,23.75],[30.46,23.36],[28.57,24.65],[28.23,25.62],[28.35,26.64],[30.28,27.8],[29.57,28.51],[29.68,29.28],[30.59,29.22],[31.02,27.42],[32.63,26.71]]]}},{"type":"Feature","properties":{"n":"Phrygia","f":-750,"t":-701,"w":"Q32579"},"geometry":{"type":"Polygon","coordinates":[[[33.16,39.71],[33.79,38.93],[33.59,38.55],[33.0,38.93],[31.8,38.67],[31.67,39.77],[30.73,39.77],[30.45,40.16],[30.87,41.13],[32.63,41.91],[34.47,41.98],[34.35,41.65],[34.75,41.65],[34.07,40.03],[33.16,39.71]]]}},{"type":"Feature","properties":{"n":"Etruscans","f":-750,"t":-651,"w":"Q17161"},"geometry":{"type":"MultiPolygon","coordinates":[[[[10.54,43.08],[10.29,43.8],[12.95,43.47],[13.5,42.69],[13.01,42.11],[13.81,41.91],[14.03,41.39],[13.0,41.33],[12.37,41.72],[12.45,42.11],[11.73,42.17],[10.54,43.08]]],[[[10.46,42.89],[10.46,42.69],[10.21,42.69],[10.46,42.89]]]]}},{"type":"Feature","properties":{"n":"(Spring and Autumn States)","f":-750,"t":-551,"w":"Q185047"},"geometry":{"type":"Polygon","coordinates":[[[114.11,30.5],[112.9,29.34],[110.23,29.99],[110.41,30.31],[109.48,30.95],[109.31,31.59],[109.78,33.33],[110.9,34.23],[107.94,34.55],[108.45,35.26],[108.22,35.64],[113.27,37.77],[115.9,39.9],[121.23,40.94],[118.99,39.19],[117.89,39.19],[117.6,38.48],[119.46,37.96],[119.16,37.19],[120.75,37.9],[122.71,37.45],[122.39,36.8],[120.98,36.61],[119.23,34.81],[120.34,34.36],[120.92,32.62],[121.99,31.85],[120.92,31.85],[122.0,31.08],[120.68,30.18],[121.48,30.31],[122.03,29.92],[121.42,29.47],[119.78,29.99],[117.88,29.54],[116.27,29.92],[116.04,30.37],[114.11,30.5]]]}},{"type":"Feature","properties":{"n":"Twenty-third Dynasty of Egypt","f":-750,"t":-701,"w":"Q748170"},"geometry":{"type":"Polygon","coordinates":[[[32.6,29.92],[31.14,29.54],[30.94,28.77],[30.06,29.22],[30.3,29.47],[29.09,30.82],[30.97,31.66],[32.84,31.08],[32.6,29.92]]]}},{"type":"Feature","properties":{"n":"Roman Kingdom","f":-750,"t":-701,"w":"Q201038"},"geometry":{"type":"Polygon","coordinates":[[[12.45,42.11],[12.45,41.78],[11.97,42.11],[12.45,42.11]]]}},{"type":"Feature","properties":{"n":"Qi","f":-750,"t":-551,"w":"Q1143524"},"geometry":{"type":"Polygon","coordinates":[[[119.16,37.19],[120.75,37.9],[122.71,37.45],[122.39,36.8],[121.91,36.93],[120.96,36.42],[116.05,35.84],[115.52,36.22],[115.44,36.74],[117.23,38.67],[119.46,37.96],[119.16,37.19]]]}},{"type":"Feature","properties":{"n":"Song","f":-750,"t":-481,"w":"Q7462"},"geometry":{"type":"Polygon","coordinates":[[[117.23,34.1],[116.62,34.1],[114.34,34.74],[115.99,35.71],[116.65,34.55],[117.57,34.55],[117.23,34.1]]]}},{"type":"Feature","properties":{"n":"Teng","f":-750,"t":-481,"w":"Q1356151"},"geometry":{"type":"Polygon","coordinates":[[[116.96,35.45],[117.18,35.07],[116.7,34.68],[116.18,35.26],[116.96,35.45]]]}},{"type":"Feature","properties":{"n":"Chen","f":-750,"t":-481,"w":"Q1069690"},"geometry":{"type":"Polygon","coordinates":[[[113.75,34.81],[115.59,34.42],[114.16,34.29],[113.75,34.81]]]}},{"type":"Feature","properties":{"n":"Wey","f":-750,"t":-551,"w":"Q1147897"},"geometry":{"type":"Polygon","coordinates":[[[114.61,36.1],[115.44,36.74],[115.6,36.22],[114.25,35.45],[114.61,36.1]]]}},{"type":"Feature","properties":{"n":"Cao","f":-750,"t":-481,"w":"Q204077"},"geometry":{"type":"Polygon","coordinates":[[[115.23,35.39],[114.5,34.94],[114.41,35.45],[115.01,35.77],[115.23,35.39]]]}},{"type":"Feature","properties":{"n":"Lu","f":-750,"t":-481,"w":"Q555994"},"geometry":{"type":"Polygon","coordinates":[[[117.64,34.87],[118.25,35.58],[116.29,35.32],[115.99,35.71],[115.23,35.39],[114.96,35.64],[115.6,36.22],[116.05,35.84],[120.73,36.42],[119.23,34.81],[117.64,34.87]]]}},{"type":"Feature","properties":{"n":"Kingdom of Urartu","f":-750,"t":-701,"w":"Q185068"},"geometry":{"type":"Polygon","coordinates":[[[38.28,40.23],[39.77,40.1],[41.91,41.13],[42.75,40.94],[43.2,41.26],[44.93,40.68],[45.12,39.97],[45.96,39.84],[45.76,39.58],[46.14,39.06],[45.02,38.48],[45.26,37.51],[44.92,37.32],[44.31,37.9],[44.45,38.35],[43.22,39.0],[40.85,38.87],[38.31,38.09],[37.3,38.8],[38.28,40.23]]]}},{"type":"Feature","properties":{"n":"Zheng","f":-750,"t":-451,"w":"Q197598"},"geometry":{"type":"Polygon","coordinates":[[[114.41,35.45],[114.47,34.87],[113.34,34.94],[113.68,35.39],[114.41,35.45]]]}},{"type":"Feature","properties":{"n":"Kingdom of Judah","f":-750,"t":-701,"w":"Q48685"},"geometry":{"type":"Polygon","coordinates":[[[35.53,31.46],[34.61,31.34],[35.04,31.91],[35.57,31.91],[35.53,31.46]]]}},{"type":"Feature","properties":{"n":"Cai","f":-750,"t":-481,"w":"Q1025803"},"geometry":{"type":"Polygon","coordinates":[[[113.59,34.23],[113.03,34.74],[113.34,34.94],[113.93,34.49],[113.59,34.23]]]}},{"type":"Feature","properties":{"n":"Zhu","f":-750,"t":-451,"w":"Q227007"},"geometry":{"type":"Polygon","coordinates":[[[117.59,35.64],[118.3,35.52],[117.77,35.0],[116.98,35.32],[117.59,35.64]]]}},{"type":"Feature","properties":{"n":"Yan","f":-750,"t":-405,"w":"Q1472004"},"geometry":{"type":"Polygon","coordinates":[[[117.89,39.19],[117.62,38.67],[116.15,38.55],[116.4,38.74],[115.86,39.38],[116.14,39.9],[117.57,40.36],[121.23,40.94],[119.32,39.51],[117.89,39.19]]]}},{"type":"Feature","properties":{"n":"Later Zhou","f":-750,"t":-451,"w":"Q1154556"},"geometry":{"type":"Polygon","coordinates":[[[112.32,35.45],[113.53,35.39],[113.34,34.94],[112.39,34.49],[112.32,35.45]]]}},{"type":"Feature","properties":{"n":"Xu","f":-750,"t":-451,"w":"Q2650109"},"geometry":{"type":"Polygon","coordinates":[[[117.18,35.07],[117.97,34.74],[117.67,34.42],[116.73,34.55],[117.18,35.07]]]}},{"type":"Feature","properties":{"n":"Wu","f":-750,"t":-551,"w":"Q274488"},"geometry":{"type":"Polygon","coordinates":[[[116.27,29.92],[116.1,30.31],[116.84,30.69],[117.11,31.66],[118.91,32.94],[117.23,34.1],[118.28,34.94],[119.3,34.81],[120.34,34.36],[120.92,32.62],[121.99,31.85],[120.92,31.85],[122.0,31.08],[120.68,30.18],[121.48,30.31],[122.03,29.92],[121.42,29.47],[119.78,29.99],[117.96,29.54],[116.27,29.92]]]}},{"type":"Feature","properties":{"n":"Phoenicia","f":-750,"t":-676,"w":"Q41642"},"geometry":{"type":"MultiPolygon","coordinates":[[[[14.67,32.56],[14.9,32.36],[14.52,32.17],[14.37,32.56],[14.67,32.56]]],[[[35.22,33.14],[36.23,35.58],[36.23,34.1],[35.22,33.14]]],[[[33.52,34.74],[33.29,34.74],[33.81,35.32],[34.1,35.13],[33.52,34.74]]],[[[10.85,35.77],[11.08,35.39],[10.62,35.32],[10.85,35.77]]],[[[-5.23,36.48],[-5.58,36.03],[-6.25,36.61],[-5.45,36.35],[-5.31,36.55],[-4.56,36.87],[-3.85,36.8],[-5.23,36.48]]],[[[11.01,37.0],[10.54,36.22],[9.84,36.74],[11.01,37.0]]],[[[7.27,36.87],[7.35,37.06],[7.97,36.93],[7.67,36.55],[7.27,36.87]]],[[[10.31,36.87],[10.23,36.87],[10.23,36.93],[10.31,36.87]]],[[[9.6,37.32],[10.23,37.25],[9.3,36.74],[9.06,37.06],[9.6,37.32]]]]}},{"type":"Feature","properties":{"n":"Greek City-States","f":-750,"t":-701,"w":"Q148837"},"geometry":{"type":"MultiPolygon","coordinates":[[[[22.89,36.42],[23.12,36.35],[23.11,36.16],[22.89,36.42]]],[[[24.36,37.71],[24.43,37.58],[24.27,37.51],[24.36,37.71]]],[[[20.62,37.9],[20.93,37.9],[20.92,37.64],[20.62,37.9]]],[[[20.57,38.42],[20.79,38.09],[20.32,38.16],[20.57,38.42]]],[[[24.03,38.67],[24.16,38.22],[23.98,37.84],[23.04,37.9],[23.4,37.32],[22.71,37.58],[23.06,36.67],[22.36,36.67],[22.22,37.06],[21.74,36.87],[21.7,37.51],[21.24,37.84],[21.74,38.35],[21.28,38.55],[22.55,38.87],[22.34,39.38],[22.62,40.1],[23.14,39.45],[22.8,39.06],[23.12,39.13],[23.49,38.8],[22.94,38.87],[23.31,38.48],[24.03,38.67]]],[[[20.59,38.87],[20.74,38.87],[20.73,38.61],[20.59,38.87]]],[[[23.57,38.8],[23.56,38.74],[23.48,38.74],[23.57,38.8]]],[[[23.26,40.23],[23.65,40.03],[23.64,39.9],[23.26,40.23]]],[[[23.5,40.23],[23.42,40.23],[23.43,40.29],[23.5,40.23]]],[[[23.67,40.36],[23.75,40.36],[23.74,40.23],[23.67,40.36]]],[[[32.89,34.55],[32.23,34.94],[34.54,35.71],[32.89,34.55]]],[[[24.3,35.32],[26.23,35.19],[23.68,35.26],[23.62,35.52],[24.3,35.32]]],[[[27.69,36.29],[28.25,36.48],[28.14,36.03],[27.74,35.9],[27.69,36.29]]],[[[27.19,36.8],[26.87,36.67],[27.04,36.93],[27.19,36.8]]],[[[25.57,37.13],[25.56,37.0],[25.33,37.0],[25.57,37.13]]],[[[27.21,37.13],[27.75,37.13],[27.67,37.0],[27.21,37.13]]],[[[24.99,37.71],[25.22,37.71],[25.29,37.51],[24.99,37.71]]],[[[24.77,38.03],[25.07,37.77],[24.83,37.71],[24.77,38.03]]],[[[26.22,38.55],[26.11,38.16],[25.88,38.16],[26.22,38.55]]],[[[24.67,38.93],[24.66,38.74],[24.36,38.87],[24.67,38.93]]]]}}]}