{"type":"FeatureCollection","act":{"from":-1100,"to":-1000,"years_inclusive":[-1100,-1001]},"attribution":{"source":"Cliopatria v0.2.0 (Seshat Global History Databank)","release":"GitHub tag v0.2.0 — https://github.com/Seshat-Global-History-Databank/cliopatria/releases/tag/v0.2.0","release_archive_sha256":"04e9f0d8ecb1d18a0cbb7d37a0b963a2c0ca4ebc2935708d27cc5d5131e4d5b8","internal_label_note":"The payload self-identifies as \"cliopatria_polities_only_v012\"; cite the release tag, not that label.","licence":"CC BY 4.0 — https://creativecommons.org/licenses/by/4.0/","citation":"Bennett, J.S., Mutch, E., Tollefson, A. et al. (2025). Cliopatria — A geospatial database of world-wide political entities from 3400BCE to 2024CE. Scientific Data 12, 247. https://doi.org/10.1038/s41597-025-04516-9","changes_made":"Changes were made. Features filtered to those overlapping this act window; polygons simplified with Douglas-Peucker at 0.25 degrees (topology preserved), invalid geometries repaired, and coordinates snapped to a 0.01 degree grid (2 decimal places); properties reduced to Name (n), FromYear (f), ToYear (t) and Wikidata Q-ID (w)."},"features":[{"type":"Feature","properties":{"n":"New Kingdom of Egypt","f":-1150,"t":-1001,"w":"Q180568"},"geometry":{"type":"Polygon","coordinates":[[[34.3,31.27],[34.94,29.73],[34.12,27.74],[32.44,29.79],[34.33,26.26],[32.37,24.39],[32.4,23.24],[33.24,22.01],[34.16,19.06],[33.13,19.25],[31.84,18.29],[30.87,18.09],[30.52,18.74],[30.49,22.08],[29.16,24.39],[27.84,25.29],[27.79,27.61],[28.57,30.95],[29.4,30.82],[30.97,31.66],[32.24,31.21],[34.3,31.27]]]}},{"type":"Feature","properties":{"n":"Neo-Hittite states","f":-1150,"t":-1001,"w":"Q770281"},"geometry":{"type":"Polygon","coordinates":[[[38.6,37.64],[36.39,35.9],[35.79,36.31],[38.08,38.13],[38.6,37.64]]]}},{"type":"Feature","properties":{"n":"Phoenicia","f":-1150,"t":-1001,"w":"Q41642"},"geometry":{"type":"Polygon","coordinates":[[[35.22,33.14],[35.64,34.36],[36.05,34.55],[35.88,35.9],[36.4,35.71],[35.85,33.26],[35.22,33.14]]]}},{"type":"Feature","properties":{"n":"(Phoenician Empire)","f":-1150,"t":-1001,"w":"Q41642"},"geometry":{"type":"Polygon","coordinates":[[[35.22,33.14],[35.64,34.36],[36.05,34.55],[35.88,35.9],[36.4,35.71],[35.85,33.26],[35.22,33.14]]]}},{"type":"Feature","properties":{"n":"Philistia","f":-1150,"t":-1001,"w":"Q7185566"},"geometry":{"type":"Polygon","coordinates":[[[34.36,31.08],[35.06,33.01],[35.6,33.14],[35.0,31.53],[34.36,31.08]]]}},{"type":"Feature","properties":{"n":"Babylonia","f":-1100,"t":-1001,"w":"Q47690"},"geometry":{"type":"Polygon","coordinates":[[[48.25,31.46],[49.29,30.63],[48.4,29.6],[46.62,29.86],[46.59,30.31],[45.77,30.44],[43.42,32.49],[44.72,33.07],[45.47,32.94],[46.05,33.33],[45.92,34.04],[47.64,33.14],[48.25,31.46]]]}},{"type":"Feature","properties":{"n":"Greek Dark Ages","f":-1100,"t":-1001,"w":"Q210443"},"geometry":{"type":"MultiPolygon","coordinates":[[[[25.68,35.13],[26.23,35.19],[24.82,35.0],[23.62,35.52],[25.68,35.13]]],[[[27.74,35.9],[27.69,36.29],[28.25,36.48],[27.74,35.9]]],[[[27.04,36.93],[27.12,36.93],[27.19,36.8],[26.87,36.67],[27.04,36.93]]],[[[25.33,37.0],[25.34,37.13],[25.57,37.13],[25.33,37.0]]],[[[27.19,36.93],[27.52,37.19],[27.67,37.0],[27.19,36.93]]],[[[24.03,38.67],[23.98,37.84],[23.04,37.9],[23.4,37.32],[22.71,37.58],[23.06,36.67],[22.36,36.67],[22.22,37.06],[21.74,36.87],[21.7,37.51],[21.24,37.84],[21.74,38.35],[21.28,38.55],[22.55,38.87],[22.34,39.38],[22.62,40.1],[23.14,39.45],[22.8,39.06],[23.34,39.0],[23.49,38.8],[22.94,38.74],[24.03,38.67]]],[[[25.88,38.16],[25.91,38.67],[26.22,38.55],[25.88,38.16]]],[[[23.49,38.8],[23.57,38.8],[23.56,38.74],[23.49,38.8]]]]}},{"type":"Feature","properties":{"n":"Elam","f":-1100,"t":-1001,"w":"Q128904"},"geometry":{"type":"MultiPolygon","coordinates":[[[[50.17,31.53],[50.48,31.59],[50.39,31.46],[50.71,31.01],[52.24,29.41],[51.86,28.77],[51.07,28.44],[50.06,30.18],[49.02,30.31],[49.29,30.63],[48.25,31.46],[47.64,33.14],[49.84,32.49],[50.17,31.53]]],[[[50.46,31.46],[50.47,31.53],[50.55,31.53],[50.46,31.46]]]]}},{"type":"Feature","properties":{"n":"Assyria","f":-1100,"t":-1001,"w":"Q41137"},"geometry":{"type":"Polygon","coordinates":[[[35.12,36.8],[36.41,37.9],[36.92,38.87],[36.73,39.26],[38.61,40.29],[42.35,40.42],[42.74,39.9],[44.52,39.71],[44.06,39.32],[44.53,38.35],[44.31,37.9],[45.35,36.03],[46.33,35.84],[45.86,34.74],[46.05,33.33],[43.35,32.56],[39.25,34.94],[36.31,34.81],[36.4,35.71],[35.97,36.02],[37.05,36.18],[38.6,37.64],[38.08,38.13],[36.22,36.87],[35.12,36.8]]]}},{"type":"Feature","properties":{"n":"Shang Dynasty","f":-1100,"t":-1001,"w":"Q128938"},"geometry":{"type":"Polygon","coordinates":[[[118.46,36.87],[116.0,34.29],[115.18,34.36],[114.38,35.19],[110.07,35.07],[113.3,36.29],[114.39,38.48],[115.08,38.93],[115.63,38.93],[116.39,37.77],[118.46,36.87]]]}}]}