{"type":"FeatureCollection","act":{"from":-1800,"to":-1700,"years_inclusive":[-1800,-1701]},"attribution":{"source":"Cliopatria v0.2.0 (Seshat Global History Databank)","release":"GitHub tag v0.2.0 — https://github.com/Seshat-Global-History-Databank/cliopatria/releases/tag/v0.2.0","release_archive_sha256":"04e9f0d8ecb1d18a0cbb7d37a0b963a2c0ca4ebc2935708d27cc5d5131e4d5b8","internal_label_note":"The payload self-identifies as \"cliopatria_polities_only_v012\"; cite the release tag, not that label.","licence":"CC BY 4.0 — https://creativecommons.org/licenses/by/4.0/","citation":"Bennett, J.S., Mutch, E., Tollefson, A. et al. (2025). Cliopatria — A geospatial database of world-wide political entities from 3400BCE to 2024CE. Scientific Data 12, 247. https://doi.org/10.1038/s41597-025-04516-9","changes_made":"Changes were made. Features filtered to those overlapping this act window; polygons simplified with Douglas-Peucker at 0.25 degrees (topology preserved), invalid geometries repaired, and coordinates snapped to a 0.01 degree grid (2 decimal places); properties reduced to Name (n), FromYear (f), ToYear (t) and Wikidata Q-ID (w)."},"features":[{"type":"Feature","properties":{"n":"Middle Kingdom of Egypt","f":-1800,"t":-1701,"w":"Q191324"},"geometry":{"type":"Polygon","coordinates":[[[31.92,31.53],[32.2,31.29],[31.78,31.28],[32.69,31.04],[33.24,30.12],[34.84,29.5],[34.25,27.73],[33.24,28.55],[32.48,29.94],[32.62,28.98],[33.56,27.88],[34.19,26.27],[33.03,25.89],[32.82,25.35],[33.36,24.4],[33.22,22.35],[32.27,22.38],[31.19,21.42],[30.66,21.57],[31.38,22.78],[31.05,23.67],[28.68,24.53],[27.67,25.66],[28.7,27.9],[29.66,28.96],[28.5,31.05],[29.18,30.83],[31.1,31.6],[31.92,31.53]]]}},{"type":"Feature","properties":{"n":"Assyria","f":-1800,"t":-1761,"w":"Q41137"},"geometry":{"type":"MultiPolygon","coordinates":[[[[45.03,35.97],[44.7,35.84],[44.76,34.55],[43.45,35.13],[41.2,35.07],[41.25,35.45],[40.36,35.84],[41.46,37.13],[42.27,37.32],[42.59,36.8],[43.78,37.0],[45.03,35.97]]],[[[27.52,40.94],[27.52,41.0],[27.6,41.0],[27.52,40.94]]],[[[27.76,41.0],[27.6,41.0],[27.61,41.07],[27.76,41.0]]]]}},{"type":"Feature","properties":{"n":"Hyksos","f":-1800,"t":-1701,"w":"Q192319"},"geometry":{"type":"MultiPolygon","coordinates":[[[[35.56,32.36],[35.34,30.99],[34.49,30.69],[34.84,29.5],[33.24,30.12],[32.69,31.04],[34.48,31.58],[35.98,34.53],[35.93,35.32],[36.53,34.43],[35.56,32.36]]],[[[36.19,33.65],[36.2,33.71],[36.27,33.71],[36.19,33.65]]]]}},{"type":"Feature","properties":{"n":"Babylonia","f":-1800,"t":-1761,"w":"Q47690"},"geometry":{"type":"Polygon","coordinates":[[[44.58,33.2],[45.26,32.49],[44.89,32.04],[44.0,32.24],[44.58,33.2]]]}},{"type":"Feature","properties":{"n":"Indus Valley Civilization","f":-1800,"t":-1761,"w":"Q42534"},"geometry":{"type":"MultiPolygon","coordinates":[[[[68.79,24.14],[68.86,24.14],[68.86,24.07],[68.79,24.14]]],[[[71.62,28.19],[70.24,28.06],[69.64,27.61],[68.42,24.14],[68.85,24.01],[69.39,24.2],[70.21,23.49],[72.34,23.24],[72.67,22.85],[72.36,22.08],[70.8,22.85],[68.81,22.98],[68.16,23.81],[67.29,24.07],[67.21,24.71],[66.63,24.84],[66.49,25.49],[65.72,25.36],[67.43,27.93],[69.93,29.34],[70.72,31.46],[72.86,31.14],[72.56,29.6],[71.62,28.19]]],[[[70.23,27.99],[70.31,27.99],[70.3,27.93],[70.23,27.99]]],[[[70.74,31.53],[70.72,31.46],[70.65,31.46],[70.74,31.53]]],[[[73.2,36.67],[73.34,36.61],[73.09,36.55],[73.2,36.67]]]]}},{"type":"Feature","properties":{"n":"Elam","f":-1800,"t":-1761,"w":"Q128904"},"geometry":{"type":"MultiPolygon","coordinates":[[[[50.46,31.46],[50.47,31.53],[50.55,31.53],[50.46,31.46]]],[[[46.9,33.33],[49.85,32.56],[50.17,31.53],[50.48,31.59],[50.39,31.46],[50.71,31.01],[52.24,29.41],[51.86,28.77],[51.07,28.44],[49.93,30.31],[47.81,30.95],[46.48,31.91],[46.54,32.94],[46.13,33.33],[45.47,32.94],[44.3,33.39],[44.52,34.49],[44.95,34.87],[45.3,34.61],[45.61,35.13],[46.08,34.1],[46.81,33.84],[46.9,33.33]]]]}},{"type":"Feature","properties":{"n":"Sumerian City-States","f":-1800,"t":-1761,"w":"Q2345840"},"geometry":{"type":"MultiPolygon","coordinates":[[[[48.02,30.82],[48.03,30.89],[48.1,30.89],[48.02,30.82]]],[[[46.59,30.31],[45.77,30.44],[44.99,32.17],[45.26,32.49],[44.61,32.81],[44.59,33.26],[45.47,32.94],[46.13,33.33],[46.54,32.94],[46.48,31.91],[48.03,30.89],[46.59,30.31]]]]}},{"type":"Feature","properties":{"n":"Elam","f":-1760,"t":-1601,"w":"Q128904"},"geometry":{"type":"MultiPolygon","coordinates":[[[[50.17,31.53],[50.48,31.59],[50.39,31.46],[50.71,31.01],[52.24,29.41],[51.86,28.77],[51.07,28.44],[50.06,30.18],[49.11,30.44],[49.29,30.63],[48.25,31.46],[47.64,33.14],[49.84,32.49],[50.17,31.53]]],[[[50.46,31.46],[50.47,31.53],[50.55,31.53],[50.46,31.46]]]]}},{"type":"Feature","properties":{"n":"Babylonia","f":-1760,"t":-1751,"w":"Q47690"},"geometry":{"type":"Polygon","coordinates":[[[48.15,32.43],[48.25,31.46],[49.14,30.69],[47.8,30.89],[46.59,30.31],[45.77,30.44],[45.2,32.04],[44.0,32.24],[44.6,33.33],[45.55,33.01],[46.06,33.39],[45.72,33.71],[45.93,34.1],[48.15,32.43]]]}},{"type":"Feature","properties":{"n":"Indus Valley Civilization","f":-1760,"t":-1751,"w":"Q42534"},"geometry":{"type":"MultiPolygon","coordinates":[[[[72.52,22.85],[72.16,22.34],[71.6,22.59],[71.95,23.11],[72.52,22.85]]],[[[69.45,22.72],[68.36,23.62],[69.39,24.2],[70.92,23.17],[70.73,22.85],[69.45,22.72]]],[[[70.31,27.99],[70.3,27.93],[70.22,27.93],[70.31,27.99]]],[[[71.62,28.19],[70.24,28.06],[69.74,27.74],[68.88,25.49],[67.28,24.65],[66.63,24.84],[66.35,25.55],[65.72,25.36],[67.43,27.93],[69.93,29.34],[70.72,31.46],[72.86,31.14],[72.56,29.6],[71.62,28.19]]],[[[70.74,31.53],[70.72,31.46],[70.65,31.46],[70.74,31.53]]],[[[73.2,36.67],[73.34,36.61],[73.09,36.55],[73.2,36.67]]]]}},{"type":"Feature","properties":{"n":"Assyria","f":-1760,"t":-1701,"w":"Q41137"},"geometry":{"type":"MultiPolygon","coordinates":[[[[44.97,35.0],[44.67,34.49],[42.84,35.19],[44.28,36.67],[45.03,35.97],[44.7,35.26],[44.97,35.0]]],[[[27.52,40.94],[27.52,41.0],[27.6,41.0],[27.52,40.94]]],[[[27.76,41.0],[27.6,41.0],[27.61,41.07],[27.76,41.0]]]]}},{"type":"Feature","properties":{"n":"Indus Valley Civilization","f":-1750,"t":-1701,"w":"Q42534"},"geometry":{"type":"MultiPolygon","coordinates":[[[[72.52,22.85],[72.16,22.34],[71.6,22.59],[71.95,23.11],[72.52,22.85]]],[[[69.45,22.72],[68.36,23.62],[69.39,24.2],[70.92,23.17],[70.73,22.85],[69.45,22.72]]],[[[70.31,27.99],[70.3,27.93],[70.22,27.93],[70.31,27.99]]],[[[71.62,28.19],[70.24,28.06],[69.74,27.74],[68.88,25.49],[67.28,24.65],[66.63,24.84],[66.35,25.55],[65.72,25.36],[67.43,27.93],[69.93,29.34],[70.72,31.46],[72.86,31.14],[72.56,29.6],[71.62,28.19]]],[[[70.74,31.53],[70.72,31.46],[70.65,31.46],[70.74,31.53]]],[[[73.2,36.67],[73.34,36.61],[73.09,36.55],[73.2,36.67]]]]}},{"type":"Feature","properties":{"n":"Babylonia","f":-1750,"t":-1701,"w":"Q47690"},"geometry":{"type":"Polygon","coordinates":[[[46.02,34.74],[46.0,34.1],[47.97,32.75],[48.25,31.46],[49.14,30.69],[47.8,30.89],[46.59,30.31],[45.77,30.44],[43.28,32.62],[42.79,33.59],[40.52,34.55],[42.9,35.07],[43.6,36.29],[44.28,36.67],[46.02,34.74]]]}}]}