{"type":"FeatureCollection","act":{"from":-1600,"to":-1500,"years_inclusive":[-1600,-1501]},"attribution":{"source":"Cliopatria v0.2.0 (Seshat Global History Databank)","release":"GitHub tag v0.2.0 — https://github.com/Seshat-Global-History-Databank/cliopatria/releases/tag/v0.2.0","release_archive_sha256":"04e9f0d8ecb1d18a0cbb7d37a0b963a2c0ca4ebc2935708d27cc5d5131e4d5b8","internal_label_note":"The payload self-identifies as \"cliopatria_polities_only_v012\"; cite the release tag, not that label.","licence":"CC BY 4.0 — https://creativecommons.org/licenses/by/4.0/","citation":"Bennett, J.S., Mutch, E., Tollefson, A. et al. (2025). Cliopatria — A geospatial database of world-wide political entities from 3400BCE to 2024CE. Scientific Data 12, 247. https://doi.org/10.1038/s41597-025-04516-9","changes_made":"Changes were made. Features filtered to those overlapping this act window; polygons simplified with Douglas-Peucker at 0.25 degrees (topology preserved), invalid geometries repaired, and coordinates snapped to a 0.01 degree grid (2 decimal places); properties reduced to Name (n), FromYear (f), ToYear (t) and Wikidata Q-ID (w)."},"features":[{"type":"Feature","properties":{"n":"Assyria","f":-1700,"t":-1501,"w":"Q41137"},"geometry":{"type":"MultiPolygon","coordinates":[[[[45.9,35.0],[45.63,34.16],[44.4,34.16],[44.21,33.33],[42.44,34.49],[42.43,35.07],[42.9,35.07],[43.6,36.29],[44.28,36.67],[45.9,35.0]]],[[[27.52,40.94],[27.52,41.0],[27.6,41.0],[27.52,40.94]]],[[[27.76,41.0],[27.6,41.0],[27.61,41.07],[27.76,41.0]]]]}},{"type":"Feature","properties":{"n":"Fifteenth Dynasty of Egypt","f":-1600,"t":-1501,"w":"Q728479"},"geometry":{"type":"Polygon","coordinates":[[[31.53,31.45],[30.81,30.8],[30.63,29.37],[31.33,29.23],[31.0,27.66],[30.6,27.66],[30.45,28.71],[29.95,28.92],[30.38,29.72],[29.5,30.5],[29.5,30.95],[31.1,31.6],[31.53,31.45]]]}},{"type":"Feature","properties":{"n":"Seventeenth Dynasty of Egypt","f":-1600,"t":-1501,"w":"Q642301"},"geometry":{"type":"Polygon","coordinates":[[[33.83,27.13],[33.95,26.65],[32.59,26.45],[32.94,26.25],[32.82,25.35],[33.35,24.07],[32.75,24.13],[32.54,25.89],[31.85,25.94],[30.6,27.66],[31.69,26.93],[33.83,27.13]]]}},{"type":"Feature","properties":{"n":"Babylonia","f":-1600,"t":-1501,"w":"Q47690"},"geometry":{"type":"Polygon","coordinates":[[[48.25,31.46],[49.14,30.69],[47.8,30.89],[46.59,30.31],[45.77,30.44],[43.42,32.49],[44.22,32.75],[43.88,33.14],[44.37,33.39],[44.4,34.16],[46.38,34.04],[47.97,32.75],[48.25,31.46]]]}},{"type":"Feature","properties":{"n":"Sixteenth Dynasty of Egypt","f":-1600,"t":-1501,"w":"Q737695"},"geometry":{"type":"MultiPolygon","coordinates":[[[[32.36,29.68],[32.57,29.37],[31.46,29.23],[31.62,30.45],[32.86,30.51],[32.36,29.68]]],[[[32.38,31.22],[30.66,30.09],[31.05,31.18],[31.91,31.52],[32.14,31.07],[32.38,31.22]]],[[[32.2,31.29],[32.02,31.38],[31.95,31.51],[32.2,31.29]]]]}},{"type":"Feature","properties":{"n":"Minoan civilization","f":-1600,"t":-1501,"w":"Q134178"},"geometry":{"type":"Polygon","coordinates":[[[26.23,35.19],[24.82,35.0],[23.62,35.52],[26.23,35.19]]]}},{"type":"Feature","properties":{"n":"Elam","f":-1600,"t":-1401,"w":"Q128904"},"geometry":{"type":"MultiPolygon","coordinates":[[[[50.17,31.53],[50.48,31.59],[50.39,31.46],[50.71,31.01],[52.24,29.41],[51.86,28.77],[51.07,28.44],[50.06,30.18],[49.11,30.44],[49.29,30.63],[48.25,31.46],[47.64,33.14],[49.84,32.49],[50.17,31.53]]],[[[50.46,31.46],[50.47,31.53],[50.55,31.53],[50.46,31.46]]]]}},{"type":"Feature","properties":{"n":"Hittites","f":-1600,"t":-1501,"w":"Q5406"},"geometry":{"type":"Polygon","coordinates":[[[37.76,37.45],[36.0,37.0],[35.05,38.29],[35.0,39.19],[34.11,39.71],[35.52,40.29],[37.8,38.35],[37.76,37.45]]]}},{"type":"Feature","properties":{"n":"Shang Dynasty","f":-1600,"t":-1241,"w":"Q128938"},"geometry":{"type":"Polygon","coordinates":[[[118.46,36.87],[116.0,34.29],[115.18,34.36],[114.38,35.19],[110.07,35.07],[113.3,36.29],[114.39,38.48],[115.08,38.93],[115.63,38.93],[116.39,37.77],[118.46,36.87]]]}},{"type":"Feature","properties":{"n":"First Sealand Dynasty","f":-1600,"t":-1501,"w":"Q7440601"},"geometry":{"type":"Polygon","coordinates":[[[46.62,29.86],[46.62,30.56],[48.1,30.82],[48.18,30.31],[46.62,29.86]]]}},{"type":"Feature","properties":{"n":"Hyksos","f":-1600,"t":-1501,"w":"Q192319"},"geometry":{"type":"Polygon","coordinates":[[[36.92,33.97],[36.23,30.88],[35.68,30.63],[34.72,31.0],[34.49,30.69],[34.9,29.49],[34.25,27.73],[32.74,29.45],[32.86,30.51],[31.62,30.45],[31.46,29.23],[30.63,29.37],[30.93,30.29],[32.38,31.22],[34.21,31.32],[35.98,34.53],[35.93,35.32],[36.92,33.97]]]}}]}