{"type":"FeatureCollection","act":{"from":-1200,"to":-1100,"years_inclusive":[-1200,-1101]},"attribution":{"source":"Cliopatria v0.2.0 (Seshat Global History Databank)","release":"GitHub tag v0.2.0 — https://github.com/Seshat-Global-History-Databank/cliopatria/releases/tag/v0.2.0","release_archive_sha256":"04e9f0d8ecb1d18a0cbb7d37a0b963a2c0ca4ebc2935708d27cc5d5131e4d5b8","internal_label_note":"The payload self-identifies as \"cliopatria_polities_only_v012\"; cite the release tag, not that label.","licence":"CC BY 4.0 — https://creativecommons.org/licenses/by/4.0/","citation":"Bennett, J.S., Mutch, E., Tollefson, A. et al. (2025). Cliopatria — A geospatial database of world-wide political entities from 3400BCE to 2024CE. Scientific Data 12, 247. https://doi.org/10.1038/s41597-025-04516-9","changes_made":"Changes were made. Features filtered to those overlapping this act window; polygons simplified with Douglas-Peucker at 0.25 degrees (topology preserved), invalid geometries repaired, and coordinates snapped to a 0.01 degree grid (2 decimal places); properties reduced to Name (n), FromYear (f), ToYear (t) and Wikidata Q-ID (w)."},"features":[{"type":"Feature","properties":{"n":"Elam","f":-1300,"t":-1151,"w":"Q128904"},"geometry":{"type":"MultiPolygon","coordinates":[[[[50.17,31.53],[50.48,31.59],[50.39,31.46],[50.71,31.01],[52.24,29.41],[51.86,28.77],[51.07,28.44],[50.06,30.18],[49.02,30.31],[49.29,30.63],[48.25,31.46],[47.64,33.14],[49.84,32.49],[50.17,31.53]]],[[[50.46,31.46],[50.47,31.53],[50.55,31.53],[50.46,31.46]]]]}},{"type":"Feature","properties":{"n":"New Kingdom of Egypt","f":-1240,"t":-1151,"w":"Q180568"},"geometry":{"type":"Polygon","coordinates":[[[36.15,30.63],[35.46,30.56],[35.11,30.95],[34.56,30.69],[34.94,29.73],[34.35,27.74],[33.19,28.51],[32.44,29.79],[34.33,26.26],[32.37,24.39],[32.4,23.24],[33.24,22.01],[34.16,19.06],[33.13,19.25],[31.84,18.29],[30.87,18.09],[30.52,18.74],[30.49,22.08],[29.16,24.39],[27.71,25.68],[28.57,30.95],[29.4,30.82],[30.97,31.66],[31.88,31.46],[32.0,31.08],[34.3,31.27],[35.64,34.36],[36.37,34.68],[37.0,33.26],[36.15,30.63]]]}},{"type":"Feature","properties":{"n":"Shang Dynasty","f":-1240,"t":-1101,"w":"Q128938"},"geometry":{"type":"Polygon","coordinates":[[[118.46,36.87],[116.0,34.29],[115.18,34.36],[114.38,35.19],[110.07,35.07],[113.3,36.29],[114.39,38.48],[115.08,38.93],[115.63,38.93],[116.39,37.77],[118.46,36.87]]]}},{"type":"Feature","properties":{"n":"Hittites","f":-1200,"t":-1151,"w":"Q5406"},"geometry":{"type":"MultiPolygon","coordinates":[[[[38.81,37.71],[36.4,37.13],[37.52,36.67],[36.58,34.42],[35.93,34.87],[36.14,36.93],[35.49,36.61],[34.58,36.87],[33.98,36.29],[32.56,36.03],[31.82,37.32],[30.81,37.32],[30.23,37.84],[27.18,37.77],[27.28,38.03],[26.43,38.22],[26.38,38.67],[26.59,38.35],[27.06,38.35],[26.94,38.8],[27.54,38.42],[28.56,38.48],[30.83,39.26],[31.44,39.84],[33.14,40.16],[34.36,39.84],[35.13,40.29],[36.6,40.03],[37.79,40.68],[38.62,40.36],[38.27,40.1],[38.81,37.71]]],[[[26.86,38.8],[26.87,38.87],[26.95,38.87],[26.86,38.8]]]]}},{"type":"Feature","properties":{"n":"Mycenaean Greece","f":-1200,"t":-1151,"w":"Q181264"},"geometry":{"type":"MultiPolygon","coordinates":[[[[22.89,36.42],[23.12,36.35],[23.11,36.16],[22.89,36.42]]],[[[24.36,37.71],[24.43,37.58],[24.27,37.51],[24.36,37.71]]],[[[20.62,37.9],[20.93,37.9],[20.92,37.64],[20.62,37.9]]],[[[24.77,38.03],[25.07,37.77],[24.83,37.71],[24.77,38.03]]],[[[24.03,38.67],[24.16,38.22],[23.98,37.84],[23.04,37.9],[23.4,37.32],[22.71,37.58],[23.06,36.67],[22.36,36.67],[22.22,37.06],[21.74,36.87],[21.7,37.51],[21.24,37.84],[21.74,38.35],[20.75,38.93],[22.84,39.71],[23.14,39.45],[22.8,39.06],[23.34,39.0],[23.49,38.8],[22.94,38.87],[23.17,38.67],[24.03,38.67]]],[[[20.49,38.42],[20.8,38.29],[20.79,38.09],[20.32,38.16],[20.49,38.42]]],[[[23.57,38.8],[23.56,38.74],[23.48,38.74],[23.57,38.8]]],[[[24.67,38.93],[24.66,38.74],[24.36,38.87],[24.67,38.93]]],[[[23.74,40.23],[22.59,40.87],[22.92,41.0],[23.74,40.23]]],[[[24.3,35.32],[26.23,35.19],[23.68,35.26],[23.62,35.52],[24.3,35.32]]],[[[27.69,36.29],[28.25,36.48],[28.14,36.03],[27.74,35.9],[27.69,36.29]]],[[[25.34,37.13],[25.57,37.13],[25.56,37.0],[25.34,37.13]]],[[[24.99,37.71],[25.22,37.71],[25.29,37.51],[24.99,37.71]]],[[[25.82,38.48],[25.99,38.67],[26.22,38.55],[25.88,38.16],[25.82,38.48]]],[[[26.1,39.13],[25.79,39.19],[26.51,39.32],[26.64,39.0],[26.1,39.13]]],[[[26.75,39.38],[26.91,39.38],[26.82,39.26],[26.75,39.38]]],[[[26.78,39.77],[26.76,39.51],[26.13,39.51],[26.26,40.16],[26.78,39.77]]],[[[25.46,40.03],[25.45,39.84],[24.97,39.84],[25.46,40.03]]]]}},{"type":"Feature","properties":{"n":"(Alliance between Elam and Babylonia)","f":-1200,"t":-1151,"w":"Q128904"},"geometry":{"type":"MultiPolygon","coordinates":[[[[50.17,31.53],[50.48,31.59],[50.39,31.46],[50.71,31.01],[52.24,29.41],[51.86,28.77],[51.07,28.44],[50.06,30.18],[49.59,29.99],[49.12,30.5],[48.4,29.6],[46.62,29.86],[46.59,30.31],[45.77,30.44],[43.42,32.49],[44.72,33.07],[45.47,32.94],[46.05,33.33],[45.92,34.04],[46.38,34.04],[46.75,33.39],[49.84,32.49],[50.17,31.53]]],[[[50.47,31.53],[50.55,31.53],[50.54,31.46],[50.47,31.53]]]]}},{"type":"Feature","properties":{"n":"Assyria","f":-1200,"t":-1151,"w":"Q41137"},"geometry":{"type":"Polygon","coordinates":[[[44.52,39.71],[44.06,39.32],[44.53,38.35],[44.31,37.9],[45.35,36.03],[46.33,35.84],[45.86,34.74],[46.05,33.33],[43.35,32.56],[39.25,34.94],[36.63,34.94],[36.84,35.45],[37.22,35.45],[37.52,36.67],[36.4,37.13],[38.81,37.71],[38.76,39.13],[38.27,40.1],[39.77,40.1],[40.86,40.55],[42.35,40.42],[42.91,39.97],[44.52,39.71]]]}},{"type":"Feature","properties":{"n":"Babylonia","f":-1200,"t":-1151,"w":"Q47690"},"geometry":{"type":"Polygon","coordinates":[[[48.25,31.46],[49.29,30.63],[48.4,29.6],[46.62,29.86],[46.59,30.31],[45.77,30.44],[43.42,32.49],[44.72,33.07],[45.47,32.94],[46.05,33.33],[45.92,34.04],[47.64,33.14],[48.25,31.46]]]}},{"type":"Feature","properties":{"n":"New Kingdom of Egypt","f":-1150,"t":-1001,"w":"Q180568"},"geometry":{"type":"Polygon","coordinates":[[[34.3,31.27],[34.94,29.73],[34.12,27.74],[32.44,29.79],[34.33,26.26],[32.37,24.39],[32.4,23.24],[33.24,22.01],[34.16,19.06],[33.13,19.25],[31.84,18.29],[30.87,18.09],[30.52,18.74],[30.49,22.08],[29.16,24.39],[27.84,25.29],[27.79,27.61],[28.57,30.95],[29.4,30.82],[30.97,31.66],[32.24,31.21],[34.3,31.27]]]}},{"type":"Feature","properties":{"n":"Elam","f":-1150,"t":-1101,"w":"Q128904"},"geometry":{"type":"MultiPolygon","coordinates":[[[[49.85,32.56],[50.17,31.53],[50.48,31.59],[50.39,31.46],[50.71,31.01],[52.24,29.41],[51.86,28.77],[51.07,28.44],[50.06,30.18],[48.94,30.31],[48.09,29.54],[46.62,29.86],[46.59,30.31],[45.77,30.44],[43.42,32.49],[44.72,33.07],[45.47,32.94],[46.05,33.33],[45.92,34.04],[49.85,32.56]]],[[[50.46,31.46],[50.47,31.53],[50.55,31.53],[50.46,31.46]]]]}},{"type":"Feature","properties":{"n":"Assyria","f":-1150,"t":-1101,"w":"Q41137"},"geometry":{"type":"Polygon","coordinates":[[[34.88,36.74],[36.41,37.9],[36.92,38.87],[36.73,39.26],[38.61,40.29],[42.35,40.42],[42.74,39.9],[44.52,39.71],[44.06,39.32],[44.53,38.35],[44.31,37.9],[45.35,36.03],[46.33,35.84],[45.86,34.74],[46.05,33.33],[43.35,32.56],[39.25,34.94],[36.31,34.81],[36.4,35.71],[35.97,36.02],[37.05,36.18],[38.6,37.64],[38.08,38.13],[36.22,36.87],[34.88,36.74]]]}},{"type":"Feature","properties":{"n":"Neo-Hittite states","f":-1150,"t":-1001,"w":"Q770281"},"geometry":{"type":"Polygon","coordinates":[[[38.6,37.64],[36.39,35.9],[35.79,36.31],[38.08,38.13],[38.6,37.64]]]}},{"type":"Feature","properties":{"n":"Phoenicia","f":-1150,"t":-1001,"w":"Q41642"},"geometry":{"type":"Polygon","coordinates":[[[35.22,33.14],[35.64,34.36],[36.05,34.55],[35.88,35.9],[36.4,35.71],[35.85,33.26],[35.22,33.14]]]}},{"type":"Feature","properties":{"n":"Mycenaean Greece","f":-1150,"t":-1101,"w":"Q181264"},"geometry":{"type":"MultiPolygon","coordinates":[[[[25.68,35.13],[26.23,35.19],[24.82,35.0],[23.62,35.52],[25.68,35.13]]],[[[27.74,35.9],[27.69,36.29],[28.25,36.48],[27.74,35.9]]],[[[22.87,36.16],[22.89,36.42],[23.12,36.35],[22.87,36.16]]],[[[25.33,37.0],[25.34,37.13],[25.57,37.13],[25.33,37.0]]],[[[24.2,37.64],[24.36,37.71],[24.43,37.58],[24.2,37.64]]],[[[25.05,37.51],[24.99,37.71],[25.22,37.71],[25.05,37.51]]],[[[24.68,37.84],[24.69,38.03],[25.07,37.77],[24.68,37.84]]],[[[24.03,38.67],[24.16,38.22],[23.98,37.84],[23.04,37.9],[23.4,37.32],[22.71,37.58],[23.06,36.67],[22.36,36.67],[22.22,37.06],[21.74,36.87],[21.7,37.51],[21.24,37.84],[21.74,38.35],[20.75,38.93],[22.84,39.71],[23.14,39.45],[22.8,39.06],[23.34,39.0],[23.49,38.8],[22.94,38.87],[23.17,38.67],[24.03,38.67]]],[[[23.57,38.8],[23.56,38.74],[23.48,38.74],[23.57,38.8]]]]}},{"type":"Feature","properties":{"n":"(Phoenician Empire)","f":-1150,"t":-1001,"w":"Q41642"},"geometry":{"type":"Polygon","coordinates":[[[35.22,33.14],[35.64,34.36],[36.05,34.55],[35.88,35.9],[36.4,35.71],[35.85,33.26],[35.22,33.14]]]}},{"type":"Feature","properties":{"n":"Philistia","f":-1150,"t":-1001,"w":"Q7185566"},"geometry":{"type":"Polygon","coordinates":[[[34.36,31.08],[35.06,33.01],[35.6,33.14],[35.0,31.53],[34.36,31.08]]]}}]}