{"type":"FeatureCollection","act":{"from":-2100,"to":-2000,"years_inclusive":[-2100,-2001]},"attribution":{"source":"Cliopatria v0.2.0 (Seshat Global History Databank)","release":"GitHub tag v0.2.0 — https://github.com/Seshat-Global-History-Databank/cliopatria/releases/tag/v0.2.0","release_archive_sha256":"04e9f0d8ecb1d18a0cbb7d37a0b963a2c0ca4ebc2935708d27cc5d5131e4d5b8","internal_label_note":"The payload self-identifies as \"cliopatria_polities_only_v012\"; cite the release tag, not that label.","licence":"CC BY 4.0 — https://creativecommons.org/licenses/by/4.0/","citation":"Bennett, J.S., Mutch, E., Tollefson, A. et al. (2025). Cliopatria — A geospatial database of world-wide political entities from 3400BCE to 2024CE. Scientific Data 12, 247. https://doi.org/10.1038/s41597-025-04516-9","changes_made":"Changes were made. Features filtered to those overlapping this act window; polygons simplified with Douglas-Peucker at 0.25 degrees (topology preserved), invalid geometries repaired, and coordinates snapped to a 0.01 degree grid (2 decimal places); properties reduced to Name (n), FromYear (f), ToYear (t) and Wikidata Q-ID (w)."},"features":[{"type":"Feature","properties":{"n":"Indus Valley Civilization","f":-2300,"t":-2001,"w":"Q42534"},"geometry":{"type":"MultiPolygon","coordinates":[[[[76.17,32.94],[75.53,32.17],[75.51,31.4],[76.18,30.31],[76.37,30.12],[76.8,29.99],[76.82,28.96],[70.24,28.06],[69.42,27.16],[69.54,25.36],[72.88,23.36],[72.1,21.11],[71.09,20.66],[70.3,20.86],[68.95,22.21],[70.37,22.91],[68.81,22.98],[68.16,23.81],[67.29,24.07],[67.21,24.71],[66.63,24.84],[66.35,25.55],[62.03,25.1],[62.3,25.55],[66.02,25.94],[65.7,27.42],[66.55,29.92],[67.11,30.5],[68.93,30.89],[71.31,33.46],[73.31,34.1],[75.73,33.65],[76.17,32.94]]],[[[70.23,27.99],[70.31,27.99],[70.3,27.93],[70.23,27.99]]],[[[76.54,30.18],[76.61,30.18],[76.6,30.12],[76.54,30.18]]]]}},{"type":"Feature","properties":{"n":"Gutian Dynasty","f":-2100,"t":-2001,"w":"Q1064034"},"geometry":{"type":"MultiPolygon","coordinates":[[[[50.46,31.46],[50.47,31.53],[50.55,31.53],[50.46,31.46]]],[[[49.85,32.56],[50.51,31.27],[51.18,30.56],[51.05,30.18],[49.11,30.44],[49.29,30.63],[47.7,31.27],[45.45,30.95],[45.4,31.79],[44.32,32.36],[44.16,32.94],[44.6,33.33],[45.55,33.01],[46.07,33.46],[49.85,32.56]]]]}},{"type":"Feature","properties":{"n":"Elam","f":-2100,"t":-2001,"w":"Q128904"},"geometry":{"type":"Polygon","coordinates":[[[51.07,28.44],[50.06,30.18],[51.47,30.5],[52.24,29.41],[51.07,28.44]]]}},{"type":"Feature","properties":{"n":"Upper Egypt","f":-2100,"t":-2001,"w":"Q203751"},"geometry":{"type":"Polygon","coordinates":[[[32.9,26.19],[32.69,25.49],[33.11,25.04],[33.13,24.0],[32.75,24.0],[32.76,24.71],[32.24,25.31],[32.54,25.89],[31.85,25.94],[30.89,27.17],[32.9,26.19]]]}},{"type":"Feature","properties":{"n":"Sumerian City-States","f":-2100,"t":-2001,"w":"Q2345840"},"geometry":{"type":"MultiPolygon","coordinates":[[[[45.45,30.95],[47.7,31.27],[48.03,30.89],[46.59,30.31],[45.77,30.44],[45.45,30.95]]],[[[48.02,30.82],[48.03,30.89],[48.1,30.89],[48.02,30.82]]]]}},{"type":"Feature","properties":{"n":"Lower Egypt","f":-2100,"t":-2001,"w":"Q463871"},"geometry":{"type":"Polygon","coordinates":[[[32.69,31.04],[32.85,30.16],[32.36,29.68],[32.57,29.37],[31.37,29.31],[30.89,27.16],[30.45,28.71],[29.95,28.92],[30.38,29.72],[29.5,30.5],[29.5,30.95],[31.1,31.6],[32.69,31.04]]]}}]}